{
  "type": "FeatureCollection",
  "features": [
    {
      "type": "Feature",
      "geometry": {
        "type": "Point",
        "coordinates": [
          16.6330844,
          49.2302059
        ]
      },
      "properties": {
        "@type": "node",
        "@id": 296503904,
        "@url": "https://www.openstreetmap.org/node/296503904",
        "name": "Vinotéka-AV",
        "shop": "alcohol",
        "website": "http://www.vinoteka.webpark.cz",
        "addr:housename": "Vinotéka-AV"
      }
    },
    {
      "type": "Feature",
      "geometry": {
        "type": "Point",
        "coordinates": [
          14.4575311,
          50.0774702
        ]
      },
      "properties": {
        "@type": "node",
        "@id": 296598785,
        "@url": "https://www.openstreetmap.org/node/296598785",
        "name": "Koala",
        "shop": "alcohol",
        "addr:street": "Vinohradská",
        "source:addr": "uir_adr",
        "addr:postcode": "13000",
        "addr:housenumber": "1756/114",
        "addr:streetnumber": "114",
        "uir_adr:ADRESA_KOD": "21762635",
        "addr:conscriptionnumber": "1756"
      }
    },
    {
      "type": "Feature",
      "geometry": {
        "type": "Point",
        "coordinates": [
          16.534579,
          49.2271513
        ]
      },
      "properties": {
        "@type": "node",
        "@id": 296634684,
        "@url": "https://www.openstreetmap.org/node/296634684",
        "shop": "alcohol",
        "source:loc": "cuzk:km",
        "addr:street": "U zoologické zahrady",
        "source:addr": "uir_adr",
        "addr:country": "CZ",
        "addr:postcode": "63500",
        "addr:housenumber": "212/2",
        "addr:streetnumber": "2",
        "uir_adr:ADRESA_KOD": "19309538",
        "addr:conscriptionnumber": "212"
      }
    },
    {
      "type": "Feature",
      "geometry": {
        "type": "Point",
        "coordinates": [
          14.3729367,
          50.1037243
        ]
      },
      "properties": {
        "@type": "node",
        "@id": 330200829,
        "@url": "https://www.openstreetmap.org/node/330200829",
        "name": "Galerie vín",
        "shop": "alcohol",
        "drink:wine": "yes"
      }
    },
    {
      "type": "Feature",
      "geometry": {
        "type": "Point",
        "coordinates": [
          14.3952055,
          50.1091262
        ]
      },
      "properties": {
        "@type": "node",
        "@id": 332224305,
        "@url": "https://www.openstreetmap.org/node/332224305",
        "name": "Šakalí šenk",
        "shop": "alcohol",
        "drink:wine": "yes"
      }
    },
    {
      "type": "Feature",
      "geometry": {
        "type": "Point",
        "coordinates": [
          14.4165986,
          50.0772848
        ]
      },
      "properties": {
        "@type": "node",
        "@id": 355008183,
        "@url": "https://www.openstreetmap.org/node/355008183",
        "name": "Muzeum medoviny",
        "shop": "alcohol",
        "phone": "+420 775 633 077",
        "website": "http://www.muzeummedoviny.cz/",
        "facebook": "https://www.facebook.com/muzeummedoviny/",
        "addr:city": "Praha",
        "addr:place": "Nové Město",
        "drink:mead": "drink:wine=yes",
        "source:loc": "survey",
        "addr:street": "Na Zderaze",
        "addr:suburb": "Praha 2",
        "source:addr": "cuzk:ruian",
        "addr:country": "CZ",
        "addr:postcode": "12000",
        "opening_hours": "Tu-Sa 14:00-20:00",
        "ref:ruian:addr": "21727813",
        "addr:housenumber": "260/14",
        "addr:streetnumber": "14",
        "addr:conscriptionnumber": "260"
      }
    },
    {
      "type": "Feature",
      "geometry": {
        "type": "Point",
        "coordinates": [
          14.3996025,
          50.0986818
        ]
      },
      "properties": {
        "@type": "node",
        "@id": 370945606,
        "@url": "https://www.openstreetmap.org/node/370945606",
        "name": "Bacchus",
        "shop": "alcohol",
        "drink:wine": "yes"
      }
    },
    {
      "type": "Feature",
      "geometry": {
        "type": "Point",
        "coordinates": [
          16.6237345,
          49.2040988
        ]
      },
      "properties": {
        "@type": "node",
        "@id": 439178366,
        "@url": "https://www.openstreetmap.org/node/439178366",
        "addr:city": "Brno",
        "addr:housenumber": "771/15",
        "addr:postcode": "61300",
        "addr:street": "Jugoslávská",
        "name": "Vinotéka MiStr",
        "opening_hours": "Mo-Fr 11:00-18:00",
        "phone": "+420 736 533 946",
        "shop": "alcohol",
        "website": "http://www.mistrvina.cz/"
      }
    },
    {
      "type": "Feature",
      "geometry": {
        "type": "Point",
        "coordinates": [
          15.5921265,
          49.4136496
        ]
      },
      "properties": {
        "@type": "node",
        "@id": 440780094,
        "@url": "https://www.openstreetmap.org/node/440780094",
        "name": "VINCOOP",
        "shop": "alcohol",
        "source": "survey"
      }
    },
    {
      "type": "Feature",
      "geometry": {
        "type": "Point",
        "coordinates": [
          14.3934438,
          50.1658025
        ]
      },
      "properties": {
        "@type": "node",
        "@id": 638427407,
        "@url": "https://www.openstreetmap.org/node/638427407",
        "shop": "alcohol",
        "addr:place": "Roztoky",
        "addr:street": "Jana Palacha",
        "addr:country": "CZ",
        "addr:postcode": "25263",
        "ref:ruian:addr": "12874345",
        "addr:housenumber": "419",
        "addr:conscriptionnumber": "419"
      }
    },
    {
      "type": "Feature",
      "geometry": {
        "type": "Point",
        "coordinates": [
          15.6088213,
          50.64512
        ]
      },
      "properties": {
        "@type": "node",
        "@id": 656502288,
        "@url": "https://www.openstreetmap.org/node/656502288",
        "name": "Jona Drinks",
        "shop": "alcohol",
        "addr:place": "Hořejší Vrchlabí",
        "addr:street": "Horská",
        "addr:country": "CZ",
        "addr:postcode": "54302",
        "ref:ruian:addr": "26938197",
        "addr:housenumber": "431",
        "addr:conscriptionnumber": "431"
      }
    },
    {
      "type": "Feature",
      "geometry": {
        "type": "Point",
        "coordinates": [
          16.5558646,
          49.20888
        ]
      },
      "properties": {
        "@type": "node",
        "@id": 768066114,
        "@url": "https://www.openstreetmap.org/node/768066114",
        "name": "Vinotéka",
        "shop": "alcohol",
        "source": "survey"
      }
    },
    {
      "type": "Feature",
      "geometry": {
        "type": "Point",
        "coordinates": [
          14.4163844,
          50.7999333
        ]
      },
      "properties": {
        "@type": "node",
        "@id": 819023977,
        "@url": "https://www.openstreetmap.org/node/819023977",
        "shop": "alcohol"
      }
    },
    {
      "type": "Feature",
      "geometry": {
        "type": "Point",
        "coordinates": [
          14.3981595,
          50.0671024
        ]
      },
      "properties": {
        "@type": "node",
        "@id": 930164904,
        "@url": "https://www.openstreetmap.org/node/930164904",
        "name": "Vinařský dům U Nikolajky",
        "shop": "alcohol",
        "website": "https://www.facebook.com/vinarskydumunikolajky",
        "addr:city": "Praha 5",
        "drink:wine": "yes",
        "addr:street": "U Nikolajky",
        "addr:postcode": "15000",
        "opening_hours": "Mo-Th 10:00-20:00; Fr 10:00-22:00; Sa 13:00-21:00; Su 15:00-20:00",
        "addr:housenumber": "16"
      }
    },
    {
      "type": "Feature",
      "geometry": {
        "type": "Point",
        "coordinates": [
          14.5178971,
          50.0448424
        ]
      },
      "properties": {
        "@type": "node",
        "@id": 941476951,
        "@url": "https://www.openstreetmap.org/node/941476951",
        "name": "Sykora",
        "shop": "alcohol",
        "email": "obchod@vinovsudech.cz",
        "phone": "+420 602 654 739",
        "website": "http://www.vinovsudech.cz",
        "opening_hours": "Mo-Sa 15:00-21:00; Su 16:00-21:00"
      }
    },
    {
      "type": "Feature",
      "geometry": {
        "type": "Point",
        "coordinates": [
          14.402194,
          50.0673754
        ]
      },
      "properties": {
        "@type": "node",
        "@id": 995953405,
        "@url": "https://www.openstreetmap.org/node/995953405",
        "fax": "+420 251560178",
        "name": "Dominec",
        "shop": "alcohol",
        "phone": "+420 251566280",
        "source": "survey",
        "website": "http://www.dominec.com/",
        "drink:wine": "yes",
        "opening_hours": "Mo-Fr 09:00-17:00"
      }
    },
    {
      "type": "Feature",
      "geometry": {
        "type": "Point",
        "coordinates": [
          16.0584129,
          48.8404443
        ]
      },
      "properties": {
        "@type": "node",
        "@id": 1018755835,
        "@url": "https://www.openstreetmap.org/node/1018755835",
        "name": "Znovín Znojmo a.s.",
        "shop": "alcohol",
        "website": "https://www.znovin.cz/",
        "addr:city": "Znojmo",
        "addr:street": "Loucká",
        "designation": "wine and cheese shop",
        "addr:postcode": "67181",
        "opening_hours": "Mo-Su 9:00-12:30, 13:00-18:00",
        "addr:housename": "Loucký klášter"
      }
    },
    {
      "type": "Feature",
      "geometry": {
        "type": "Point",
        "coordinates": [
          16.0751599,
          49.5613113
        ]
      },
      "properties": {
        "@type": "node",
        "@id": 1073613828,
        "@url": "https://www.openstreetmap.org/node/1073613828",
        "name": "Vinotéka Burešová",
        "shop": "alcohol",
        "source": "local knowledge",
        "addr:place": "Nové Město na Moravě",
        "addr:street": "Vratislavovo náměstí",
        "designation": "wine shop",
        "addr:country": "CZ",
        "addr:postcode": "59231",
        "addr:housename": "Vinotéka Burešová",
        "ref:ruian:addr": "3458652",
        "addr:housenumber": "4",
        "addr:conscriptionnumber": "4"
      }
    },
    {
      "type": "Feature",
      "geometry": {
        "type": "Point",
        "coordinates": [
          16.0764738,
          49.5657838
        ]
      },
      "properties": {
        "@type": "node",
        "@id": 1073643437,
        "@url": "https://www.openstreetmap.org/node/1073643437",
        "name": "Vinotéka u Bukáčků",
        "shop": "alcohol",
        "source": "local knowledge",
        "addr:place": "Nové Město na Moravě",
        "addr:street": "Malá",
        "designation": "wine shop",
        "addr:country": "CZ",
        "addr:postcode": "59231",
        "addr:housename": "Vinotéka u Bukáků",
        "ref:ruian:addr": "3460011",
        "addr:housenumber": "161",
        "addr:conscriptionnumber": "161"
      }
    },
    {
      "type": "Feature",
      "geometry": {
        "type": "Point",
        "coordinates": [
          16.2582063,
          49.5245688
        ]
      },
      "properties": {
        "@type": "node",
        "@id": 1073778679,
        "@url": "https://www.openstreetmap.org/node/1073778679",
        "shop": "alcohol",
        "addr:place": "Bystřice nad Pernštejnem",
        "addr:street": "Masarykovo náměstí",
        "addr:country": "CZ",
        "addr:postcode": "59301",
        "ref:ruian:addr": "3437019",
        "addr:housenumber": "47",
        "addr:conscriptionnumber": "47"
      }
    },
    {
      "type": "Feature",
      "geometry": {
        "type": "Point",
        "coordinates": [
          16.2583738,
          49.5244875
        ]
      },
      "properties": {
        "@type": "node",
        "@id": 1073785828,
        "@url": "https://www.openstreetmap.org/node/1073785828",
        "name": "Sudová Vínečka",
        "shop": "alcohol",
        "addr:place": "Bystřice nad Pernštejnem",
        "addr:street": "Masarykovo náměstí",
        "addr:country": "CZ",
        "addr:postcode": "59301",
        "ref:ruian:addr": "3437027",
        "addr:housenumber": "48",
        "addr:conscriptionnumber": "48"
      }
    },
    {
      "type": "Feature",
      "geometry": {
        "type": "Point",
        "coordinates": [
          14.614986,
          50.079936
        ]
      },
      "properties": {
        "@type": "node",
        "@id": 1144290057,
        "@url": "https://www.openstreetmap.org/node/1144290057",
        "shop": "alcohol"
      }
    },
    {
      "type": "Feature",
      "geometry": {
        "type": "Point",
        "coordinates": [
          14.5483833,
          50.1324346
        ]
      },
      "properties": {
        "@type": "node",
        "@id": 1204747373,
        "@url": "https://www.openstreetmap.org/node/1204747373",
        "name": "Vinotéka U soudku",
        "shop": "alcohol",
        "opening_hours": "Mo-Su 15:00-20:00"
      }
    },
    {
      "type": "Feature",
      "geometry": {
        "type": "Point",
        "coordinates": [
          14.3914386,
          50.1617413
        ]
      },
      "properties": {
        "@type": "node",
        "@id": 1248614521,
        "@url": "https://www.openstreetmap.org/node/1248614521",
        "shop": "alcohol"
      }
    },
    {
      "type": "Feature",
      "geometry": {
        "type": "Point",
        "coordinates": [
          14.4170251,
          50.0805116
        ]
      },
      "properties": {
        "@type": "node",
        "@id": 1257356273,
        "@url": "https://www.openstreetmap.org/node/1257356273",
        "name": "Vinotéka Voršilka",
        "shop": "alcohol",
        "drink:wine": "yes"
      }
    },
    {
      "type": "Feature",
      "geometry": {
        "type": "Point",
        "coordinates": [
          14.4170759,
          50.0802548
        ]
      },
      "properties": {
        "@type": "node",
        "@id": 1257356292,
        "@url": "https://www.openstreetmap.org/node/1257356292",
        "name": "Absinth Shop",
        "shop": "alcohol"
      }
    },
    {
      "type": "Feature",
      "geometry": {
        "type": "Point",
        "coordinates": [
          14.4983957,
          50.1113705
        ]
      },
      "properties": {
        "@type": "node",
        "@id": 1259568376,
        "@url": "https://www.openstreetmap.org/node/1259568376",
        "drink:wine": "yes",
        "name": "U Vinic",
        "shop": "alcohol"
      }
    },
    {
      "type": "Feature",
      "geometry": {
        "type": "Point",
        "coordinates": [
          14.4868585,
          50.1040642
        ]
      },
      "properties": {
        "@type": "node",
        "@id": 1261026229,
        "@url": "https://www.openstreetmap.org/node/1261026229",
        "shop": "alcohol"
      }
    },
    {
      "type": "Feature",
      "geometry": {
        "type": "Point",
        "coordinates": [
          14.6008356,
          50.029761
        ]
      },
      "properties": {
        "@type": "node",
        "@id": 1270186367,
        "@url": "https://www.openstreetmap.org/node/1270186367",
        "name": "Vinotéka",
        "shop": "alcohol"
      }
    },
    {
      "type": "Feature",
      "geometry": {
        "type": "Point",
        "coordinates": [
          14.40395,
          50.109737
        ]
      },
      "properties": {
        "@type": "node",
        "@id": 1278488469,
        "@url": "https://www.openstreetmap.org/node/1278488469",
        "shop": "alcohol",
        "drink:wine": "yes"
      }
    },
    {
      "type": "Feature",
      "geometry": {
        "type": "Point",
        "coordinates": [
          14.3226187,
          50.0502718
        ]
      },
      "properties": {
        "@type": "node",
        "@id": 1337025550,
        "@url": "https://www.openstreetmap.org/node/1337025550",
        "shop": "alcohol"
      }
    },
    {
      "type": "Feature",
      "geometry": {
        "type": "Point",
        "coordinates": [
          16.0742692,
          49.5621745
        ]
      },
      "properties": {
        "@type": "node",
        "@id": 1347686805,
        "@url": "https://www.openstreetmap.org/node/1347686805",
        "shop": "alcohol",
        "source": "knowledge"
      }
    },
    {
      "type": "Feature",
      "geometry": {
        "type": "Point",
        "coordinates": [
          14.4939427,
          50.1210511
        ]
      },
      "properties": {
        "@type": "node",
        "@id": 1392184137,
        "@url": "https://www.openstreetmap.org/node/1392184137",
        "name": "Vinotéka Naskok",
        "shop": "alcohol",
        "email": "jirkadudak@centrum.cz",
        "phone": "+420 777 562 964",
        "website": "http://www.sudovevinoadestilaty.cz"
      }
    },
    {
      "type": "Feature",
      "geometry": {
        "type": "Point",
        "coordinates": [
          17.4631598,
          49.0701371
        ]
      },
      "properties": {
        "@type": "node",
        "@id": 1397141653,
        "@url": "https://www.openstreetmap.org/node/1397141653",
        "name": "Vinotéka Vaďura",
        "shop": "alcohol",
        "opening_hours": "Mo-Fr 09:30-12:00,12:30-17:00, Sa 08:30-11:00"
      }
    },
    {
      "type": "Feature",
      "geometry": {
        "type": "Point",
        "coordinates": [
          17.4633042,
          49.0689383
        ]
      },
      "properties": {
        "@type": "node",
        "@id": 1397743430,
        "@url": "https://www.openstreetmap.org/node/1397743430",
        "name": "prodej piva a limonád",
        "shop": "alcohol",
        "opening_hours": "Mo-Fr 08:30-11:30,13:00-16:00"
      }
    },
    {
      "type": "Feature",
      "geometry": {
        "type": "Point",
        "coordinates": [
          14.3958177,
          50.1026209
        ]
      },
      "properties": {
        "@type": "node",
        "@id": 1425646287,
        "@url": "https://www.openstreetmap.org/node/1425646287",
        "drink:wine": "yes",
        "name": "Vinotéka R. Mrština",
        "shop": "alcohol"
      }
    },
    {
      "type": "Feature",
      "geometry": {
        "type": "Point",
        "coordinates": [
          14.4477074,
          50.0695084
        ]
      },
      "properties": {
        "@type": "node",
        "@id": 1483568068,
        "@url": "https://www.openstreetmap.org/node/1483568068",
        "name": "Sklep Grébovka",
        "shop": "alcohol",
        "phone": "+420 774 803 293",
        "amenity": "bar",
        "website": "http://www.sklepgrebovka.cz/",
        "facebook": "https://www.facebook.com/Sklep-Grébovka-295561175377/",
        "addr:city": "Praha",
        "addr:place": "Vinohrady",
        "drink:wine": "yes",
        "addr:street": "Havlíčkovy sady",
        "addr:suburb": "Praha 2",
        "addr:country": "CZ",
        "opening_hours": "Fr 14:00-21:00"
      }
    },
    {
      "type": "Feature",
      "geometry": {
        "type": "Point",
        "coordinates": [
          14.397476,
          50.0987186
        ]
      },
      "properties": {
        "@type": "node",
        "@id": 1493298559,
        "@url": "https://www.openstreetmap.org/node/1493298559",
        "name": "Dejvický vinný sklípek",
        "shop": "alcohol",
        "drink:wine": "yes"
      }
    },
    {
      "type": "Feature",
      "geometry": {
        "type": "Point",
        "coordinates": [
          14.3967563,
          50.0981986
        ]
      },
      "properties": {
        "@type": "node",
        "@id": 1493298566,
        "@url": "https://www.openstreetmap.org/node/1493298566",
        "name": "Global Wines & Spirits",
        "shop": "alcohol",
        "website": "https://www.global-wines.cz/",
        "opening_hours": "Mo-Fr 10:00-20:00, Sa 09:00-13:00"
      }
    },
    {
      "type": "Feature",
      "geometry": {
        "type": "Point",
        "coordinates": [
          14.4024788,
          50.1007437
        ]
      },
      "properties": {
        "@type": "node",
        "@id": 1529352793,
        "@url": "https://www.openstreetmap.org/node/1529352793",
        "name": "Pálavská vinárna",
        "shop": "alcohol",
        "drink:wine": "yes"
      }
    },
    {
      "type": "Feature",
      "geometry": {
        "type": "Point",
        "coordinates": [
          14.2720413,
          49.9253501
        ]
      },
      "properties": {
        "@type": "node",
        "@id": 1563317251,
        "@url": "https://www.openstreetmap.org/node/1563317251",
        "name": "La Fontana",
        "shop": "alcohol",
        "addr:place": "Dobřichovice",
        "addr:street": "Anežky České",
        "addr:country": "CZ",
        "addr:postcode": "25229",
        "ref:ruian:addr": "6549985",
        "addr:housenumber": "433",
        "addr:conscriptionnumber": "433"
      }
    },
    {
      "type": "Feature",
      "geometry": {
        "type": "Point",
        "coordinates": [
          14.2713615,
          49.9277137
        ]
      },
      "properties": {
        "@type": "node",
        "@id": 1563317979,
        "@url": "https://www.openstreetmap.org/node/1563317979",
        "shop": "alcohol"
      }
    },
    {
      "type": "Feature",
      "geometry": {
        "type": "Point",
        "coordinates": [
          18.2101215,
          49.54814
        ]
      },
      "properties": {
        "@type": "node",
        "@id": 1587252419,
        "@url": "https://www.openstreetmap.org/node/1587252419",
        "name": "Vinotéka",
        "shop": "alcohol"
      }
    },
    {
      "type": "Feature",
      "geometry": {
        "type": "Point",
        "coordinates": [
          18.2076974,
          49.5489669
        ]
      },
      "properties": {
        "@type": "node",
        "@id": 1587252420,
        "@url": "https://www.openstreetmap.org/node/1587252420",
        "name": "Vinárna Enotria",
        "shop": "alcohol"
      }
    },
    {
      "type": "Feature",
      "geometry": {
        "type": "Point",
        "coordinates": [
          16.591803,
          49.1983433
        ]
      },
      "properties": {
        "@type": "node",
        "@id": 1591345881,
        "@url": "https://www.openstreetmap.org/node/1591345881",
        "name": "Alkohol Medvěd",
        "shop": "alcohol",
        "source": "survey"
      }
    },
    {
      "type": "Feature",
      "geometry": {
        "type": "Point",
        "coordinates": [
          17.7075662,
          49.2200261
        ]
      },
      "properties": {
        "@type": "node",
        "@id": 1593783010,
        "@url": "https://www.openstreetmap.org/node/1593783010",
        "shop": "alcohol",
        "source": "survey"
      }
    },
    {
      "type": "Feature",
      "geometry": {
        "type": "Point",
        "coordinates": [
          16.5856901,
          49.22144
        ]
      },
      "properties": {
        "@type": "node",
        "@id": 1636372900,
        "@url": "https://www.openstreetmap.org/node/1636372900",
        "check_date:opening_hours": "2020-09-21",
        "name": "Vinotéka",
        "opening_hours": "Mo-Fr 11:00-21:00; Sa,Su 16:00-21:00",
        "shop": "alcohol",
        "wheelchair": "limited"
      }
    },
    {
      "type": "Feature",
      "geometry": {
        "type": "Point",
        "coordinates": [
          17.6790982,
          49.232653
        ]
      },
      "properties": {
        "@type": "node",
        "@id": 1700920371,
        "@url": "https://www.openstreetmap.org/node/1700920371",
        "name": "Dobré víno",
        "shop": "alcohol"
      }
    },
    {
      "type": "Feature",
      "geometry": {
        "type": "Point",
        "coordinates": [
          14.4687479,
          50.0672683
        ]
      },
      "properties": {
        "@type": "node",
        "@id": 1710005530,
        "@url": "https://www.openstreetmap.org/node/1710005530",
        "shop": "alcohol",
        "wheelchair": "yes"
      }
    },
    {
      "type": "Feature",
      "geometry": {
        "type": "Point",
        "coordinates": [
          18.4055798,
          49.8509718
        ]
      },
      "properties": {
        "@type": "node",
        "@id": 1829569344,
        "@url": "https://www.openstreetmap.org/node/1829569344",
        "name": "Cash & Carry",
        "shop": "alcohol"
      }
    },
    {
      "type": "Feature",
      "geometry": {
        "type": "Point",
        "coordinates": [
          16.6138379,
          49.9113875
        ]
      },
      "properties": {
        "@type": "node",
        "@id": 1839129594,
        "@url": "https://www.openstreetmap.org/node/1839129594",
        "shop": "alcohol"
      }
    },
    {
      "type": "Feature",
      "geometry": {
        "type": "Point",
        "coordinates": [
          15.701033,
          48.9437013
        ]
      },
      "properties": {
        "@type": "node",
        "@id": 1870279141,
        "@url": "https://www.openstreetmap.org/node/1870279141",
        "name": "Vinárna",
        "shop": "alcohol",
        "source": "survey"
      }
    },
    {
      "type": "Feature",
      "geometry": {
        "type": "Point",
        "coordinates": [
          15.0291564,
          50.7544015
        ]
      },
      "properties": {
        "@type": "node",
        "@id": 1872670256,
        "@url": "https://www.openstreetmap.org/node/1872670256",
        "shop": "alcohol"
      }
    },
    {
      "type": "Feature",
      "geometry": {
        "type": "Point",
        "coordinates": [
          14.4354022,
          50.0741219
        ]
      },
      "properties": {
        "@type": "node",
        "@id": 1906541324,
        "@url": "https://www.openstreetmap.org/node/1906541324",
        "name": "Vinotéka ve dvoře",
        "shop": "alcohol",
        "website": "http://www.vinoteka-vedvore.cz/"
      }
    },
    {
      "type": "Feature",
      "geometry": {
        "type": "Point",
        "coordinates": [
          13.8644511,
          50.6612874
        ]
      },
      "properties": {
        "@type": "node",
        "@id": 1933812847,
        "@url": "https://www.openstreetmap.org/node/1933812847",
        "email": "olympiateplice@vinodestilaty.cz",
        "name": "Víno a destiláty",
        "phone": "+420 773 408 261",
        "shop": "alcohol"
      }
    },
    {
      "type": "Feature",
      "geometry": {
        "type": "Point",
        "coordinates": [
          14.611415,
          49.0148919
        ]
      },
      "properties": {
        "@type": "node",
        "@id": 1934763698,
        "@url": "https://www.openstreetmap.org/node/1934763698",
        "name": "Vinotéka Veber",
        "shop": "alcohol",
        "opening_hours": "Mo-Fr 09:00-12:00,14:00-17:00; Sa 09:00-12:00"
      }
    },
    {
      "type": "Feature",
      "geometry": {
        "type": "Point",
        "coordinates": [
          14.4239759,
          50.0901424
        ]
      },
      "properties": {
        "@type": "node",
        "@id": 1948155699,
        "@url": "https://www.openstreetmap.org/node/1948155699",
        "name": "Le Bourgin",
        "shop": "alcohol",
        "wheelchair": "no"
      }
    },
    {
      "type": "Feature",
      "geometry": {
        "type": "Point",
        "coordinates": [
          17.3086741,
          48.8978352
        ]
      },
      "properties": {
        "@type": "node",
        "@id": 1977865738,
        "@url": "https://www.openstreetmap.org/node/1977865738",
        "name": "Vinařství Dobčákovi",
        "shop": "alcohol",
        "website": "www.vinarstvidobcakovi.cz",
        "addr:place": "Strážnice",
        "addr:street": "Masarykova",
        "designation": "Vinařství Dobčákovi",
        "addr:postcode": "69662",
        "addr:housename": "Vinařství Dobčákovi",
        "ref:ruian:addr": "23219556",
        "addr:housenumber": "319",
        "addr:conscriptionnumber": "319"
      }
    },
    {
      "type": "Feature",
      "geometry": {
        "type": "Point",
        "coordinates": [
          17.3163891,
          48.8986206
        ]
      },
      "properties": {
        "@type": "node",
        "@id": 1977867816,
        "@url": "https://www.openstreetmap.org/node/1977867816",
        "name": "Vinařství Botur",
        "shop": "alcohol",
        "website": "https://www.vinobotur.cz/",
        "addr:street": "Nádražní",
        "addr:postcode": "69662",
        "addr:housenumber": "1516"
      }
    },
    {
      "type": "Feature",
      "geometry": {
        "type": "Point",
        "coordinates": [
          17.2650755,
          49.5971713
        ]
      },
      "properties": {
        "@type": "node",
        "@id": 1984476337,
        "@url": "https://www.openstreetmap.org/node/1984476337",
        "name": "2. Olomoucká vinárna",
        "shop": "alcohol"
      }
    },
    {
      "type": "Feature",
      "geometry": {
        "type": "Point",
        "coordinates": [
          15.2680032,
          49.9520982
        ]
      },
      "properties": {
        "@type": "node",
        "@id": 2021065701,
        "@url": "https://www.openstreetmap.org/node/2021065701",
        "name": "Vinné sklepy Kutná Hora",
        "shop": "alcohol",
        "source": "survey"
      }
    },
    {
      "type": "Feature",
      "geometry": {
        "type": "Point",
        "coordinates": [
          17.0434066,
          48.9615749
        ]
      },
      "properties": {
        "@type": "node",
        "@id": 2038950332,
        "@url": "https://www.openstreetmap.org/node/2038950332",
        "name": "Neoklas a. s.",
        "shop": "alcohol"
      }
    },
    {
      "type": "Feature",
      "geometry": {
        "type": "Point",
        "coordinates": [
          14.0860388,
          50.2296377
        ]
      },
      "properties": {
        "@type": "node",
        "@id": 2043775461,
        "@url": "https://www.openstreetmap.org/node/2043775461",
        "name": "Vinotéka Na Komendě",
        "shop": "alcohol"
      }
    },
    {
      "type": "Feature",
      "geometry": {
        "type": "Point",
        "coordinates": [
          18.1047326,
          49.9197797
        ]
      },
      "properties": {
        "@type": "node",
        "@id": 2062772767,
        "@url": "https://www.openstreetmap.org/node/2062772767",
        "name": "Vinotéka Břehy",
        "shop": "alcohol"
      }
    },
    {
      "type": "Feature",
      "geometry": {
        "type": "Point",
        "coordinates": [
          17.22691,
          49.6769362
        ]
      },
      "properties": {
        "@type": "node",
        "@id": 2093300831,
        "@url": "https://www.openstreetmap.org/node/2093300831",
        "name": "Vinotéka",
        "shop": "alcohol"
      }
    },
    {
      "type": "Feature",
      "geometry": {
        "type": "Point",
        "coordinates": [
          18.3414023,
          49.675042
        ]
      },
      "properties": {
        "@type": "node",
        "@id": 2139061525,
        "@url": "https://www.openstreetmap.org/node/2139061525",
        "name": "Vinotéka Alhambra",
        "shop": "alcohol"
      }
    },
    {
      "type": "Feature",
      "geometry": {
        "type": "Point",
        "coordinates": [
          17.7528118,
          50.0485987
        ]
      },
      "properties": {
        "@type": "node",
        "@id": 2146688344,
        "@url": "https://www.openstreetmap.org/node/2146688344",
        "shop": "alcohol"
      }
    },
    {
      "type": "Feature",
      "geometry": {
        "type": "Point",
        "coordinates": [
          16.0858942,
          50.4754292
        ]
      },
      "properties": {
        "@type": "node",
        "@id": 2168929152,
        "@url": "https://www.openstreetmap.org/node/2168929152",
        "name": "Nápoje (Hončlovi)",
        "shop": "alcohol"
      }
    },
    {
      "type": "Feature",
      "geometry": {
        "type": "Point",
        "coordinates": [
          16.4058127,
          49.2127468
        ]
      },
      "properties": {
        "@type": "node",
        "@id": 2183201942,
        "@url": "https://www.openstreetmap.org/node/2183201942",
        "name": "Vinotéka Ostrovačice",
        "shop": "alcohol",
        "source": "survey"
      }
    },
    {
      "type": "Feature",
      "geometry": {
        "type": "Point",
        "coordinates": [
          17.2740557,
          49.591962
        ]
      },
      "properties": {
        "@type": "node",
        "@id": 2205115987,
        "@url": "https://www.openstreetmap.org/node/2205115987",
        "name": "Víno & destiláty",
        "shop": "alcohol",
        "source": "survey"
      }
    },
    {
      "type": "Feature",
      "geometry": {
        "type": "Point",
        "coordinates": [
          17.5354488,
          49.2035096
        ]
      },
      "properties": {
        "@type": "node",
        "@id": 2207958781,
        "@url": "https://www.openstreetmap.org/node/2207958781",
        "name": "Vinoteka",
        "shop": "alcohol"
      }
    },
    {
      "type": "Feature",
      "geometry": {
        "type": "Point",
        "coordinates": [
          17.2721841,
          49.5943046
        ]
      },
      "properties": {
        "@type": "node",
        "@id": 2213447399,
        "@url": "https://www.openstreetmap.org/node/2213447399",
        "name": "Darka u Bystřičky",
        "shop": "alcohol"
      }
    },
    {
      "type": "Feature",
      "geometry": {
        "type": "Point",
        "coordinates": [
          16.5184654,
          49.2209838
        ]
      },
      "properties": {
        "@type": "node",
        "@id": 2222732639,
        "@url": "https://www.openstreetmap.org/node/2222732639",
        "shop": "alcohol",
        "source": "local knowledge",
        "addr:street": "Kubíčkova",
        "designation": "Tabak and Alcohol shop",
        "addr:postcode": "635 00",
        "addr:housename": "MAX",
        "addr:housenumber": "8"
      }
    },
    {
      "type": "Feature",
      "geometry": {
        "type": "Point",
        "coordinates": [
          16.0908038,
          50.4761107
        ]
      },
      "properties": {
        "@type": "node",
        "@id": 2252786195,
        "@url": "https://www.openstreetmap.org/node/2252786195",
        "name": "Vinárna",
        "shop": "alcohol"
      }
    },
    {
      "type": "Feature",
      "geometry": {
        "type": "Point",
        "coordinates": [
          16.0885304,
          50.475757
        ]
      },
      "properties": {
        "@type": "node",
        "@id": 2252786196,
        "@url": "https://www.openstreetmap.org/node/2252786196",
        "shop": "alcohol"
      }
    },
    {
      "type": "Feature",
      "geometry": {
        "type": "Point",
        "coordinates": [
          14.4588645,
          50.0706506
        ]
      },
      "properties": {
        "@type": "node",
        "@id": 2260242107,
        "@url": "https://www.openstreetmap.org/node/2260242107",
        "name": "R luver",
        "shop": "alcohol",
        "source": "survey"
      }
    },
    {
      "type": "Feature",
      "geometry": {
        "type": "Point",
        "coordinates": [
          17.2779068,
          49.5929443
        ]
      },
      "properties": {
        "@type": "node",
        "@id": 2260266185,
        "@url": "https://www.openstreetmap.org/node/2260266185",
        "name": "Speciál",
        "shop": "alcohol",
        "level": "1"
      }
    },
    {
      "type": "Feature",
      "geometry": {
        "type": "Point",
        "coordinates": [
          15.0634728,
          50.7604418
        ]
      },
      "properties": {
        "@type": "node",
        "@id": 2265914065,
        "@url": "https://www.openstreetmap.org/node/2265914065",
        "shop": "alcohol",
        "drink:wine": "yes"
      }
    },
    {
      "type": "Feature",
      "geometry": {
        "type": "Point",
        "coordinates": [
          14.4342091,
          49.8866507
        ]
      },
      "properties": {
        "@type": "node",
        "@id": 2274434127,
        "@url": "https://www.openstreetmap.org/node/2274434127",
        "name": "Prodejna Lihovar",
        "shop": "alcohol"
      }
    },
    {
      "type": "Feature",
      "geometry": {
        "type": "Point",
        "coordinates": [
          16.6430779,
          49.1876434
        ]
      },
      "properties": {
        "@type": "node",
        "@id": 2278260106,
        "@url": "https://www.openstreetmap.org/node/2278260106",
        "check_date:opening_hours": "2021-11-02",
        "name": "Vinotéka",
        "opening_hours": "Mo-Sa 10:00-20:00; Su 14:00-19:00",
        "shop": "alcohol"
      }
    },
    {
      "type": "Feature",
      "geometry": {
        "type": "Point",
        "coordinates": [
          16.6587993,
          49.2058633
        ]
      },
      "properties": {
        "@type": "node",
        "@id": 2286002968,
        "@url": "https://www.openstreetmap.org/node/2286002968",
        "name": "Značková prodejna Černé Hory",
        "shop": "alcohol"
      }
    },
    {
      "type": "Feature",
      "geometry": {
        "type": "Point",
        "coordinates": [
          15.0728934,
          50.9201187
        ]
      },
      "properties": {
        "@type": "node",
        "@id": 2304998652,
        "@url": "https://www.openstreetmap.org/node/2304998652",
        "name": "Šípek - nápoje",
        "shop": "alcohol"
      }
    },
    {
      "type": "Feature",
      "geometry": {
        "type": "Point",
        "coordinates": [
          17.0066266,
          49.1497191
        ]
      },
      "properties": {
        "@type": "node",
        "@id": 2306828809,
        "@url": "https://www.openstreetmap.org/node/2306828809",
        "name": "Vinotéka u Sedláků",
        "shop": "alcohol",
        "source": "survey",
        "website": "https://www.vinotekabucovice.cz/",
        "addr:street": "Legionářská",
        "addr:postcode": "685 01",
        "addr:housenumber": "139"
      }
    },
    {
      "type": "Feature",
      "geometry": {
        "type": "Point",
        "coordinates": [
          16.0928713,
          50.4768079
        ]
      },
      "properties": {
        "@type": "node",
        "@id": 2308856226,
        "@url": "https://www.openstreetmap.org/node/2308856226",
        "name": "Vinotéka U kocoura",
        "shop": "alcohol",
        "website": "http://www.vinotekaukocoura.cz/"
      }
    },
    {
      "type": "Feature",
      "geometry": {
        "type": "Point",
        "coordinates": [
          15.4295494,
          50.7028167
        ]
      },
      "properties": {
        "@type": "node",
        "@id": 2315535212,
        "@url": "https://www.openstreetmap.org/node/2315535212",
        "name": "Nápoje",
        "shop": "alcohol",
        "addr:place": "Jablonec nad Jizerou",
        "addr:postcode": "512 43",
        "addr:housename": "Nápoje",
        "addr:housenumber": "375"
      }
    },
    {
      "type": "Feature",
      "geometry": {
        "type": "Point",
        "coordinates": [
          14.3421034,
          50.0877659
        ]
      },
      "properties": {
        "@type": "node",
        "@id": 2317201406,
        "@url": "https://www.openstreetmap.org/node/2317201406",
        "name": "Vinotéka Slámovka",
        "shop": "alcohol",
        "phone": "+420 222 982 861",
        "website": "http://www.slamovka.com/",
        "old_name": "Vinotéka Pistorcio",
        "addr:city": "Praha",
        "addr:place": "Veleslavín",
        "drink:wine": "yes",
        "source:loc": "survey",
        "addr:street": "Na Petřinách",
        "addr:suburb": "Praha 6",
        "source:addr": "cuzk:ruian",
        "addr:country": "CZ",
        "addr:postcode": "16200",
        "ref:ruian:addr": "22282891",
        "addr:housenumber": "310/82",
        "addr:streetnumber": "82",
        "addr:conscriptionnumber": "310"
      }
    },
    {
      "type": "Feature",
      "geometry": {
        "type": "Point",
        "coordinates": [
          14.0398825,
          50.4057775
        ]
      },
      "properties": {
        "@type": "node",
        "@id": 2322649978,
        "@url": "https://www.openstreetmap.org/node/2322649978",
        "addr:city": "Libochovice",
        "addr:conscriptionnumber": "34",
        "addr:country": "CZ",
        "addr:housenumber": "34",
        "addr:postcode": "41117",
        "addr:street": "Dr. Vacka",
        "drink:wine": "yes",
        "name": "Vinotéka",
        "ref:ruian": "16715161",
        "shop": "alcohol",
        "source:addr": "ruian"
      }
    },
    {
      "type": "Feature",
      "geometry": {
        "type": "Point",
        "coordinates": [
          18.6704277,
          49.6750903
        ]
      },
      "properties": {
        "@type": "node",
        "@id": 2323732392,
        "@url": "https://www.openstreetmap.org/node/2323732392",
        "name": "Jelinek shop",
        "shop": "alcohol"
      }
    },
    {
      "type": "Feature",
      "geometry": {
        "type": "Point",
        "coordinates": [
          13.7719646,
          50.5514842
        ]
      },
      "properties": {
        "@type": "node",
        "@id": 2327744195,
        "@url": "https://www.openstreetmap.org/node/2327744195",
        "name": "Albert Hypermarket",
        "shop": "alcohol",
        "opening_hours": "Mo-Su 07:00-22:00"
      }
    },
    {
      "type": "Feature",
      "geometry": {
        "type": "Point",
        "coordinates": [
          16.5880241,
          49.2509493
        ]
      },
      "properties": {
        "@type": "node",
        "@id": 2333416248,
        "@url": "https://www.openstreetmap.org/node/2333416248",
        "name": "Černá Hora velkoobchod Eduard Baráček",
        "shop": "alcohol",
        "phone": "+420731501640",
        "website": "https://www.baracek.cz/",
        "addr:street": "Hapalova",
        "addr:postcode": "62100",
        "opening_hours": "Mo-Fr 08:00-17:00; Sa 09:00-12:00",
        "addr:housenumber": "1946/44"
      }
    },
    {
      "type": "Feature",
      "geometry": {
        "type": "Point",
        "coordinates": [
          13.8053621,
          50.3555171
        ]
      },
      "properties": {
        "@type": "node",
        "@id": 2340223999,
        "@url": "https://www.openstreetmap.org/node/2340223999",
        "name": "Pivní galerie",
        "shop": "alcohol"
      }
    },
    {
      "type": "Feature",
      "geometry": {
        "type": "Point",
        "coordinates": [
          17.1218306,
          49.7715656
        ]
      },
      "properties": {
        "@type": "node",
        "@id": 2383622001,
        "@url": "https://www.openstreetmap.org/node/2383622001",
        "shop": "alcohol"
      }
    },
    {
      "type": "Feature",
      "geometry": {
        "type": "Point",
        "coordinates": [
          14.6033008,
          50.9200815
        ]
      },
      "properties": {
        "@type": "node",
        "@id": 2384231979,
        "@url": "https://www.openstreetmap.org/node/2384231979",
        "name": "Pivovar Kocour Varnsdorf s.r.o.",
        "shop": "alcohol"
      }
    },
    {
      "type": "Feature",
      "geometry": {
        "type": "Point",
        "coordinates": [
          14.6148719,
          50.9171291
        ]
      },
      "properties": {
        "@type": "node",
        "@id": 2384232031,
        "@url": "https://www.openstreetmap.org/node/2384232031",
        "name": "Velkoobchod Napoje",
        "shop": "alcohol"
      }
    },
    {
      "type": "Feature",
      "geometry": {
        "type": "Point",
        "coordinates": [
          14.1394847,
          50.6663441
        ]
      },
      "properties": {
        "@type": "node",
        "@id": 2391919749,
        "@url": "https://www.openstreetmap.org/node/2391919749",
        "name": "Pivovar Breznak",
        "shop": "alcohol"
      }
    },
    {
      "type": "Feature",
      "geometry": {
        "type": "Point",
        "coordinates": [
          14.9482476,
          50.5256838
        ]
      },
      "properties": {
        "@type": "node",
        "@id": 2392717680,
        "@url": "https://www.openstreetmap.org/node/2392717680",
        "name": "Pivovar Klášter",
        "shop": "alcohol",
        "drink:beer": "yes"
      }
    },
    {
      "type": "Feature",
      "geometry": {
        "type": "Point",
        "coordinates": [
          14.7643137,
          49.00327
        ]
      },
      "properties": {
        "@type": "node",
        "@id": 2404901780,
        "@url": "https://www.openstreetmap.org/node/2404901780",
        "name": "U Adolfa",
        "shop": "alcohol"
      }
    },
    {
      "type": "Feature",
      "geometry": {
        "type": "Point",
        "coordinates": [
          15.8165831,
          50.4313291
        ]
      },
      "properties": {
        "@type": "node",
        "@id": 2405902070,
        "@url": "https://www.openstreetmap.org/node/2405902070",
        "name": "Vinotéka",
        "shop": "alcohol",
        "addr:street": "Dukelská",
        "addr:postcode": "544 01",
        "opening_hours": "Mo-Fr 08:30-18:00; Sa 08:30-12:00",
        "addr:housenumber": "414"
      }
    },
    {
      "type": "Feature",
      "geometry": {
        "type": "Point",
        "coordinates": [
          14.448198,
          50.0786054
        ]
      },
      "properties": {
        "@type": "node",
        "@id": 2408146797,
        "@url": "https://www.openstreetmap.org/node/2408146797",
        "name": "Noelka",
        "shop": "alcohol",
        "drink:wine": "yes"
      }
    },
    {
      "type": "Feature",
      "geometry": {
        "type": "Point",
        "coordinates": [
          14.4489512,
          50.0790861
        ]
      },
      "properties": {
        "@type": "node",
        "@id": 2409856190,
        "@url": "https://www.openstreetmap.org/node/2409856190",
        "shop": "alcohol"
      }
    },
    {
      "type": "Feature",
      "geometry": {
        "type": "Point",
        "coordinates": [
          14.4536594,
          50.0775865
        ]
      },
      "properties": {
        "@type": "node",
        "@id": 2410348763,
        "@url": "https://www.openstreetmap.org/node/2410348763",
        "name": "Vinohradská vinotéka",
        "shop": "alcohol",
        "drink:wine": "yes"
      }
    },
    {
      "type": "Feature",
      "geometry": {
        "type": "Point",
        "coordinates": [
          14.4525883,
          50.0779099
        ]
      },
      "properties": {
        "@type": "node",
        "@id": 2420223861,
        "@url": "https://www.openstreetmap.org/node/2420223861",
        "name": "Vinotéka U Jiřího z Poděbrad",
        "shop": "alcohol",
        "drink:wine": "yes"
      }
    },
    {
      "type": "Feature",
      "geometry": {
        "type": "Point",
        "coordinates": [
          15.0023626,
          49.1466008
        ]
      },
      "properties": {
        "@type": "node",
        "@id": 2421914428,
        "@url": "https://www.openstreetmap.org/node/2421914428",
        "name": "Vinotéka",
        "shop": "alcohol"
      }
    },
    {
      "type": "Feature",
      "geometry": {
        "type": "Point",
        "coordinates": [
          15.0016357,
          49.1435483
        ]
      },
      "properties": {
        "@type": "node",
        "@id": 2421948576,
        "@url": "https://www.openstreetmap.org/node/2421948576",
        "name": "Fruko Schulz - podniková prodejna",
        "shop": "alcohol"
      }
    },
    {
      "type": "Feature",
      "geometry": {
        "type": "Point",
        "coordinates": [
          15.0033836,
          49.1463001
        ]
      },
      "properties": {
        "@type": "node",
        "@id": 2422871944,
        "@url": "https://www.openstreetmap.org/node/2422871944",
        "name": "Víno Hruška, s. r. o.",
        "shop": "alcohol"
      }
    },
    {
      "type": "Feature",
      "geometry": {
        "type": "Point",
        "coordinates": [
          17.3969103,
          49.6198221
        ]
      },
      "properties": {
        "@type": "node",
        "@id": 2423100470,
        "@url": "https://www.openstreetmap.org/node/2423100470",
        "name": "Pivtom",
        "shop": "alcohol"
      }
    },
    {
      "type": "Feature",
      "geometry": {
        "type": "Point",
        "coordinates": [
          15.0039399,
          49.1408945
        ]
      },
      "properties": {
        "@type": "node",
        "@id": 2425870298,
        "@url": "https://www.openstreetmap.org/node/2425870298",
        "name": "Vinárna",
        "shop": "alcohol"
      }
    },
    {
      "type": "Feature",
      "geometry": {
        "type": "Point",
        "coordinates": [
          13.5926313,
          49.7415781
        ]
      },
      "properties": {
        "@type": "node",
        "@id": 2444388931,
        "@url": "https://www.openstreetmap.org/node/2444388931",
        "name": "B.A.F.",
        "shop": "alcohol",
        "phone": "+420 605 401 812",
        "website": "http://www.bafvelkoobchod.cz/",
        "addr:city": "Rokycany",
        "addr:place": "Střed",
        "source:loc": "survey",
        "addr:street": "Hradební",
        "source:addr": "cuzk:ruian",
        "addr:country": "CZ",
        "addr:postcode": "33701",
        "opening_hours": "Mo-Fr 05:00-17:00; Sa 08:00-11:30",
        "ref:ruian:addr": "20781903",
        "addr:housenumber": "155",
        "source:opening_hours": "survey",
        "addr:conscriptionnumber": "155",
        "source:opening_hours:date": "2018-09-22"
      }
    },
    {
      "type": "Feature",
      "geometry": {
        "type": "Point",
        "coordinates": [
          14.4418396,
          50.0759239
        ]
      },
      "properties": {
        "@type": "node",
        "@id": 2475847868,
        "@url": "https://www.openstreetmap.org/node/2475847868",
        "name": "Cellarius",
        "shop": "alcohol",
        "phone": "+420 222 515 243",
        "website": "https://www.cellarius.cz/",
        "addr:city": "Praha",
        "addr:place": "Vinohrady",
        "drink:wine": "yes",
        "source:loc": "survey",
        "addr:street": "Budečská",
        "addr:suburb": "Praha 2",
        "source:addr": "cuzk:ruian",
        "addr:country": "CZ",
        "addr:postcode": "12000",
        "ref:ruian:addr": "21747938",
        "addr:housenumber": "822/29",
        "addr:streetnumber": "29",
        "addr:conscriptionnumber": "822"
      }
    },
    {
      "type": "Feature",
      "geometry": {
        "type": "Point",
        "coordinates": [
          14.4431877,
          50.0776141
        ]
      },
      "properties": {
        "@type": "node",
        "@id": 2494868545,
        "@url": "https://www.openstreetmap.org/node/2494868545",
        "name": "Vinotéka Labyrint",
        "shop": "alcohol",
        "drink:wine": "yes"
      }
    },
    {
      "type": "Feature",
      "geometry": {
        "type": "Point",
        "coordinates": [
          15.601414,
          49.4017408
        ]
      },
      "properties": {
        "@type": "node",
        "@id": 2498780726,
        "@url": "https://www.openstreetmap.org/node/2498780726",
        "name": "Vinotéka",
        "shop": "alcohol",
        "source": "survey"
      }
    },
    {
      "type": "Feature",
      "geometry": {
        "type": "Point",
        "coordinates": [
          17.4618689,
          49.4532229
        ]
      },
      "properties": {
        "@type": "node",
        "@id": 2511317900,
        "@url": "https://www.openstreetmap.org/node/2511317900",
        "name": "Naše Vinotéka",
        "shop": "alcohol",
        "email": "info@vinosezarukou.cz",
        "level": "0",
        "phone": "+420 730 159 017",
        "website": "http://www.filmovavinoteka.cz/",
        "addr:city": "Přerov",
        "drink:wine": "yes",
        "addr:street": "Trávník",
        "description": "Nabídka více než 30 druhů vybraných sudových vín.",
        "addr:postcode": "75002",
        "drive_through": "no",
        "opening_hours": "Mo-Su 09:00-21:00",
        "addr:housenumber": "322/29"
      }
    },
    {
      "type": "Feature",
      "geometry": {
        "type": "Point",
        "coordinates": [
          17.3276488,
          48.8988222
        ]
      },
      "properties": {
        "@type": "node",
        "@id": 2559525540,
        "@url": "https://www.openstreetmap.org/node/2559525540",
        "name": "Vinný sklep Žerotín a.s.",
        "shop": "alcohol"
      }
    },
    {
      "type": "Feature",
      "geometry": {
        "type": "Point",
        "coordinates": [
          18.2875258,
          49.8359744
        ]
      },
      "properties": {
        "@type": "node",
        "@id": 2573066697,
        "@url": "https://www.openstreetmap.org/node/2573066697",
        "shop": "alcohol"
      }
    },
    {
      "type": "Feature",
      "geometry": {
        "type": "Point",
        "coordinates": [
          17.3174983,
          48.9029636
        ]
      },
      "properties": {
        "@type": "node",
        "@id": 2576701830,
        "@url": "https://www.openstreetmap.org/node/2576701830",
        "name": "Zámecké sklepy",
        "shop": "alcohol",
        "description": "Historické zámecké sklepy ve slovácké Strážnici pocházejí již z konce 14. století a svou rozlohou o třech patrech nemají na Moravě obdoby. Od roku 2002 patří rodinné vinařské firmě Zámecké sklepy Strážnice, kterou vedou otec a syn Šebestovi."
      }
    },
    {
      "type": "Feature",
      "geometry": {
        "type": "Point",
        "coordinates": [
          17.104569,
          49.4724981
        ]
      },
      "properties": {
        "@type": "node",
        "@id": 2583855460,
        "@url": "https://www.openstreetmap.org/node/2583855460",
        "name": "Sudová vína",
        "shop": "alcohol"
      }
    },
    {
      "type": "Feature",
      "geometry": {
        "type": "Point",
        "coordinates": [
          17.1055174,
          49.472397
        ]
      },
      "properties": {
        "@type": "node",
        "@id": 2583855491,
        "@url": "https://www.openstreetmap.org/node/2583855491",
        "name": "Vinotéka na Jedenáctce",
        "shop": "alcohol"
      }
    },
    {
      "type": "Feature",
      "geometry": {
        "type": "Point",
        "coordinates": [
          17.1089446,
          49.4725541
        ]
      },
      "properties": {
        "@type": "node",
        "@id": 2583855496,
        "@url": "https://www.openstreetmap.org/node/2583855496",
        "name": "Vinotéka",
        "shop": "alcohol"
      }
    },
    {
      "type": "Feature",
      "geometry": {
        "type": "Point",
        "coordinates": [
          16.6084908,
          49.9098316
        ]
      },
      "properties": {
        "@type": "node",
        "@id": 2700791918,
        "@url": "https://www.openstreetmap.org/node/2700791918",
        "name": "Vinotéka",
        "shop": "alcohol"
      }
    },
    {
      "type": "Feature",
      "geometry": {
        "type": "Point",
        "coordinates": [
          15.0124097,
          49.1349395
        ]
      },
      "properties": {
        "@type": "node",
        "@id": 2704091527,
        "@url": "https://www.openstreetmap.org/node/2704091527",
        "fax": "+420 384 321 338",
        "name": "Tank Ono - ČS Jindřichův Hradec",
        "shop": "alcohol",
        "brand": "Tank Ono",
        "email": "hradec@tank-ono.cz",
        "phone": "+420 724 305 484",
        "source": "survey",
        "amenity": "fuel",
        "website": "http://tank-ono.cz",
        "fuel:e85": "yes",
        "fuel:lpg": "yes",
        "operator": "Tank ONO s.r.o.",
        "fuel:diesel": "yes",
        "opening_hours": "24/7",
        "fuel:biodiesel": "yes",
        "fuel:octane_95": "yes",
        "fuel:HGV_diesel": "yes"
      }
    },
    {
      "type": "Feature",
      "geometry": {
        "type": "Point",
        "coordinates": [
          13.8227856,
          50.6401179
        ]
      },
      "properties": {
        "@type": "node",
        "@id": 2715513868,
        "@url": "https://www.openstreetmap.org/node/2715513868",
        "name": "Vineco",
        "shop": "alcohol",
        "website": "http://www.vineco.cz/"
      }
    },
    {
      "type": "Feature",
      "geometry": {
        "type": "Point",
        "coordinates": [
          14.2616683,
          49.8662181
        ]
      },
      "properties": {
        "@type": "node",
        "@id": 2750802025,
        "@url": "https://www.openstreetmap.org/node/2750802025",
        "name": "Dobrý ročník",
        "shop": "alcohol"
      }
    },
    {
      "type": "Feature",
      "geometry": {
        "type": "Point",
        "coordinates": [
          16.605873,
          49.1963605
        ]
      },
      "properties": {
        "@type": "node",
        "@id": 2770900544,
        "@url": "https://www.openstreetmap.org/node/2770900544",
        "addr:housenumber": "19",
        "addr:postcode": "60200",
        "addr:street": "Česká",
        "drink:beer": "yes",
        "email": "ceska@pivoteka.eu",
        "name": "Pivotéka U Modrého lva",
        "opening_hours": "Mo-Fr 09:00-19:00; Sa 09:00-16:00",
        "payment:american_express": "yes",
        "payment:diners_club": "yes",
        "payment:discover_card": "yes",
        "payment:maestro": "yes",
        "payment:mastercard": "yes",
        "payment:visa": "yes",
        "payment:visa_debit": "yes",
        "payment:visa_electron": "yes",
        "phone": "+420725087144",
        "shop": "alcohol",
        "website": "http://pivoteka.eu/clanky.php?id_clanku=7",
        "wheelchair": "yes"
      }
    },
    {
      "type": "Feature",
      "geometry": {
        "type": "Point",
        "coordinates": [
          16.6115414,
          49.197321
        ]
      },
      "properties": {
        "@type": "node",
        "@id": 2815501776,
        "@url": "https://www.openstreetmap.org/node/2815501776",
        "addr:city": "Brno",
        "addr:housenumber": "17",
        "addr:postcode": "60200",
        "addr:street": "Jezuitská",
        "name": "Angels' Share",
        "shop": "alcohol",
        "wheelchair": "no"
      }
    },
    {
      "type": "Feature",
      "geometry": {
        "type": "Point",
        "coordinates": [
          17.1975592,
          50.1592081
        ]
      },
      "properties": {
        "@type": "node",
        "@id": 2900779685,
        "@url": "https://www.openstreetmap.org/node/2900779685",
        "name": "Bairnsfather Family Distillery s.r.o.",
        "shop": "alcohol",
        "website": "http://www.bairnsfather.net/",
        "operator": "Kyle Bairnsfather",
        "opening_hours": "Mo-Fr 08:00-17:00"
      }
    },
    {
      "type": "Feature",
      "geometry": {
        "type": "Point",
        "coordinates": [
          16.5240529,
          49.2978089
        ]
      },
      "properties": {
        "@type": "node",
        "@id": 2921797011,
        "@url": "https://www.openstreetmap.org/node/2921797011",
        "name": "Vinotéka Perkmistr",
        "shop": "alcohol",
        "phone": "+420 541 213 097",
        "website": "http://vinotekaperkmistr.cz/",
        "addr:city": "Kuřim",
        "addr:street": "Tišnovská",
        "addr:postcode": "66434",
        "opening_hours": "Mo-Sa 09:00-19:00; Su 14:00-19:00",
        "addr:housenumber": "47"
      }
    },
    {
      "type": "Feature",
      "geometry": {
        "type": "Point",
        "coordinates": [
          15.0382141,
          50.1779571
        ]
      },
      "properties": {
        "@type": "node",
        "@id": 2961659152,
        "@url": "https://www.openstreetmap.org/node/2961659152",
        "name": "Pivovarský stánek",
        "shop": "alcohol"
      }
    },
    {
      "type": "Feature",
      "geometry": {
        "type": "Point",
        "coordinates": [
          17.0988912,
          49.5610776
        ]
      },
      "properties": {
        "@type": "node",
        "@id": 2970778189,
        "@url": "https://www.openstreetmap.org/node/2970778189",
        "name": "Vinný sklípek Pod kostelem",
        "shop": "alcohol"
      }
    },
    {
      "type": "Feature",
      "geometry": {
        "type": "Point",
        "coordinates": [
          13.8988352,
          49.2598627
        ]
      },
      "properties": {
        "@type": "node",
        "@id": 2981437323,
        "@url": "https://www.openstreetmap.org/node/2981437323",
        "name": "Pivovarská prodejna",
        "name:en": "Strakonice brewery shop",
        "opening_hours": "Mo-Fr 08:00-17:00; Sa,Su 08:00-12:00",
        "shop": "alcohol",
        "source": "local_knowledge"
      }
    },
    {
      "type": "Feature",
      "geometry": {
        "type": "Point",
        "coordinates": [
          16.7560593,
          48.7418718
        ]
      },
      "properties": {
        "@type": "node",
        "@id": 2992844666,
        "@url": "https://www.openstreetmap.org/node/2992844666",
        "name": "Vinotéka Vinum Bonum",
        "shop": "alcohol",
        "website": "http://www.vinumbonum.cz/",
        "addr:city": "Valtice",
        "addr:street": "nám. Svobody",
        "addr:postcode": "69142",
        "addr:housenumber": "16"
      }
    },
    {
      "type": "Feature",
      "geometry": {
        "type": "Point",
        "coordinates": [
          17.2019096,
          50.2289516
        ]
      },
      "properties": {
        "@type": "node",
        "@id": 2993835171,
        "@url": "https://www.openstreetmap.org/node/2993835171",
        "contact:email": "jesenik@pivoteka-u-krizu.cz",
        "contact:facebook": "https://www.facebook.com/pivotekajesenik",
        "contact:phone": "+420 606 423 328",
        "contact:website": "http://pivoteka-u-krizu.cz",
        "drink:beer": "yes",
        "name": "Pivotéka U Křížů",
        "opening_hours": "Mo-Fr 11:00-17:30;Sa 09:00-12:00",
        "payment:cash": "yes",
        "payment:maestro": "yes",
        "payment:mastercard": "yes",
        "payment:visa": "yes",
        "payment:visa_debit": "yes",
        "payment:visa_electron": "yes",
        "shop": "alcohol",
        "wheelchair": "no"
      }
    },
    {
      "type": "Feature",
      "geometry": {
        "type": "Point",
        "coordinates": [
          14.4991411,
          50.0930144
        ]
      },
      "properties": {
        "@type": "node",
        "@id": 3088926439,
        "@url": "https://www.openstreetmap.org/node/3088926439",
        "note": "wine shop",
        "shop": "alcohol"
      }
    },
    {
      "type": "Feature",
      "geometry": {
        "type": "Point",
        "coordinates": [
          16.6450391,
          49.2262092
        ]
      },
      "properties": {
        "@type": "node",
        "@id": 3101621345,
        "@url": "https://www.openstreetmap.org/node/3101621345",
        "name": "Vinotéka Maloměřice",
        "shop": "alcohol",
        "addr:city": "Brno",
        "addr:street": "Obřanská",
        "addr:postcode": "61400",
        "addr:housenumber": "101"
      }
    },
    {
      "type": "Feature",
      "geometry": {
        "type": "Point",
        "coordinates": [
          16.6439582,
          49.2165845
        ]
      },
      "properties": {
        "@type": "node",
        "@id": 3101636271,
        "@url": "https://www.openstreetmap.org/node/3101636271",
        "addr:city": "Brno",
        "addr:housenumber": "42",
        "addr:postcode": "61400",
        "addr:street": "Selská",
        "name": "Víno Kukla",
        "opening_hours:signed": "no",
        "shop": "alcohol"
      }
    },
    {
      "type": "Feature",
      "geometry": {
        "type": "Point",
        "coordinates": [
          17.1082335,
          49.4760689
        ]
      },
      "properties": {
        "@type": "node",
        "@id": 3107551362,
        "@url": "https://www.openstreetmap.org/node/3107551362",
        "name": "Vinotéka",
        "shop": "alcohol",
        "opening_hours": "Mo-Fr 11:00-21:00; Sa-Su 17:00-21:00"
      }
    },
    {
      "type": "Feature",
      "geometry": {
        "type": "Point",
        "coordinates": [
          14.7617083,
          49.989034
        ]
      },
      "properties": {
        "@type": "node",
        "@id": 3114329502,
        "@url": "https://www.openstreetmap.org/node/3114329502",
        "name": "Vinoteka pohodicka",
        "shop": "alcohol",
        "phone": "+420776669961",
        "website": "http://www.vinoteka-pohodicka.cz/",
        "addr:city": "Louňovice",
        "drink:wine": "yes",
        "addr:street": "Kutnohorská",
        "addr:postcode": "25162",
        "addr:housenumber": "98"
      }
    },
    {
      "type": "Feature",
      "geometry": {
        "type": "Point",
        "coordinates": [
          16.8038808,
          48.8005066
        ]
      },
      "properties": {
        "@type": "node",
        "@id": 3125747177,
        "@url": "https://www.openstreetmap.org/node/3125747177",
        "shop": "alcohol"
      }
    },
    {
      "type": "Feature",
      "geometry": {
        "type": "Point",
        "coordinates": [
          16.6090541,
          49.1947865
        ]
      },
      "properties": {
        "@type": "node",
        "@id": 3151584737,
        "@url": "https://www.openstreetmap.org/node/3151584737",
        "level": "0",
        "name": "Rozverná Vinotéka",
        "opening_hours": "Mo-Th 10:00-20:00; Fr 09:00-21:00; Sa 09:00-20:00",
        "shop": "alcohol",
        "wheelchair": "yes"
      }
    },
    {
      "type": "Feature",
      "geometry": {
        "type": "Point",
        "coordinates": [
          14.9762548,
          50.5184306
        ]
      },
      "properties": {
        "@type": "node",
        "@id": 3155117978,
        "@url": "https://www.openstreetmap.org/node/3155117978",
        "name": "Fedrinx",
        "shop": "alcohol",
        "drink:beer": "yes",
        "opening_hours": "Mo-Fr 08:00-17:00; Sa 08:00-12:00"
      }
    },
    {
      "type": "Feature",
      "geometry": {
        "type": "Point",
        "coordinates": [
          16.6141498,
          49.2086339
        ]
      },
      "properties": {
        "@type": "node",
        "@id": 3156126451,
        "@url": "https://www.openstreetmap.org/node/3156126451",
        "name": "Vinotéka Perkmistr",
        "shop": "alcohol",
        "phone": "+420 530 344 245",
        "website": "http://vinotekaperkmistr.cz/",
        "addr:city": "Brno",
        "wheelchair": "no",
        "addr:postcode": "61300",
        "opening_hours": "Mo-Fr 11:00-19:00"
      }
    },
    {
      "type": "Feature",
      "geometry": {
        "type": "Point",
        "coordinates": [
          16.6093425,
          49.1906594
        ]
      },
      "properties": {
        "@type": "node",
        "@id": 3159209114,
        "@url": "https://www.openstreetmap.org/node/3159209114",
        "name": "Víno Hruška",
        "shop": "alcohol",
        "addr:city": "Brno",
        "wheelchair": "no",
        "addr:street": "Bašty",
        "addr:postcode": "60200",
        "opening_hours": "Mo,Tu 12:00-21:00; We,Th 12:00-22:00; Fr 12:00-24:00, Sa 13:00-22:00",
        "addr:housenumber": "8"
      }
    },
    {
      "type": "Feature",
      "geometry": {
        "type": "Point",
        "coordinates": [
          16.6364198,
          49.2026193
        ]
      },
      "properties": {
        "@type": "node",
        "@id": 3159832081,
        "@url": "https://www.openstreetmap.org/node/3159832081",
        "name": "Vinotéka Vinofol",
        "shop": "alcohol"
      }
    },
    {
      "type": "Feature",
      "geometry": {
        "type": "Point",
        "coordinates": [
          14.4228703,
          50.0775388
        ]
      },
      "properties": {
        "@type": "node",
        "@id": 3166218274,
        "@url": "https://www.openstreetmap.org/node/3166218274",
        "drink:beer": "yes",
        "name": "SPA BEER LAND",
        "shop": "alcohol"
      }
    },
    {
      "type": "Feature",
      "geometry": {
        "type": "Point",
        "coordinates": [
          16.6282013,
          49.1998355
        ]
      },
      "properties": {
        "@type": "node",
        "@id": 3188250705,
        "@url": "https://www.openstreetmap.org/node/3188250705",
        "name": "Víno & destiláty",
        "shop": "alcohol"
      }
    },
    {
      "type": "Feature",
      "geometry": {
        "type": "Point",
        "coordinates": [
          16.7563943,
          48.7421647
        ]
      },
      "properties": {
        "@type": "node",
        "@id": 3188381673,
        "@url": "https://www.openstreetmap.org/node/3188381673",
        "name": "Vinium Bonum",
        "shop": "alcohol",
        "addr:city": "Valtice",
        "addr:street": "nám. Svobody",
        "addr:postcode": "69142",
        "addr:housenumber": "13"
      }
    },
    {
      "type": "Feature",
      "geometry": {
        "type": "Point",
        "coordinates": [
          16.7567993,
          48.7421992
        ]
      },
      "properties": {
        "@type": "node",
        "@id": 3188381675,
        "@url": "https://www.openstreetmap.org/node/3188381675",
        "name": "Vinařství Procházka Valtice",
        "shop": "alcohol",
        "addr:city": "Valtice",
        "addr:street": "nám. Svobody",
        "addr:postcode": "69142",
        "addr:housenumber": "1111"
      }
    },
    {
      "type": "Feature",
      "geometry": {
        "type": "Point",
        "coordinates": [
          14.4151163,
          50.1176873
        ]
      },
      "properties": {
        "@type": "node",
        "@id": 3206107088,
        "@url": "https://www.openstreetmap.org/node/3206107088",
        "name": "Vinotéka sv. Kláry",
        "shop": "alcohol",
        "phone": "+420 234 148 153",
        "alcohol": "wine",
        "website": "https://www.botanicka.cz/",
        "facebook": "https://www.facebook.com/vinotekasvklara/",
        "addr:city": "Praha",
        "addr:place": "Troja",
        "drink:wine": "yes",
        "source:loc": "survey",
        "addr:street": "Pod Havránkou",
        "addr:suburb": "Praha-Troja",
        "source:addr": "cuzk:ruian",
        "addr:country": "CZ",
        "addr:postcode": "17100",
        "opening_hours": "Mo-Fr 13:00-19:00; Sa,Su 11:00-19:00",
        "ref:ruian:addr": "22313320",
        "internet_access": "wlan",
        "outdoor_seating": "yes",
        "addr:housenumber": "34/7",
        "addr:streetnumber": "7",
        "addr:conscriptionnumber": "34"
      }
    },
    {
      "type": "Feature",
      "geometry": {
        "type": "Point",
        "coordinates": [
          13.95821,
          49.5577699
        ]
      },
      "properties": {
        "@type": "node",
        "@id": 3208828725,
        "@url": "https://www.openstreetmap.org/node/3208828725",
        "name": "Prodej piva nonstop",
        "shop": "alcohol",
        "source": "survey",
        "brewery": "Herold"
      }
    },
    {
      "type": "Feature",
      "geometry": {
        "type": "Point",
        "coordinates": [
          14.4560487,
          50.1225387
        ]
      },
      "properties": {
        "@type": "node",
        "@id": 3215377359,
        "@url": "https://www.openstreetmap.org/node/3215377359",
        "name": "Víno CLV",
        "shop": "alcohol",
        "email": "vinoteka@vinoclv.cz",
        "phone": "+420 734856877",
        "website": "https://www.vinoclv.cz/",
        "drink:wine": "yes",
        "wheelchair": "yes",
        "addr:street": "Klapkova",
        "addr:postcode": "18200",
        "opening_hours": "Mo-Fr 11:00-22:00; Sa 15:00-22:00; Su 16:00-21:00",
        "payment:coins": "yes",
        "payment:notes": "yes",
        "indoor_seating": "yes",
        "outdoor_seating": "no",
        "addr:housenumber": "124/10",
        "addr:streetnumber": "10",
        "payment:credit_cards": "yes",
        "addr:conscriptionnumber": "124"
      }
    },
    {
      "type": "Feature",
      "geometry": {
        "type": "Point",
        "coordinates": [
          14.4512707,
          50.1221551
        ]
      },
      "properties": {
        "@type": "node",
        "@id": 3219897044,
        "@url": "https://www.openstreetmap.org/node/3219897044",
        "name": "Vinotéka Separé",
        "shop": "alcohol",
        "website": "http://www.vinotekasepare.wz.cz",
        "wheelchair": "limited",
        "opening_hours": "Mo-Fr 11:00-22:00, Su 17:00-22:00"
      }
    },
    {
      "type": "Feature",
      "geometry": {
        "type": "Point",
        "coordinates": [
          14.4153243,
          50.0348911
        ]
      },
      "properties": {
        "@type": "node",
        "@id": 3248697361,
        "@url": "https://www.openstreetmap.org/node/3248697361",
        "name": "Vinotéka u Miloše",
        "shop": "alcohol"
      }
    },
    {
      "type": "Feature",
      "geometry": {
        "type": "Point",
        "coordinates": [
          14.3193622,
          48.8134429
        ]
      },
      "properties": {
        "@type": "node",
        "@id": 3257330036,
        "@url": "https://www.openstreetmap.org/node/3257330036",
        "name": "Formanka",
        "shop": "alcohol",
        "operator": "pivovar Eggenberg",
        "addr:city": "Český Krumlov",
        "addr:street": "Pivovarská",
        "currency:CZK": "yes",
        "payment:cash": "yes",
        "addr:postcode": "381 01",
        "drive_through": "no",
        "payment:credit_cards": "yes"
      }
    },
    {
      "type": "Feature",
      "geometry": {
        "type": "Point",
        "coordinates": [
          14.4462771,
          50.0140663
        ]
      },
      "properties": {
        "@type": "node",
        "@id": 3258118073,
        "@url": "https://www.openstreetmap.org/node/3258118073",
        "shop": "alcohol",
        "drink:wine": "yes"
      }
    },
    {
      "type": "Feature",
      "geometry": {
        "type": "Point",
        "coordinates": [
          14.4458511,
          50.1004089
        ]
      },
      "properties": {
        "@type": "node",
        "@id": 3276685325,
        "@url": "https://www.openstreetmap.org/node/3276685325",
        "name": "Moravská Banka vín",
        "shop": "alcohol",
        "phone": "+420 602 110 000",
        "source": "local knowledge",
        "alcohol": "wine",
        "website": "http://www.bankavin.cz",
        "opening_hours": "Mo-Fr 10:00-19:00; Sa 09:00-17:00"
      }
    },
    {
      "type": "Feature",
      "geometry": {
        "type": "Point",
        "coordinates": [
          14.4548023,
          50.0755419
        ]
      },
      "properties": {
        "@type": "node",
        "@id": 3278080262,
        "@url": "https://www.openstreetmap.org/node/3278080262",
        "name": "Pivotéka Pivo a párek",
        "shop": "alcohol",
        "phone": "+420 734 201 195",
        "facebook": "https://www.facebook.com/Pivo-a-párek-127715427424908/",
        "addr:city": "Praha",
        "addr:place": "Vinohrady",
        "source:loc": "survey",
        "addr:street": "Korunní",
        "addr:suburb": "Praha 3",
        "source:addr": "cuzk:ruian",
        "addr:country": "CZ",
        "addr:postcode": "13000",
        "ref:ruian:addr": "21760764",
        "addr:housenumber": "1075/105",
        "addr:streetnumber": "105",
        "addr:conscriptionnumber": "1075"
      }
    },
    {
      "type": "Feature",
      "geometry": {
        "type": "Point",
        "coordinates": [
          15.5752692,
          49.6025191
        ]
      },
      "properties": {
        "@type": "node",
        "@id": 3291239964,
        "@url": "https://www.openstreetmap.org/node/3291239964",
        "name": "Víno Sýkora",
        "shop": "alcohol",
        "addr:city": "Havlíčkův Brod",
        "addr:street": "Humpolecká",
        "addr:postcode": "58001",
        "addr:housenumber": "435"
      }
    },
    {
      "type": "Feature",
      "geometry": {
        "type": "Point",
        "coordinates": [
          14.4508458,
          50.070586
        ]
      },
      "properties": {
        "@type": "node",
        "@id": 3291884145,
        "@url": "https://www.openstreetmap.org/node/3291884145",
        "addr:city": "Praha",
        "addr:conscriptionnumber": "138",
        "addr:country": "CZ",
        "addr:housenumber": "138/36",
        "addr:place": "Vršovice",
        "addr:postcode": "10100",
        "addr:street": "Krymská",
        "addr:streetnumber": "36",
        "addr:suburb": "Praha 10",
        "drink:beer": "yes",
        "name": "Galerie Piva",
        "opening_hours": "Mo-Su 14:30-21:00; Fr 12:00-21:00; Sa off",
        "phone": "+420 702 400 573",
        "ref:ruian:addr": "22656081",
        "shop": "alcohol",
        "source:addr": "cuzk:ruian",
        "source:loc": "survey",
        "website": "http://www.galeriepiva.cz",
        "wheelchair": "limited"
      }
    },
    {
      "type": "Feature",
      "geometry": {
        "type": "Point",
        "coordinates": [
          14.5089972,
          50.0834371
        ]
      },
      "properties": {
        "@type": "node",
        "@id": 3327235329,
        "@url": "https://www.openstreetmap.org/node/3327235329",
        "name": "Vinárna Aura",
        "shop": "alcohol",
        "drink:wine": "yes",
        "addr:street": "Počernická",
        "addr:postcode": "10800",
        "addr:housenumber": "632"
      }
    },
    {
      "type": "Feature",
      "geometry": {
        "type": "Point",
        "coordinates": [
          16.6106211,
          49.1941252
        ]
      },
      "properties": {
        "@type": "node",
        "@id": 3384132519,
        "@url": "https://www.openstreetmap.org/node/3384132519",
        "name": "Vinotéka U Tří knížat",
        "shop": "alcohol",
        "addr:city": "Brno",
        "addr:street": "Jánská",
        "addr:postcode": "60200",
        "addr:housenumber": "12"
      }
    },
    {
      "type": "Feature",
      "geometry": {
        "type": "Point",
        "coordinates": [
          14.4489184,
          50.0666414
        ]
      },
      "properties": {
        "@type": "node",
        "@id": 3392320173,
        "@url": "https://www.openstreetmap.org/node/3392320173",
        "name": "Vršovická vinotéka",
        "shop": "alcohol",
        "addr:city": "Praha",
        "drink:wine": "yes",
        "addr:street": "U Vršovického nádraží",
        "addr:postcode": "10100",
        "addr:housenumber": "16"
      }
    },
    {
      "type": "Feature",
      "geometry": {
        "type": "Point",
        "coordinates": [
          14.3504996,
          50.0955448
        ]
      },
      "properties": {
        "@type": "node",
        "@id": 3393514475,
        "@url": "https://www.openstreetmap.org/node/3393514475",
        "name": "Vinotéka",
        "shop": "alcohol",
        "website": "www.vinostavek.cz",
        "addr:city": "Praha",
        "addr:street": "Africká",
        "addr:postcode": "16000",
        "opening_hours": "Mo-Fr 14:00-20:00",
        "addr:housenumber": "29"
      }
    },
    {
      "type": "Feature",
      "geometry": {
        "type": "Point",
        "coordinates": [
          18.2905176,
          49.8407572
        ]
      },
      "properties": {
        "@type": "node",
        "@id": 3407037754,
        "@url": "https://www.openstreetmap.org/node/3407037754",
        "name": "Thomas Drinks",
        "opening_hours": "Mo-Fr 09:30-17:00",
        "shop": "alcohol"
      }
    },
    {
      "type": "Feature",
      "geometry": {
        "type": "Point",
        "coordinates": [
          18.2898828,
          49.8398789
        ]
      },
      "properties": {
        "@type": "node",
        "@id": 3415861507,
        "@url": "https://www.openstreetmap.org/node/3415861507",
        "name": "U Kusaly",
        "shop": "alcohol"
      }
    },
    {
      "type": "Feature",
      "geometry": {
        "type": "Point",
        "coordinates": [
          18.2953545,
          49.8372633
        ]
      },
      "properties": {
        "@type": "node",
        "@id": 3415861512,
        "@url": "https://www.openstreetmap.org/node/3415861512",
        "name": "Vinný sklep u mostu",
        "shop": "alcohol",
        "source": "survey",
        "contact:email": "vinoostrava@seznam.cz",
        "opening_hours": "Mo-Fr 10:00-19:00",
        "contact:website": "http://www.vinoostrava.cz"
      }
    },
    {
      "type": "Feature",
      "geometry": {
        "type": "Point",
        "coordinates": [
          17.4597899,
          49.0721382
        ]
      },
      "properties": {
        "@type": "node",
        "@id": 3456713939,
        "@url": "https://www.openstreetmap.org/node/3456713939",
        "name": "Kamenný sklípek U Juráků",
        "shop": "alcohol",
        "website": "http://www.ujuraku.cz/",
        "operator": "Hedvika Juráková",
        "addr:city": "Uherské Hradiště",
        "drink:wine": "yes",
        "addr:street": "Tyršovo náměstí",
        "addr:postcode": "68601",
        "opening_hours": "Fr 18:00-24:00",
        "addr:housenumber": "113"
      }
    },
    {
      "type": "Feature",
      "geometry": {
        "type": "Point",
        "coordinates": [
          14.4466188,
          50.0422861
        ]
      },
      "properties": {
        "@type": "node",
        "@id": 3464728738,
        "@url": "https://www.openstreetmap.org/node/3464728738",
        "check_date:opening_hours": "2021-07-19",
        "drink:wine": "yes",
        "email": "vinosoudek@gmail.com",
        "name": "Vinotéka Soudek",
        "opening_hours": "Mo-Sa 15:00-22:00",
        "phone": "+420 602277144",
        "shop": "alcohol",
        "website": "https://www.vinotekasoudek.cz/"
      }
    },
    {
      "type": "Feature",
      "geometry": {
        "type": "Point",
        "coordinates": [
          15.5797557,
          49.6057577
        ]
      },
      "properties": {
        "@type": "node",
        "@id": 3464845671,
        "@url": "https://www.openstreetmap.org/node/3464845671",
        "name": "Gata de Gorgos",
        "shop": "alcohol",
        "addr:city": "Havlíčkův Brod",
        "addr:street": "Dolní",
        "addr:postcode": "58001",
        "addr:housenumber": "98"
      }
    },
    {
      "type": "Feature",
      "geometry": {
        "type": "Point",
        "coordinates": [
          14.6427586,
          50.0631294
        ]
      },
      "properties": {
        "@type": "node",
        "@id": 3468140934,
        "@url": "https://www.openstreetmap.org/node/3468140934",
        "shop": "alcohol",
        "amenity": "bar",
        "smoking": "outside",
        "drink:beer": "yes",
        "drink:wine": "yes"
      }
    },
    {
      "type": "Feature",
      "geometry": {
        "type": "Point",
        "coordinates": [
          14.6639981,
          50.1869651
        ]
      },
      "properties": {
        "@type": "node",
        "@id": 3496568139,
        "@url": "https://www.openstreetmap.org/node/3496568139",
        "name": "Vinotéka",
        "shop": "alcohol",
        "drink": "wine"
      }
    },
    {
      "type": "Feature",
      "geometry": {
        "type": "Point",
        "coordinates": [
          15.6666967,
          49.9456745
        ]
      },
      "properties": {
        "@type": "node",
        "@id": 3504639399,
        "@url": "https://www.openstreetmap.org/node/3504639399",
        "name": "Vinotéka Na Cestě",
        "shop": "alcohol",
        "phone": "602263886",
        "alcohol": "wine",
        "operator": "Viktor Juliš",
        "opening_hours": "Mo-Fr 10:00-17:00; Sa 08:30-11:00"
      }
    },
    {
      "type": "Feature",
      "geometry": {
        "type": "Point",
        "coordinates": [
          18.6265067,
          49.749
        ]
      },
      "properties": {
        "@type": "node",
        "@id": 3545867972,
        "@url": "https://www.openstreetmap.org/node/3545867972",
        "name": "Travel Free Shop",
        "shop": "alcohol"
      }
    },
    {
      "type": "Feature",
      "geometry": {
        "type": "Point",
        "coordinates": [
          17.23909,
          49.5934884
        ]
      },
      "properties": {
        "@type": "node",
        "@id": 3589224166,
        "@url": "https://www.openstreetmap.org/node/3589224166",
        "name": "Pivtom",
        "shop": "alcohol",
        "alcohol": "beer",
        "website": "https://www.pivtom.cz/",
        "addr:street": "Resslova",
        "opening_hours": "Mo-Fr 09:00-18:00",
        "addr:housenumber": "220/13"
      }
    },
    {
      "type": "Feature",
      "geometry": {
        "type": "Point",
        "coordinates": [
          14.4538786,
          50.1059854
        ]
      },
      "properties": {
        "@type": "node",
        "@id": 3593969104,
        "@url": "https://www.openstreetmap.org/node/3593969104",
        "name": "Bzenecký dvůr",
        "shop": "alcohol",
        "alcohol": "wine",
        "operator": "Miloš Svoboda - FREEBAR",
        "contact:phone": "+420 603 219 658",
        "opening_hours": "Mo-Fr 16:00-22:00; Sa-Su off \"call us\""
      }
    },
    {
      "type": "Feature",
      "geometry": {
        "type": "Point",
        "coordinates": [
          14.4190968,
          50.0661646
        ]
      },
      "properties": {
        "@type": "node",
        "@id": 3615474280,
        "@url": "https://www.openstreetmap.org/node/3615474280",
        "addr:city": "Praha",
        "addr:housenumber": "26",
        "addr:postcode": "12800",
        "addr:street": "Vratislavova",
        "name": "Víno Handl",
        "shop": "alcohol",
        "wikidata": "Q104955223"
      }
    },
    {
      "type": "Feature",
      "geometry": {
        "type": "Point",
        "coordinates": [
          14.4527329,
          50.10217
        ]
      },
      "properties": {
        "@type": "node",
        "@id": 3642976742,
        "@url": "https://www.openstreetmap.org/node/3642976742",
        "name": "Vinný club U Dolejšků",
        "shop": "alcohol",
        "alcohol": "wine",
        "capacity": "25",
        "operator": "Pavel Michalský",
        "contact:email": "udolejsku@gmail.com",
        "contact:phone": "+420 774 593 699",
        "opening_hours": "Mo-Fr 14:00-24:00; Sa-Su 18:00-24:00",
        "contact:website": "http://www.udolejsku.cz"
      }
    },
    {
      "type": "Feature",
      "geometry": {
        "type": "Point",
        "coordinates": [
          14.541636,
          50.5399975
        ]
      },
      "properties": {
        "@type": "node",
        "@id": 3650243176,
        "@url": "https://www.openstreetmap.org/node/3650243176",
        "shop": "alcohol",
        "addr:city": "Dubá",
        "addr:place": "Dubá",
        "drink:wine": "yes",
        "source:loc": "survey",
        "addr:street": "Školní",
        "source:addr": "cuzk:ruian",
        "addr:country": "CZ",
        "addr:postcode": "47141",
        "opening_hours": "Mo-Fr 07:00-12:00,14:00-17:00; We 07:00-12:00; Sa 08:00-11:00",
        "ref:ruian:addr": "23123745",
        "addr:housenumber": "82/43",
        "addr:streetnumber": "43",
        "addr:conscriptionnumber": "82"
      }
    },
    {
      "type": "Feature",
      "geometry": {
        "type": "Point",
        "coordinates": [
          14.4458989,
          50.0775344
        ]
      },
      "properties": {
        "@type": "node",
        "@id": 3656208381,
        "@url": "https://www.openstreetmap.org/node/3656208381",
        "name": "Vinotéka V Peřinách",
        "shop": "alcohol",
        "drink:wine": "yes"
      }
    },
    {
      "type": "Feature",
      "geometry": {
        "type": "Point",
        "coordinates": [
          14.3672758,
          50.083918
        ]
      },
      "properties": {
        "@type": "node",
        "@id": 3674846600,
        "@url": "https://www.openstreetmap.org/node/3674846600",
        "name": "Víno & delikatesy",
        "shop": "alcohol",
        "drink:wine": "yes"
      }
    },
    {
      "type": "Feature",
      "geometry": {
        "type": "Point",
        "coordinates": [
          14.3658173,
          50.0841568
        ]
      },
      "properties": {
        "@type": "node",
        "@id": 3674964901,
        "@url": "https://www.openstreetmap.org/node/3674964901",
        "name": "Vinotéka Šestka",
        "shop": "alcohol",
        "drink:wine": "yes"
      }
    },
    {
      "type": "Feature",
      "geometry": {
        "type": "Point",
        "coordinates": [
          14.364494,
          50.0839816
        ]
      },
      "properties": {
        "@type": "node",
        "@id": 3675042134,
        "@url": "https://www.openstreetmap.org/node/3675042134",
        "name": "Vinotéka z radosti",
        "shop": "alcohol",
        "addr:city": "Praha 6",
        "drink:wine": "yes",
        "addr:street": "Bělohorská",
        "addr:postcode": "16900",
        "addr:housenumber": "1690/128"
      }
    },
    {
      "type": "Feature",
      "geometry": {
        "type": "Point",
        "coordinates": [
          14.371836,
          50.0837467
        ]
      },
      "properties": {
        "@type": "node",
        "@id": 3691128597,
        "@url": "https://www.openstreetmap.org/node/3691128597",
        "name": "VINI Italia",
        "shop": "alcohol",
        "drink:wine": "yes"
      }
    },
    {
      "type": "Feature",
      "geometry": {
        "type": "Point",
        "coordinates": [
          15.5879364,
          49.3968054
        ]
      },
      "properties": {
        "@type": "node",
        "@id": 3706694200,
        "@url": "https://www.openstreetmap.org/node/3706694200",
        "name": "Song",
        "shop": "alcohol",
        "source": "survey"
      }
    },
    {
      "type": "Feature",
      "geometry": {
        "type": "Point",
        "coordinates": [
          14.4521081,
          50.0831198
        ]
      },
      "properties": {
        "@type": "node",
        "@id": 3707599476,
        "@url": "https://www.openstreetmap.org/node/3707599476",
        "shop": "alcohol",
        "amenity": "bar",
        "website": "http://www.vinoteka-zizkov.cz",
        "drink:wine": "yes"
      }
    },
    {
      "type": "Feature",
      "geometry": {
        "type": "Point",
        "coordinates": [
          14.4757237,
          50.351004
        ]
      },
      "properties": {
        "@type": "node",
        "@id": 3707602322,
        "@url": "https://www.openstreetmap.org/node/3707602322",
        "shop": "alcohol",
        "wine": "yes",
        "amenity": "bar"
      }
    },
    {
      "type": "Feature",
      "geometry": {
        "type": "Point",
        "coordinates": [
          14.4756701,
          50.3510793
        ]
      },
      "properties": {
        "@type": "node",
        "@id": 3707602323,
        "@url": "https://www.openstreetmap.org/node/3707602323",
        "shop": "alcohol",
        "wine": "yes",
        "amenity": "bar"
      }
    },
    {
      "type": "Feature",
      "geometry": {
        "type": "Point",
        "coordinates": [
          16.59997,
          49.215616
        ]
      },
      "properties": {
        "@type": "node",
        "@id": 3719889318,
        "@url": "https://www.openstreetmap.org/node/3719889318",
        "name": "Global Wines & Spirits",
        "shop": "alcohol",
        "phone": "+420 800 100 639",
        "website": "https://www.global-wines.cz/",
        "addr:city": "Brno",
        "wheelchair": "no",
        "addr:street": "Reissigova",
        "addr:postcode": "61200",
        "drive_through": "no",
        "opening_hours": "Mo-Fr 10:00-20:00; Sa 08:00-14:00; Su off",
        "addr:housenumber": "1"
      }
    },
    {
      "type": "Feature",
      "geometry": {
        "type": "Point",
        "coordinates": [
          16.5909443,
          49.2128333
        ]
      },
      "properties": {
        "@type": "node",
        "@id": 3719909983,
        "@url": "https://www.openstreetmap.org/node/3719909983",
        "name": "vinotéka",
        "shop": "alcohol",
        "operator": "Víno Mareček s.r.o.",
        "addr:city": "Brno",
        "wheelchair": "yes",
        "addr:street": "Tábor",
        "payment:cash": "yes",
        "addr:postcode": "60200",
        "drive_through": "no",
        "opening_hours": "Mo-Fr 12:00-21:00; Sa 13:00-21:00; Su 15:00-20:00",
        "addr:housenumber": "32a"
      }
    },
    {
      "type": "Feature",
      "geometry": {
        "type": "Point",
        "coordinates": [
          16.6270053,
          49.2359042
        ]
      },
      "properties": {
        "@type": "node",
        "@id": 3721290991,
        "@url": "https://www.openstreetmap.org/node/3721290991",
        "name": "Vinotéka Perkmistr",
        "shop": "alcohol",
        "phone": "+420 530 335 511",
        "website": "http://vinotekaperkmistr.cz/",
        "addr:city": "Brno",
        "wheelchair": "yes",
        "addr:street": "Dusíkova",
        "addr:postcode": "63800",
        "opening_hours": "Mo-Th 11:00-20:00; Fr-Sa 11:00-22:00; Su 14:00-20:00",
        "addr:housenumber": "17"
      }
    },
    {
      "type": "Feature",
      "geometry": {
        "type": "Point",
        "coordinates": [
          15.609526,
          49.3964894
        ]
      },
      "properties": {
        "@type": "node",
        "@id": 3721726404,
        "@url": "https://www.openstreetmap.org/node/3721726404",
        "shop": "alcohol",
        "source": "survey"
      }
    },
    {
      "type": "Feature",
      "geometry": {
        "type": "Point",
        "coordinates": [
          14.4353093,
          50.0683772
        ]
      },
      "properties": {
        "@type": "node",
        "@id": 3722825073,
        "@url": "https://www.openstreetmap.org/node/3722825073",
        "name": "Vinotéka Bacco",
        "shop": "alcohol",
        "addr:city": "Praha",
        "addr:street": "Bělehradská",
        "addr:postcode": "12000",
        "addr:housenumber": "28"
      }
    },
    {
      "type": "Feature",
      "geometry": {
        "type": "Point",
        "coordinates": [
          14.6352579,
          49.9221999
        ]
      },
      "properties": {
        "@type": "node",
        "@id": 3727615431,
        "@url": "https://www.openstreetmap.org/node/3727615431",
        "name": "Pivovarská prodejna",
        "shop": "alcohol",
        "opening_hours": "mo-fr 08:00-18:00, sa 10:00-13:00; su 14:00-17:00"
      }
    },
    {
      "type": "Feature",
      "geometry": {
        "type": "Point",
        "coordinates": [
          14.4481822,
          50.0437669
        ]
      },
      "properties": {
        "@type": "node",
        "@id": 3750116065,
        "@url": "https://www.openstreetmap.org/node/3750116065",
        "level": "-1",
        "name": "Pivotéka DBK",
        "phone": "+420 777 075 110",
        "shop": "alcohol",
        "website": "https://www.pivoteka-dbk.cz"
      }
    },
    {
      "type": "Feature",
      "geometry": {
        "type": "Point",
        "coordinates": [
          14.3941148,
          50.1084233
        ]
      },
      "properties": {
        "@type": "node",
        "@id": 3751377587,
        "@url": "https://www.openstreetmap.org/node/3751377587",
        "name": "Marpek Whisky",
        "shop": "alcohol",
        "phone": "+420207362029820076",
        "website": "marpek-whiskey.cz",
        "drink:whisky": "yes",
        "opening_hours": "Mo-Fr 11:00-21:00; Sa 12:00-21:00"
      }
    },
    {
      "type": "Feature",
      "geometry": {
        "type": "Point",
        "coordinates": [
          14.5770545,
          50.1088464
        ]
      },
      "properties": {
        "@type": "node",
        "@id": 3758730241,
        "@url": "https://www.openstreetmap.org/node/3758730241",
        "drink:wine": "yes",
        "layer": "1",
        "name": "Réva Rakvice",
        "opening_hours": "Mo-Fr 11:00-19:00",
        "shop": "alcohol",
        "website": "http://www.revarakvice.cz"
      }
    },
    {
      "type": "Feature",
      "geometry": {
        "type": "Point",
        "coordinates": [
          14.451984,
          50.1677122
        ]
      },
      "properties": {
        "@type": "node",
        "@id": 3779204624,
        "@url": "https://www.openstreetmap.org/node/3779204624",
        "addr:conscriptionnumber": "20",
        "addr:country": "CZ",
        "addr:housenumber": "20",
        "addr:place": "Zdiby",
        "addr:postcode": "25066",
        "addr:street": "Náměstí M. J. Husa",
        "drink": "wine",
        "name": "Vinotéka Dobrá Stodola",
        "opening_hours": "Mo-Sa 11:00-19:00",
        "payment:coins": "yes",
        "payment:maestro": "no",
        "payment:mastercard": "no",
        "payment:notes": "yes",
        "payment:visa": "no",
        "shop": "alcohol",
        "website": "http://www.dobrastodola.cz",
        "wheelchair": "yes"
      }
    },
    {
      "type": "Feature",
      "geometry": {
        "type": "Point",
        "coordinates": [
          14.5601054,
          50.0420434
        ]
      },
      "properties": {
        "@type": "node",
        "@id": 3821661887,
        "@url": "https://www.openstreetmap.org/node/3821661887",
        "name": "Vinotéka Noster",
        "shop": "alcohol",
        "drink:wine": "yes",
        "opening_hours": "Mo-Su 15:00-22:00; Sa off"
      }
    },
    {
      "type": "Feature",
      "geometry": {
        "type": "Point",
        "coordinates": [
          18.2245309,
          49.6989458
        ]
      },
      "properties": {
        "@type": "node",
        "@id": 3823492538,
        "@url": "https://www.openstreetmap.org/node/3823492538",
        "name": "Hill's Liquere",
        "shop": "alcohol",
        "website": "http://www.hillsliquere.cz"
      }
    },
    {
      "type": "Feature",
      "geometry": {
        "type": "Point",
        "coordinates": [
          18.6241254,
          49.7478963
        ]
      },
      "properties": {
        "@type": "node",
        "@id": 3915540301,
        "@url": "https://www.openstreetmap.org/node/3915540301",
        "name": "R. Jelínek",
        "shop": "alcohol"
      }
    },
    {
      "type": "Feature",
      "geometry": {
        "type": "Point",
        "coordinates": [
          18.6258804,
          49.7428859
        ]
      },
      "properties": {
        "@type": "node",
        "@id": 3915540354,
        "@url": "https://www.openstreetmap.org/node/3915540354",
        "shop": "alcohol"
      }
    },
    {
      "type": "Feature",
      "geometry": {
        "type": "Point",
        "coordinates": [
          18.6247087,
          49.7480842
        ]
      },
      "properties": {
        "@type": "node",
        "@id": 3915540488,
        "@url": "https://www.openstreetmap.org/node/3915540488",
        "shop": "alcohol"
      }
    },
    {
      "type": "Feature",
      "geometry": {
        "type": "Point",
        "coordinates": [
          18.6247824,
          49.748141
        ]
      },
      "properties": {
        "@type": "node",
        "@id": 3915540490,
        "@url": "https://www.openstreetmap.org/node/3915540490",
        "shop": "alcohol"
      }
    },
    {
      "type": "Feature",
      "geometry": {
        "type": "Point",
        "coordinates": [
          18.6248753,
          49.7482034
        ]
      },
      "properties": {
        "@type": "node",
        "@id": 3915540491,
        "@url": "https://www.openstreetmap.org/node/3915540491",
        "shop": "alcohol"
      }
    },
    {
      "type": "Feature",
      "geometry": {
        "type": "Point",
        "coordinates": [
          18.6249577,
          49.7482527
        ]
      },
      "properties": {
        "@type": "node",
        "@id": 3915540492,
        "@url": "https://www.openstreetmap.org/node/3915540492",
        "shop": "alcohol"
      }
    },
    {
      "type": "Feature",
      "geometry": {
        "type": "Point",
        "coordinates": [
          18.6250842,
          49.7483497
        ]
      },
      "properties": {
        "@type": "node",
        "@id": 3915540494,
        "@url": "https://www.openstreetmap.org/node/3915540494",
        "shop": "alcohol"
      }
    },
    {
      "type": "Feature",
      "geometry": {
        "type": "Point",
        "coordinates": [
          18.6254156,
          49.7486086
        ]
      },
      "properties": {
        "@type": "node",
        "@id": 3915540499,
        "@url": "https://www.openstreetmap.org/node/3915540499",
        "shop": "alcohol"
      }
    },
    {
      "type": "Feature",
      "geometry": {
        "type": "Point",
        "coordinates": [
          18.6255223,
          49.7486739
        ]
      },
      "properties": {
        "@type": "node",
        "@id": 3915540500,
        "@url": "https://www.openstreetmap.org/node/3915540500",
        "shop": "alcohol"
      }
    },
    {
      "type": "Feature",
      "geometry": {
        "type": "Point",
        "coordinates": [
          16.1523078,
          50.3440425
        ]
      },
      "properties": {
        "@type": "node",
        "@id": 3916808333,
        "@url": "https://www.openstreetmap.org/node/3916808333",
        "name": "Dwayne's",
        "shop": "alcohol"
      }
    },
    {
      "type": "Feature",
      "geometry": {
        "type": "Point",
        "coordinates": [
          14.4389955,
          50.0659836
        ]
      },
      "properties": {
        "@type": "node",
        "@id": 3974715537,
        "@url": "https://www.openstreetmap.org/node/3974715537",
        "name": "České vinařské závody",
        "shop": "alcohol",
        "website": "http://www.cvz.cz/",
        "drink:wine": "yes"
      }
    },
    {
      "type": "Feature",
      "geometry": {
        "type": "Point",
        "coordinates": [
          16.5593157,
          49.1761603
        ]
      },
      "properties": {
        "@type": "node",
        "@id": 4045550810,
        "@url": "https://www.openstreetmap.org/node/4045550810",
        "name": "Sudové víno",
        "shop": "alcohol"
      }
    },
    {
      "type": "Feature",
      "geometry": {
        "type": "Point",
        "coordinates": [
          14.453796,
          50.0874866
        ]
      },
      "properties": {
        "@type": "node",
        "@id": 4157030089,
        "@url": "https://www.openstreetmap.org/node/4157030089",
        "name": "Fakt dobrý víno",
        "shop": "alcohol",
        "phone": "+420 737 112 703",
        "website": "www.faktdobryvino.cz",
        "addr:street": "Koněvova",
        "opening_hours": "24/7",
        "addr:housenumber": "3"
      }
    },
    {
      "type": "Feature",
      "geometry": {
        "type": "Point",
        "coordinates": [
          14.4343662,
          50.0650824
        ]
      },
      "properties": {
        "@type": "node",
        "@id": 4167187922,
        "@url": "https://www.openstreetmap.org/node/4167187922",
        "name": "vinotéka",
        "shop": "alcohol",
        "drink:wine": "yes"
      }
    },
    {
      "type": "Feature",
      "geometry": {
        "type": "Point",
        "coordinates": [
          16.5985295,
          49.2018397
        ]
      },
      "properties": {
        "@type": "node",
        "@id": 4180626914,
        "@url": "https://www.openstreetmap.org/node/4180626914",
        "drink:beer": "yes",
        "drink:wine": "yes",
        "email": "klasterni@post.cz",
        "name": "Vinotéka Pivotéka Delikatesy",
        "opening_hours": "Mo-Su 14:00-22:00",
        "payment:maestro": "yes",
        "payment:mastercard": "yes",
        "payment:visa": "yes",
        "payment:visa_debit": "yes",
        "payment:visa_electron": "yes",
        "phone": "+420 607 766 262",
        "shop": "alcohol",
        "website": "http://www.likora.cz/",
        "wheelchair": "no"
      }
    },
    {
      "type": "Feature",
      "geometry": {
        "type": "Point",
        "coordinates": [
          14.4433418,
          50.0718352
        ]
      },
      "properties": {
        "@type": "node",
        "@id": 4188207889,
        "@url": "https://www.openstreetmap.org/node/4188207889",
        "name": "Vinotéka U Grébovky",
        "shop": "alcohol",
        "drink:wine": "yes"
      }
    },
    {
      "type": "Feature",
      "geometry": {
        "type": "Point",
        "coordinates": [
          14.3987647,
          50.0671723
        ]
      },
      "properties": {
        "@type": "node",
        "@id": 4202085587,
        "@url": "https://www.openstreetmap.org/node/4202085587",
        "name": "Vinný sklep U Stárků",
        "shop": "alcohol",
        "email": "vinny.sklep@ustarku.cz",
        "level": "-1",
        "phone": "251 565 174",
        "tourism": "wine_cellar",
        "website": "https://www.ustarku.cz/",
        "addr:city": "Praha 5",
        "drink:wine": "yes",
        "addr:street": "U Nikolajky",
        "addr:postcode": "15000",
        "opening_hours": "Tu-Th 14:00-21:30; Fr 13:30-19:00",
        "addr:housenumber": "12"
      }
    },
    {
      "type": "Feature",
      "geometry": {
        "type": "Point",
        "coordinates": [
          16.6065588,
          49.1946986
        ]
      },
      "properties": {
        "@type": "node",
        "@id": 4225418833,
        "@url": "https://www.openstreetmap.org/node/4225418833",
        "name": "HY & VE Liquor Shop",
        "shop": "alcohol",
        "addr:city": "Brno",
        "addr:street": "Veselá",
        "addr:postcode": "60200",
        "opening_hours": "Mo-Fr 10:00-18:00; Sa 10:00-14:00",
        "addr:housenumber": "5"
      }
    },
    {
      "type": "Feature",
      "geometry": {
        "type": "Point",
        "coordinates": [
          16.4709047,
          49.7578171
        ]
      },
      "properties": {
        "@type": "node",
        "@id": 4232158620,
        "@url": "https://www.openstreetmap.org/node/4232158620",
        "name": "Trafika",
        "shop": "alcohol",
        "addr:street": "Lanškrounská",
        "addr:postcode": "57802"
      }
    },
    {
      "type": "Feature",
      "geometry": {
        "type": "Point",
        "coordinates": [
          14.3576031,
          50.0841017
        ]
      },
      "properties": {
        "@type": "node",
        "@id": 4243300486,
        "@url": "https://www.openstreetmap.org/node/4243300486",
        "name": "Břevnovský klášterní pivovar svatého Vojtěcha",
        "shop": "alcohol",
        "craft": "brewery",
        "phone": "+420 607 038 304",
        "source": "survey",
        "website": "http://brevnovskypivovar.cz/",
        "facebook": "https://www.facebook.com/Brevnovskypivovar/",
        "wikidata": "Q11706909",
        "wikipedia": "cs:Břevnovský klášterní pivovar",
        "short_name": "Břevnovský klášterní pivovar sv. Vojtěcha",
        "description": "Lahvová piva lze koupit i v infocentru, točená i v Břevnovském výčepu v areálu kláštera",
        "opening_hours": "Mo,Fr 10:00-11:45,12:30-17:00; Tu-Th 10:00-11:45,12:30-18:00"
      }
    },
    {
      "type": "Feature",
      "geometry": {
        "type": "Point",
        "coordinates": [
          14.4537048,
          50.0768856
        ]
      },
      "properties": {
        "@type": "node",
        "@id": 4317349294,
        "@url": "https://www.openstreetmap.org/node/4317349294",
        "name": "Vinny Restaurant U Perouna",
        "shop": "alcohol",
        "drink:wine": "yes"
      }
    },
    {
      "type": "Feature",
      "geometry": {
        "type": "Point",
        "coordinates": [
          16.575883,
          49.5541594
        ]
      },
      "properties": {
        "@type": "node",
        "@id": 4318707189,
        "@url": "https://www.openstreetmap.org/node/4318707189",
        "name": "Pivotéka",
        "shop": "alcohol"
      }
    },
    {
      "type": "Feature",
      "geometry": {
        "type": "Point",
        "coordinates": [
          15.4730707,
          49.9205728
        ]
      },
      "properties": {
        "@type": "node",
        "@id": 4340405689,
        "@url": "https://www.openstreetmap.org/node/4340405689",
        "name": "Viet Cong",
        "shop": "alcohol",
        "opening_hours": "Mo-Su 08:00-18:30"
      }
    },
    {
      "type": "Feature",
      "geometry": {
        "type": "Point",
        "coordinates": [
          13.7727356,
          50.1733044
        ]
      },
      "properties": {
        "@type": "node",
        "@id": 4348344899,
        "@url": "https://www.openstreetmap.org/node/4348344899",
        "shop": "alcohol"
      }
    },
    {
      "type": "Feature",
      "geometry": {
        "type": "Point",
        "coordinates": [
          16.5761192,
          49.5521509
        ]
      },
      "properties": {
        "@type": "node",
        "@id": 4359484490,
        "@url": "https://www.openstreetmap.org/node/4359484490",
        "name": "Vinotéka Mifkovi",
        "shop": "alcohol",
        "name:cs": "Vinotéka Mifkovi"
      }
    },
    {
      "type": "Feature",
      "geometry": {
        "type": "Point",
        "coordinates": [
          13.6599489,
          49.6872067
        ]
      },
      "properties": {
        "@type": "node",
        "@id": 4375425896,
        "@url": "https://www.openstreetmap.org/node/4375425896",
        "name": "B.A.F.",
        "shop": "alcohol",
        "phone": "+420 605 311 034",
        "source": "survey",
        "website": "http://www.bafvelkoobchod.cz/",
        "addr:city": "Mirošov",
        "addr:place": "Mirošov",
        "addr:street": "Skořická",
        "addr:country": "CZ",
        "addr:postcode": "33843",
        "opening_hours": "Mo-Fr 08:00-17:00; Sa 08:00-12:00"
      }
    },
    {
      "type": "Feature",
      "geometry": {
        "type": "Point",
        "coordinates": [
          13.6480182,
          49.7111688
        ]
      },
      "properties": {
        "@type": "node",
        "@id": 4375425897,
        "@url": "https://www.openstreetmap.org/node/4375425897",
        "name": "B.A.F.",
        "shop": "alcohol",
        "phone": "+420 777 225 831",
        "website": "http://www.bafvelkoobchod.cz/",
        "addr:city": "Hrádek",
        "addr:place": "Nová Huť",
        "source:loc": "survey",
        "addr:street": "1. máje",
        "source:addr": "cuzk:ruian",
        "addr:country": "CZ",
        "addr:postcode": "33842",
        "opening_hours": "Mo-Fr 05:00-17:00; Sa 07:00-12:00",
        "ref:ruian:addr": "7107609",
        "addr:housenumber": "222",
        "addr:conscriptionnumber": "222"
      }
    },
    {
      "type": "Feature",
      "geometry": {
        "type": "Point",
        "coordinates": [
          13.5976304,
          49.7414971
        ]
      },
      "properties": {
        "@type": "node",
        "@id": 4376921741,
        "@url": "https://www.openstreetmap.org/node/4376921741",
        "name": "B.A.F.",
        "shop": "alcohol",
        "phone": "+420 777 225 829",
        "website": "http://www.bafvelkoobchod.cz/",
        "addr:city": "Rokycany",
        "addr:place": "Střed",
        "source:loc": "survey",
        "addr:street": "Malé náměstí",
        "source:addr": "cuzk:ruian",
        "addr:country": "CZ",
        "addr:postcode": "33701",
        "opening_hours": "Mo-Fr 08:00-17:00; Sa 08:00-12:00",
        "ref:ruian:addr": "26702801",
        "addr:housenumber": "120",
        "addr:conscriptionnumber": "120"
      }
    },
    {
      "type": "Feature",
      "geometry": {
        "type": "Point",
        "coordinates": [
          16.6577684,
          49.2063051
        ]
      },
      "properties": {
        "@type": "node",
        "@id": 4379721240,
        "@url": "https://www.openstreetmap.org/node/4379721240",
        "addr:city": "Brno",
        "addr:housenumber": "3c",
        "addr:street": "Pálavské náměstí",
        "drink:beer": "bottled",
        "drive_through": "no",
        "email": "vinohrady@pivoteka.eu",
        "name": "Pivotéka U Modrého lva",
        "opening_hours": "Mo-Fr 10:00-19:00; Sa 10:00-16:00",
        "phone": "+420 733 699 250",
        "shop": "alcohol",
        "website": "http://pivoteka.eu/clanky.php?id_clanku=3"
      }
    },
    {
      "type": "Feature",
      "geometry": {
        "type": "Point",
        "coordinates": [
          14.1656591,
          48.6618146
        ]
      },
      "properties": {
        "@type": "node",
        "@id": 4397079631,
        "@url": "https://www.openstreetmap.org/node/4397079631",
        "name": "Drink market",
        "shop": "alcohol",
        "phone": "+420 739 015 036",
        "facebook": "https://www.facebook.com/Květinové-studio-a-drink-market-619253941571597/",
        "addr:city": "Frymburk",
        "addr:place": "Frymburk",
        "source:addr": "cuzk:ruian",
        "addr:country": "CZ",
        "addr:postcode": "38279",
        "ref:ruian:addr": "8691924",
        "addr:housenumber": "81",
        "addr:conscriptionnumber": "81"
      }
    },
    {
      "type": "Feature",
      "geometry": {
        "type": "Point",
        "coordinates": [
          14.4760045,
          50.0778835
        ]
      },
      "properties": {
        "@type": "node",
        "@id": 4398601653,
        "@url": "https://www.openstreetmap.org/node/4398601653",
        "name": "První vinohradská vinotéka",
        "shop": "alcohol",
        "opening_hours": "Mo-Sa 14:00-22:00"
      }
    },
    {
      "type": "Feature",
      "geometry": {
        "type": "Point",
        "coordinates": [
          14.418187,
          50.0844215
        ]
      },
      "properties": {
        "@type": "node",
        "@id": 4423295313,
        "@url": "https://www.openstreetmap.org/node/4423295313",
        "name": "Winehaeven",
        "shop": "alcohol",
        "addr:city": "Praha",
        "addr:place": "Staré Město",
        "source:loc": "survey",
        "wheelchair": "no",
        "addr:street": "Husova",
        "addr:suburb": "Praha 1",
        "source:addr": "cuzk:ruian",
        "addr:country": "CZ",
        "addr:postcode": "11000",
        "opening_hours": "Mo-Su 10:00-24:00",
        "ref:ruian:addr": "21718776",
        "addr:housenumber": "351/1",
        "addr:streetnumber": "1",
        "source:opening_hours": "survey",
        "addr:conscriptionnumber": "351",
        "source:opening_hours:date": "2018-10-10"
      }
    },
    {
      "type": "Feature",
      "geometry": {
        "type": "Point",
        "coordinates": [
          14.0729084,
          49.9565952
        ]
      },
      "properties": {
        "@type": "node",
        "@id": 4437695738,
        "@url": "https://www.openstreetmap.org/node/4437695738",
        "drive_through": "no",
        "name": "Berounský medvěd",
        "opening_hours": "24/7",
        "shop": "alcohol"
      }
    },
    {
      "type": "Feature",
      "geometry": {
        "type": "Point",
        "coordinates": [
          14.4259467,
          50.0811155
        ]
      },
      "properties": {
        "@type": "node",
        "@id": 4443392163,
        "@url": "https://www.openstreetmap.org/node/4443392163",
        "url": "http://www.lucerna.cz/",
        "name": "Cellarius",
        "shop": "alcohol",
        "phone": "+420 224 210 979",
        "website": "https://www.cellarius.cz/",
        "addr:city": "Praha",
        "addr:place": "Nové Město",
        "drink:wine": "yes",
        "source:loc": "survey",
        "addr:street": "Štěpánská",
        "addr:suburb": "Praha 1",
        "source:addr": "cuzk:ruian",
        "addr:country": "CZ",
        "addr:postcode": "11000",
        "ref:ruian:addr": "21704961",
        "addr:housenumber": "704/61",
        "addr:streetnumber": "61",
        "addr:conscriptionnumber": "704"
      }
    },
    {
      "type": "Feature",
      "geometry": {
        "type": "Point",
        "coordinates": [
          15.2188456,
          50.0199549
        ]
      },
      "properties": {
        "@type": "node",
        "@id": 4443751389,
        "@url": "https://www.openstreetmap.org/node/4443751389",
        "name": "Lihovar Kolín",
        "shop": "alcohol",
        "name:cs": "Lihovar Kolín"
      }
    },
    {
      "type": "Feature",
      "geometry": {
        "type": "Point",
        "coordinates": [
          14.4023524,
          50.088638
        ]
      },
      "properties": {
        "@type": "node",
        "@id": 4472006877,
        "@url": "https://www.openstreetmap.org/node/4472006877",
        "addr:city": "Praha",
        "addr:conscriptionnumber": "203",
        "addr:country": "CZ",
        "addr:housenumber": "203/14",
        "addr:place": "Malá Strana",
        "addr:postcode": "11800",
        "addr:street": "Malostranské náměstí",
        "addr:streetnumber": "14",
        "addr:suburb": "Praha 1",
        "name": "Mini Market",
        "ref:ruian:addr": "21696209",
        "shop": "alcohol",
        "source:addr": "cuzk:ruian",
        "source:loc": "survey",
        "wheelchair": "no"
      }
    },
    {
      "type": "Feature",
      "geometry": {
        "type": "Point",
        "coordinates": [
          14.4366646,
          50.0742008
        ]
      },
      "properties": {
        "@type": "node",
        "@id": 4493890014,
        "@url": "https://www.openstreetmap.org/node/4493890014",
        "name": "Bottega del Vino",
        "shop": "alcohol",
        "drink:wine": "yes",
        "opening_hours": "Mo-Fr 15:00-20:00"
      }
    },
    {
      "type": "Feature",
      "geometry": {
        "type": "Point",
        "coordinates": [
          16.4209582,
          49.3478318
        ]
      },
      "properties": {
        "@type": "node",
        "@id": 4523847591,
        "@url": "https://www.openstreetmap.org/node/4523847591",
        "name": "Nápoje Flop",
        "shop": "alcohol",
        "name:cs": "Nápoje Flop",
        "addr:street": "Mlýnská",
        "addr:housenumber": "129"
      }
    },
    {
      "type": "Feature",
      "geometry": {
        "type": "Point",
        "coordinates": [
          14.499958,
          50.1221324
        ]
      },
      "properties": {
        "@type": "node",
        "@id": 4530727225,
        "@url": "https://www.openstreetmap.org/node/4530727225",
        "name": "Vinotéka Pampinus",
        "shop": "alcohol",
        "phone": "+420 775 994 041",
        "website": "http://vinotekaprosek.cz/",
        "opening_hours": "Mo-Su 15:00-22:00"
      }
    },
    {
      "type": "Feature",
      "geometry": {
        "type": "Point",
        "coordinates": [
          16.5757903,
          49.2531136
        ]
      },
      "properties": {
        "@type": "node",
        "@id": 4534544391,
        "@url": "https://www.openstreetmap.org/node/4534544391",
        "addr:housenumber": "1990/2",
        "addr:street": "Žilkova",
        "drink:beer": "yes",
        "drive_through": "no",
        "name": "Maneo",
        "opening_hours": "Mo-Fr 07:00-18:00; Sa 08:00-13:00",
        "payment:cash": "yes",
        "phone": "+420603829272",
        "shop": "alcohol",
        "website": "http://www.maneo.cz/"
      }
    },
    {
      "type": "Feature",
      "geometry": {
        "type": "Point",
        "coordinates": [
          16.5682393,
          49.2124982
        ]
      },
      "properties": {
        "@type": "node",
        "@id": 4562336991,
        "@url": "https://www.openstreetmap.org/node/4562336991",
        "addr:city": "Brno",
        "addr:housenumber": "3033/28",
        "addr:postcode": "616 00",
        "addr:street": "Stránského",
        "drink:beer": "yes",
        "email": "info@svet-piva.cz",
        "name": "Svět piva",
        "opening_hours": "Mo-Fr 09:00-17:00",
        "payment:american_express": "yes",
        "payment:diners_club": "yes",
        "payment:discover_card": "yes",
        "payment:jcb": "yes",
        "payment:maestro": "yes",
        "payment:mastercard": "yes",
        "payment:visa": "yes",
        "payment:visa_debit": "yes",
        "payment:visa_electron": "yes",
        "phone": "+420606606713",
        "shop": "alcohol",
        "website": "https://www.svet-piva.cz/",
        "wheelchair": "yes"
      }
    },
    {
      "type": "Feature",
      "geometry": {
        "type": "Point",
        "coordinates": [
          15.0542223,
          50.7682951
        ]
      },
      "properties": {
        "@type": "node",
        "@id": 4578977215,
        "@url": "https://www.openstreetmap.org/node/4578977215",
        "name": "Pivotéka Zámecký pivovar Frýdlant",
        "shop": "alcohol",
        "website": "https://www.pivovar-frydlant.com/pivoteka-liberec/"
      }
    },
    {
      "type": "Feature",
      "geometry": {
        "type": "Point",
        "coordinates": [
          14.6134467,
          50.115297
        ]
      },
      "properties": {
        "@type": "node",
        "@id": 4586999291,
        "@url": "https://www.openstreetmap.org/node/4586999291",
        "name": "U Džonyho",
        "shop": "alcohol",
        "name:cs": "U Džonyho",
        "name:en": "U Džonyho",
        "drink:wine": "yes"
      }
    },
    {
      "type": "Feature",
      "geometry": {
        "type": "Point",
        "coordinates": [
          18.1532035,
          49.644934
        ]
      },
      "properties": {
        "@type": "node",
        "@id": 4589618530,
        "@url": "https://www.openstreetmap.org/node/4589618530",
        "name": "VínoPivotéka u Čápa",
        "shop": "alcohol",
        "email": "obchod@pivo-vinoteka.cz",
        "phone": "+420595536556",
        "website": "http://www.vino-pivoteka.cz",
        "opening_hours": "Mo-Th 07:30-16:30; Fr 07:30-17:00; Sa 07:30-12:00"
      }
    },
    {
      "type": "Feature",
      "geometry": {
        "type": "Point",
        "coordinates": [
          17.0407385,
          49.2786883
        ]
      },
      "properties": {
        "@type": "node",
        "@id": 4591240594,
        "@url": "https://www.openstreetmap.org/node/4591240594",
        "addr:housenumber": "19",
        "addr:street": "Topolany",
        "contact:facebook": "https://www.facebook.com/lisakpivovar/",
        "craft": "brewery",
        "description": "Vznikl 2013",
        "drink:beer": "yes",
        "email": "pivovarlisak@email.cz",
        "microbrewery": "yes",
        "name": "Minipivovar Lišák",
        "opening_hours": "Mo-Su 08:00-19:00",
        "phone": "608675870",
        "shop": "alcohol"
      }
    },
    {
      "type": "Feature",
      "geometry": {
        "type": "Point",
        "coordinates": [
          14.5231636,
          48.9700196
        ]
      },
      "properties": {
        "@type": "node",
        "@id": 4605547722,
        "@url": "https://www.openstreetmap.org/node/4605547722",
        "name": "Sklenička vína",
        "opening_hours": "Tu-Fr 17:00-20:00; We off || \"volat +420 724 387 744\"",
        "phone": "+420 724 387 744",
        "shop": "alcohol",
        "website": "http://www.sklenickavina.cz"
      }
    },
    {
      "type": "Feature",
      "geometry": {
        "type": "Point",
        "coordinates": [
          16.8867096,
          48.7572034
        ]
      },
      "properties": {
        "@type": "node",
        "@id": 4610427889,
        "@url": "https://www.openstreetmap.org/node/4610427889",
        "name": "Frankies",
        "shop": "alcohol",
        "addr:street": "J. Palacha",
        "addr:housenumber": "121/8"
      }
    },
    {
      "type": "Feature",
      "geometry": {
        "type": "Point",
        "coordinates": [
          16.5819296,
          49.2507377
        ]
      },
      "properties": {
        "@type": "node",
        "@id": 4648226591,
        "@url": "https://www.openstreetmap.org/node/4648226591",
        "name": "Vinotéka Dary vinic",
        "shop": "alcohol",
        "addr:street": "Palackého náměstí",
        "opening_hours": "Mo-Sa 10:00-20:00; Su 14:00-20:00",
        "addr:housenumber": "20"
      }
    },
    {
      "type": "Feature",
      "geometry": {
        "type": "Point",
        "coordinates": [
          16.6098572,
          49.1947176
        ]
      },
      "properties": {
        "@type": "node",
        "@id": 4648369992,
        "@url": "https://www.openstreetmap.org/node/4648369992",
        "name": "Značkové nápoje",
        "shop": "alcohol",
        "name:cs": "Značkové nápoje",
        "opening_hours": "Mo-Fr 10:00-17:30; Sa 10:00-12:00"
      }
    },
    {
      "type": "Feature",
      "geometry": {
        "type": "Point",
        "coordinates": [
          15.8213931,
          50.2103022
        ]
      },
      "properties": {
        "@type": "node",
        "@id": 4722239262,
        "@url": "https://www.openstreetmap.org/node/4722239262",
        "name": "Vína z Moravy",
        "shop": "alcohol"
      }
    },
    {
      "type": "Feature",
      "geometry": {
        "type": "Point",
        "coordinates": [
          14.4418656,
          50.0627061
        ]
      },
      "properties": {
        "@type": "node",
        "@id": 4747882001,
        "@url": "https://www.openstreetmap.org/node/4747882001",
        "name": "La Grapperia",
        "shop": "alcohol",
        "addr:city": "Praha",
        "addr:street": "Táborská",
        "addr:postcode": "14000",
        "addr:housenumber": "44"
      }
    },
    {
      "type": "Feature",
      "geometry": {
        "type": "Point",
        "coordinates": [
          16.4190589,
          49.3475554
        ]
      },
      "properties": {
        "@type": "node",
        "@id": 4759531525,
        "@url": "https://www.openstreetmap.org/node/4759531525",
        "name": "Vinotéka Perkmistr",
        "shop": "alcohol",
        "phone": "+420 515 532 508",
        "website": "http://vinotekaperkmistr.cz/",
        "opening_hours": "Mo-Sa 09:00-19:00; Su 14:00-19:00"
      }
    },
    {
      "type": "Feature",
      "geometry": {
        "type": "Point",
        "coordinates": [
          15.0577845,
          50.7662635
        ]
      },
      "properties": {
        "@type": "node",
        "@id": 4764197526,
        "@url": "https://www.openstreetmap.org/node/4764197526",
        "name": "Hruška",
        "shop": "alcohol",
        "name:cs": "Hruška",
        "name:en": "Pear",
        "website": "http://www.vinokterechutna.cz",
        "drink:wine": "yes",
        "addr:street": "Revoluční",
        "addr:housenumber": "131"
      }
    },
    {
      "type": "Feature",
      "geometry": {
        "type": "Point",
        "coordinates": [
          14.4202391,
          50.0831404
        ]
      },
      "properties": {
        "@type": "node",
        "@id": 4774552816,
        "@url": "https://www.openstreetmap.org/node/4774552816",
        "name": "BiBoVíno",
        "shop": "alcohol",
        "drink:wine": "yes",
        "wheelchair": "limited"
      }
    },
    {
      "type": "Feature",
      "geometry": {
        "type": "Point",
        "coordinates": [
          14.3595427,
          50.0975188
        ]
      },
      "properties": {
        "@type": "node",
        "@id": 4799958369,
        "@url": "https://www.openstreetmap.org/node/4799958369",
        "name": "Smíchovíno",
        "shop": "alcohol",
        "phone": "605511984",
        "ref:IČO": "46990658",
        "drink:wine": "yes",
        "opening_hours": "Mo,Tu 14:00-20:00; We-Fr 12:00-20:00"
      }
    },
    {
      "type": "Feature",
      "geometry": {
        "type": "Point",
        "coordinates": [
          14.4175928,
          50.1012923
        ]
      },
      "properties": {
        "@type": "node",
        "@id": 4801786246,
        "@url": "https://www.openstreetmap.org/node/4801786246",
        "name": "La Vineria",
        "shop": "alcohol",
        "website": "http://www.valledongiulio.cz/shop.php?la-vineria,28",
        "addr:city": "Praha 7",
        "drink:wine": "yes",
        "addr:street": "Korunovační",
        "addr:postcode": "17000",
        "addr:housenumber": "21"
      }
    },
    {
      "type": "Feature",
      "geometry": {
        "type": "Point",
        "coordinates": [
          14.434147,
          50.0713529
        ]
      },
      "properties": {
        "@type": "node",
        "@id": 4822265053,
        "@url": "https://www.openstreetmap.org/node/4822265053",
        "name": "Chateau Šafaříkova",
        "shop": "alcohol"
      }
    },
    {
      "type": "Feature",
      "geometry": {
        "type": "Point",
        "coordinates": [
          14.4328139,
          50.0736416
        ]
      },
      "properties": {
        "@type": "node",
        "@id": 4822399980,
        "@url": "https://www.openstreetmap.org/node/4822399980",
        "name": "Vinotéka U Eduarda",
        "shop": "alcohol"
      }
    },
    {
      "type": "Feature",
      "geometry": {
        "type": "Point",
        "coordinates": [
          16.047736,
          48.8585963
        ]
      },
      "properties": {
        "@type": "node",
        "@id": 4839059621,
        "@url": "https://www.openstreetmap.org/node/4839059621",
        "addr:housenumber": "176/10",
        "addr:street": "Jezuitská",
        "name": "Vinotéka Jezuitská",
        "opening_hours": "Tu-Th,Sa 16:00-22:00; Fr 16:00-24:00",
        "shop": "alcohol"
      }
    },
    {
      "type": "Feature",
      "geometry": {
        "type": "Point",
        "coordinates": [
          14.4445235,
          50.0627039
        ]
      },
      "properties": {
        "@type": "node",
        "@id": 4843874357,
        "@url": "https://www.openstreetmap.org/node/4843874357",
        "name": "Máme žízeň.cz",
        "shop": "alcohol",
        "website": "www.mamezizen.cz",
        "opening_hours": "Mo-Su 16:00-04:00"
      }
    },
    {
      "type": "Feature",
      "geometry": {
        "type": "Point",
        "coordinates": [
          17.1178343,
          49.4795044
        ]
      },
      "properties": {
        "@type": "node",
        "@id": 4881614524,
        "@url": "https://www.openstreetmap.org/node/4881614524",
        "name": "Prostějovský Pramen",
        "shop": "alcohol",
        "email": "pvpramen@seznam.cz",
        "phone": "+420602859593",
        "addr:street": "Olomoucká",
        "addr:postcode": "79601",
        "addr:housenumber": "4181/57"
      }
    },
    {
      "type": "Feature",
      "geometry": {
        "type": "Point",
        "coordinates": [
          15.7855119,
          50.0382511
        ]
      },
      "properties": {
        "@type": "node",
        "@id": 4882172008,
        "@url": "https://www.openstreetmap.org/node/4882172008",
        "name": "Vinotéka - Vinný šenk",
        "opening_hours": "Mo-Fr 15:00-21:00",
        "shop": "alcohol",
        "wheelchair": "no"
      }
    },
    {
      "type": "Feature",
      "geometry": {
        "type": "Point",
        "coordinates": [
          16.7188384,
          49.1671773
        ]
      },
      "properties": {
        "@type": "node",
        "@id": 4882172010,
        "@url": "https://www.openstreetmap.org/node/4882172010",
        "name": "Vinotéka u Mikuláška",
        "shop": "alcohol"
      }
    },
    {
      "type": "Feature",
      "geometry": {
        "type": "Point",
        "coordinates": [
          17.4957145,
          49.2528072
        ]
      },
      "properties": {
        "@type": "node",
        "@id": 4911916021,
        "@url": "https://www.openstreetmap.org/node/4911916021",
        "shop": "alcohol"
      }
    },
    {
      "type": "Feature",
      "geometry": {
        "type": "Point",
        "coordinates": [
          14.4534517,
          50.0752876
        ]
      },
      "properties": {
        "@type": "node",
        "@id": 4916893145,
        "@url": "https://www.openstreetmap.org/node/4916893145",
        "name": "Vinotéka pod pergolou",
        "shop": "alcohol",
        "opening_hours": "Mo-Sa 14:00-22:00"
      }
    },
    {
      "type": "Feature",
      "geometry": {
        "type": "Point",
        "coordinates": [
          16.5937015,
          49.2099434
        ]
      },
      "properties": {
        "@type": "node",
        "@id": 4935115229,
        "@url": "https://www.openstreetmap.org/node/4935115229",
        "addr:city": "Brno",
        "drive_through": "no",
        "name": "Vinotéka Rozverný hrozen",
        "opening_hours": "Mo-Fr 10:00-13:00; Mo-Fr 13:15-18:30; Sa 9:30-11:30",
        "shop": "alcohol",
        "wheelchair": "yes"
      }
    },
    {
      "type": "Feature",
      "geometry": {
        "type": "Point",
        "coordinates": [
          16.6702775,
          49.2018791
        ]
      },
      "properties": {
        "@type": "node",
        "@id": 4940708871,
        "@url": "https://www.openstreetmap.org/node/4940708871",
        "drink:beer": "yes",
        "name": "Beer Daddy",
        "shop": "alcohol"
      }
    },
    {
      "type": "Feature",
      "geometry": {
        "type": "Point",
        "coordinates": [
          14.4538843,
          50.0947338
        ]
      },
      "properties": {
        "@type": "node",
        "@id": 4999295850,
        "@url": "https://www.openstreetmap.org/node/4999295850",
        "loc_name": "WareHouse",
        "name": "Warehouse#1",
        "shop": "alcohol"
      }
    },
    {
      "type": "Feature",
      "geometry": {
        "type": "Point",
        "coordinates": [
          14.3284529,
          50.2417908
        ]
      },
      "properties": {
        "@type": "node",
        "@id": 4999629024,
        "@url": "https://www.openstreetmap.org/node/4999629024",
        "shop": "alcohol"
      }
    },
    {
      "type": "Feature",
      "geometry": {
        "type": "Point",
        "coordinates": [
          17.4675374,
          49.0682381
        ]
      },
      "properties": {
        "@type": "node",
        "@id": 5013668014,
        "@url": "https://www.openstreetmap.org/node/5013668014",
        "check_date:opening_hours": "2021-07-02",
        "name": "Vinotéka U Ovečky",
        "opening_hours": "Mo-Th 10:00-12:00,13:00-18:00, Fr 10:00-18:00, Sa 09:00-12:00",
        "shop": "alcohol",
        "wheelchair": "no"
      }
    },
    {
      "type": "Feature",
      "geometry": {
        "type": "Point",
        "coordinates": [
          15.4522464,
          49.1863309
        ]
      },
      "properties": {
        "@type": "node",
        "@id": 5018114297,
        "@url": "https://www.openstreetmap.org/node/5018114297",
        "name": "Vinotéka U Martina",
        "shop": "alcohol"
      }
    },
    {
      "type": "Feature",
      "geometry": {
        "type": "Point",
        "coordinates": [
          13.8786533,
          49.4212596
        ]
      },
      "properties": {
        "@type": "node",
        "@id": 5030139160,
        "@url": "https://www.openstreetmap.org/node/5030139160",
        "name": "Liqui B",
        "shop": "alcohol",
        "source": "survey"
      }
    },
    {
      "type": "Feature",
      "geometry": {
        "type": "Point",
        "coordinates": [
          14.4226591,
          50.0907767
        ]
      },
      "properties": {
        "@type": "node",
        "@id": 5053279894,
        "@url": "https://www.openstreetmap.org/node/5053279894",
        "name": "Vino Markuzzi",
        "shop": "alcohol",
        "website": "http://markuzzi.cz",
        "drink:wine": "retail",
        "wheelchair": "limited",
        "opening_hours": "Mo-Fr 09:00-19:00"
      }
    },
    {
      "type": "Feature",
      "geometry": {
        "type": "Point",
        "coordinates": [
          14.9766008,
          50.5215061
        ]
      },
      "properties": {
        "@type": "node",
        "@id": 5059813177,
        "@url": "https://www.openstreetmap.org/node/5059813177",
        "name": "Vinotéka U Sluníčka",
        "shop": "alcohol",
        "drink:wine": "yes",
        "opening_hours": "Mo-We 09:00-16:30; Th,Fr 9:00-17:00; Sa 09:00-11:00"
      }
    },
    {
      "type": "Feature",
      "geometry": {
        "type": "Point",
        "coordinates": [
          14.9734426,
          50.5230316
        ]
      },
      "properties": {
        "@type": "node",
        "@id": 5060485133,
        "@url": "https://www.openstreetmap.org/node/5060485133",
        "name": "Vinotéka Na náměstí",
        "shop": "alcohol",
        "drink:wine": "yes",
        "opening_hours": "Mo 16:00-19:00; Tu-Th 10:00-13:00,16:00-19:00; Fr 10:00-13:00,16:00-20:00; Sa 09:00-12:00"
      }
    },
    {
      "type": "Feature",
      "geometry": {
        "type": "Point",
        "coordinates": [
          18.7649211,
          49.5764484
        ]
      },
      "properties": {
        "@type": "node",
        "@id": 5086457379,
        "@url": "https://www.openstreetmap.org/node/5086457379",
        "name": "Lihoviny",
        "shop": "alcohol",
        "opening_hours": "Mo-Fr 08:00-17:00; Sa 08:00-12:00; PH closed"
      }
    },
    {
      "type": "Feature",
      "geometry": {
        "type": "Point",
        "coordinates": [
          17.4743203,
          49.0707489
        ]
      },
      "properties": {
        "@type": "node",
        "@id": 5102943412,
        "@url": "https://www.openstreetmap.org/node/5102943412",
        "check_date:opening_hours": "2021-08-31",
        "name": "Vinotéka",
        "opening_hours": "Mo-Su 08:00-20:00",
        "shop": "alcohol",
        "wheelchair": "yes"
      }
    },
    {
      "type": "Feature",
      "geometry": {
        "type": "Point",
        "coordinates": [
          17.4607072,
          49.0680243
        ]
      },
      "properties": {
        "@type": "node",
        "@id": 5107111093,
        "@url": "https://www.openstreetmap.org/node/5107111093",
        "name": "Liquormania",
        "shop": "alcohol",
        "opening_hours": "Mo-Fr 09:00-18:00, Sa 09:00-12:00"
      }
    },
    {
      "type": "Feature",
      "geometry": {
        "type": "Point",
        "coordinates": [
          17.4592141,
          49.0713145
        ]
      },
      "properties": {
        "@type": "node",
        "@id": 5114437779,
        "@url": "https://www.openstreetmap.org/node/5114437779",
        "name": "Víno Hruška",
        "shop": "alcohol",
        "opening_hours": "Mo 10:00-19:00, Tu-Th 10:00-22:00, Fr 10:00-24:00, Sa 09:00-24:00"
      }
    },
    {
      "type": "Feature",
      "geometry": {
        "type": "Point",
        "coordinates": [
          17.4597854,
          49.0696979
        ]
      },
      "properties": {
        "@type": "node",
        "@id": 5114470957,
        "@url": "https://www.openstreetmap.org/node/5114470957",
        "name": "Víno Pod Věží",
        "shop": "alcohol",
        "opening_hours": "Mo-Fr 10:00-14:00,14:30-18:00, Sa 09:00-11:00"
      }
    },
    {
      "type": "Feature",
      "geometry": {
        "type": "Point",
        "coordinates": [
          15.8359409,
          50.2107792
        ]
      },
      "properties": {
        "@type": "node",
        "@id": 5114584200,
        "@url": "https://www.openstreetmap.org/node/5114584200",
        "name": "Vinotéka U sv. Václava",
        "shop": "alcohol"
      }
    },
    {
      "type": "Feature",
      "geometry": {
        "type": "Point",
        "coordinates": [
          16.6138402,
          49.194826
        ]
      },
      "properties": {
        "@type": "node",
        "@id": 5116080506,
        "@url": "https://www.openstreetmap.org/node/5116080506",
        "name": "Vinotéka Na Divadelní",
        "shop": "alcohol"
      }
    },
    {
      "type": "Feature",
      "geometry": {
        "type": "Point",
        "coordinates": [
          15.8234935,
          50.2131868
        ]
      },
      "properties": {
        "@type": "node",
        "@id": 5116719780,
        "@url": "https://www.openstreetmap.org/node/5116719780",
        "name": "Vinotéka",
        "shop": "alcohol"
      }
    },
    {
      "type": "Feature",
      "geometry": {
        "type": "Point",
        "coordinates": [
          14.4525392,
          50.0690382
        ]
      },
      "properties": {
        "@type": "node",
        "@id": 5119305596,
        "@url": "https://www.openstreetmap.org/node/5119305596",
        "name": "Obchod s vínem",
        "shop": "alcohol"
      }
    },
    {
      "type": "Feature",
      "geometry": {
        "type": "Point",
        "coordinates": [
          14.4441769,
          50.0854149
        ]
      },
      "properties": {
        "@type": "node",
        "@id": 5171999729,
        "@url": "https://www.openstreetmap.org/node/5171999729",
        "name": "Vinotéka",
        "shop": "alcohol"
      }
    },
    {
      "type": "Feature",
      "geometry": {
        "type": "Point",
        "coordinates": [
          16.6026458,
          49.207184
        ]
      },
      "properties": {
        "@type": "node",
        "@id": 5186936189,
        "@url": "https://www.openstreetmap.org/node/5186936189",
        "name": "Kvalitnípití.cz",
        "shop": "alcohol",
        "wheelchair": "no",
        "opening_hours": "Mo-Fr 11:00-21:00; Sa 10:00-14:00"
      }
    },
    {
      "type": "Feature",
      "geometry": {
        "type": "Point",
        "coordinates": [
          16.5950384,
          49.2229837
        ]
      },
      "properties": {
        "@type": "node",
        "@id": 5286287561,
        "@url": "https://www.openstreetmap.org/node/5286287561",
        "name": "Vinotéka Na Palackého",
        "shop": "alcohol",
        "operator": "Pálavské vrchy s.r.o.",
        "drink:wine": "yes",
        "wheelchair": "no",
        "addr:street": "Palackého třída",
        "contact:email": "info@vinotekanapalackeho.cz",
        "contact:phone": "+420 731128580",
        "opening_hours": "Mo-Sa 10:00-19:00; Su 14:00-19:00",
        "contact:website": "https://vinotekanapalackeho.cz",
        "addr:streetnumber": "47"
      }
    },
    {
      "type": "Feature",
      "geometry": {
        "type": "Point",
        "coordinates": [
          17.4657712,
          49.0680336
        ]
      },
      "properties": {
        "@type": "node",
        "@id": 5313521417,
        "@url": "https://www.openstreetmap.org/node/5313521417",
        "addr:city": "Uherské Hradiště",
        "drink:beer": "yes",
        "name": "Pivotéka BARAN",
        "shop": "alcohol",
        "website": "http://www.pivobaran.cz/"
      }
    },
    {
      "type": "Feature",
      "geometry": {
        "type": "Point",
        "coordinates": [
          14.4103574,
          50.2347467
        ]
      },
      "properties": {
        "@type": "node",
        "@id": 5370303235,
        "@url": "https://www.openstreetmap.org/node/5370303235",
        "shop": "alcohol"
      }
    },
    {
      "type": "Feature",
      "geometry": {
        "type": "Point",
        "coordinates": [
          17.4622494,
          49.0685261
        ]
      },
      "properties": {
        "@type": "node",
        "@id": 5417347672,
        "@url": "https://www.openstreetmap.org/node/5417347672",
        "name": "Vinotéka",
        "shop": "alcohol",
        "source": "survey",
        "drink:wine": "yes",
        "opening_hours": "Mo-Fr 08:00-18:00, Sa 08:00-13:00"
      }
    },
    {
      "type": "Feature",
      "geometry": {
        "type": "Point",
        "coordinates": [
          16.8225548,
          49.2133742
        ]
      },
      "properties": {
        "@type": "node",
        "@id": 5443361096,
        "@url": "https://www.openstreetmap.org/node/5443361096",
        "name": "Vinotéka ve Viničných Šumicích",
        "shop": "alcohol",
        "website": "http://vinoteka.zerastav.cz/",
        "drink:wine": "yes",
        "wheelchair": "yes",
        "opening_hours": "Mo-Fr 15:00-20:00; Sa 10:00-14:00; PH off"
      }
    },
    {
      "type": "Feature",
      "geometry": {
        "type": "Point",
        "coordinates": [
          14.3820021,
          50.0860282
        ]
      },
      "properties": {
        "@type": "node",
        "@id": 5463915812,
        "@url": "https://www.openstreetmap.org/node/5463915812",
        "name": "Glentyn(e)",
        "shop": "alcohol",
        "operator": "www.glentyne.cz",
        "addr:city": "Praha 6",
        "addr:street": "Na Malovance",
        "addr:postcode": "16900",
        "addr:housenumber": "724/6"
      }
    },
    {
      "type": "Feature",
      "geometry": {
        "type": "Point",
        "coordinates": [
          16.6071015,
          49.194915
        ]
      },
      "properties": {
        "@type": "node",
        "@id": 5509464889,
        "@url": "https://www.openstreetmap.org/node/5509464889",
        "name": "Chcu pivo",
        "shop": "alcohol",
        "addr:city": "Brno",
        "addr:street": "náměstí Svobody",
        "addr:postcode": "60200",
        "addr:housenumber": "92/21"
      }
    },
    {
      "type": "Feature",
      "geometry": {
        "type": "Point",
        "coordinates": [
          14.4549644,
          50.0755448
        ]
      },
      "properties": {
        "@type": "node",
        "@id": 5511701829,
        "@url": "https://www.openstreetmap.org/node/5511701829",
        "shop": "alcohol",
        "website": "http://www.vinoteka-korunni105.cz/",
        "operator": "Korunní 105",
        "addr:street": "Korunní",
        "addr:housenumber": "105"
      }
    },
    {
      "type": "Feature",
      "geometry": {
        "type": "Point",
        "coordinates": [
          14.5235705,
          50.2604827
        ]
      },
      "properties": {
        "@type": "node",
        "@id": 5591735656,
        "@url": "https://www.openstreetmap.org/node/5591735656",
        "name": "Vinotéka",
        "shop": "alcohol"
      }
    },
    {
      "type": "Feature",
      "geometry": {
        "type": "Point",
        "coordinates": [
          16.6086579,
          49.9111225
        ]
      },
      "properties": {
        "@type": "node",
        "@id": 5732528100,
        "@url": "https://www.openstreetmap.org/node/5732528100",
        "name": "Vinotéka Poklady z Moravy",
        "shop": "alcohol"
      }
    },
    {
      "type": "Feature",
      "geometry": {
        "type": "Point",
        "coordinates": [
          17.7361322,
          49.5501363
        ]
      },
      "properties": {
        "@type": "node",
        "@id": 5740966739,
        "@url": "https://www.openstreetmap.org/node/5740966739",
        "name": "Pivotéka|Vinotéka",
        "shop": "alcohol",
        "website": "http://pivoteka-hranice.cz/",
        "addr:city": "Hranice",
        "drink:beer": "yes",
        "drink:wine": "yes",
        "addr:street": "Komenského",
        "addr:postcode": "75301",
        "addr:housenumber": "380"
      }
    },
    {
      "type": "Feature",
      "geometry": {
        "type": "Point",
        "coordinates": [
          14.4485575,
          50.1282426
        ]
      },
      "properties": {
        "@type": "node",
        "@id": 5763271286,
        "@url": "https://www.openstreetmap.org/node/5763271286",
        "name": "Víno Fermata",
        "shop": "alcohol",
        "drink:wine": "yes",
        "addr:street": "Třeboradická",
        "addr:postcode": "18200",
        "opening_hours": "Mo-Fr 16:00-21:00",
        "payment:coins": "yes",
        "payment:notes": "yes",
        "indoor_seating": "yes",
        "outdoor_seating": "no",
        "addr:housenumber": "1111/29",
        "addr:streetnumber": "29",
        "payment:credit_cards": "yes",
        "addr:conscriptionnumber": "1111"
      }
    },
    {
      "type": "Feature",
      "geometry": {
        "type": "Point",
        "coordinates": [
          13.806335,
          50.3571667
        ]
      },
      "properties": {
        "@type": "node",
        "@id": 5937381985,
        "@url": "https://www.openstreetmap.org/node/5937381985",
        "addr:housenumber": "2516",
        "addr:street": "Husova",
        "opening_hours": "Mo-Su 08:15-20:00",
        "shop": "alcohol"
      }
    },
    {
      "type": "Feature",
      "geometry": {
        "type": "Point",
        "coordinates": [
          13.8063364,
          50.3572288
        ]
      },
      "properties": {
        "@type": "node",
        "@id": 5985234485,
        "@url": "https://www.openstreetmap.org/node/5985234485",
        "shop": "alcohol"
      }
    },
    {
      "type": "Feature",
      "geometry": {
        "type": "Point",
        "coordinates": [
          14.1008609,
          50.1453679
        ]
      },
      "properties": {
        "@type": "node",
        "@id": 6167867428,
        "@url": "https://www.openstreetmap.org/node/6167867428",
        "name": "Vinotéka Hruška",
        "shop": "alcohol"
      }
    },
    {
      "type": "Feature",
      "geometry": {
        "type": "Point",
        "coordinates": [
          17.4618639,
          49.4532765
        ]
      },
      "properties": {
        "@type": "node",
        "@id": 6185548780,
        "@url": "https://www.openstreetmap.org/node/6185548780",
        "name": "Vinotéka PESO",
        "shop": "alcohol",
        "level": "0",
        "phone": "+420 728 198 461",
        "addr:city": "Přerov",
        "drink:wine": "yes",
        "start_date": "2004",
        "addr:street": "Trávník",
        "description": "Široká nabídka sudových vín ve všech cenových relacích.",
        "addr:postcode": "75002",
        "drive_through": "no",
        "opening_hours": "Mo-Su 09:00-21:00",
        "addr:housenumber": "322/29"
      }
    },
    {
      "type": "Feature",
      "geometry": {
        "type": "Point",
        "coordinates": [
          14.405944,
          50.087068
        ]
      },
      "properties": {
        "@type": "node",
        "@id": 6190999087,
        "@url": "https://www.openstreetmap.org/node/6190999087",
        "shop": "alcohol",
        "name:en": "Czech Beer Shop",
        "addr:street": "Lázeňská",
        "opening_hours": "Mo-Su 12:00-18:00",
        "addr:housenumber": "283/15"
      }
    },
    {
      "type": "Feature",
      "geometry": {
        "type": "Point",
        "coordinates": [
          14.4334574,
          50.0578917
        ]
      },
      "properties": {
        "@type": "node",
        "@id": 6204997142,
        "@url": "https://www.openstreetmap.org/node/6204997142",
        "name": "Global Wines & Spirits",
        "shop": "alcohol",
        "website": "https://www.global-wines.cz/",
        "opening_hours": "Mo-Fr 10:00-20:00, Sa 09:00-13:00"
      }
    },
    {
      "type": "Feature",
      "geometry": {
        "type": "Point",
        "coordinates": [
          16.6060221,
          49.2031284
        ]
      },
      "properties": {
        "@type": "node",
        "@id": 6340651955,
        "@url": "https://www.openstreetmap.org/node/6340651955",
        "email": "objednavky@vychutnavej.cz",
        "name": "vychutnavej.cz",
        "opening_hours": "Mo-Fr 15:00-18:00",
        "phone": "+420 727 986 000",
        "shop": "alcohol",
        "website": "https://www.vychutnavej.cz",
        "wheelchair": "yes"
      }
    },
    {
      "type": "Feature",
      "geometry": {
        "type": "Point",
        "coordinates": [
          16.7369598,
          48.937898
        ]
      },
      "properties": {
        "@type": "node",
        "@id": 6359220152,
        "@url": "https://www.openstreetmap.org/node/6359220152",
        "name": "Mandlárna",
        "shop": "alcohol",
        "amenity": "cafe",
        "website": "https://www.mandlarna.cz/"
      }
    },
    {
      "type": "Feature",
      "geometry": {
        "type": "Point",
        "coordinates": [
          16.5321442,
          49.2990635
        ]
      },
      "properties": {
        "@type": "node",
        "@id": 6401437170,
        "@url": "https://www.openstreetmap.org/node/6401437170",
        "drink:beer": "yes",
        "name": "Mé víno",
        "opening_hours": "Mo-Fr 10:00-19:00; Sa 10:00-12:00",
        "payment:diners_club": "yes",
        "payment:discover_card": "yes",
        "payment:maestro": "yes",
        "payment:mastercard": "yes",
        "payment:visa": "yes",
        "payment:visa_debit": "yes",
        "payment:visa_electron": "yes",
        "shop": "alcohol"
      }
    },
    {
      "type": "Feature",
      "geometry": {
        "type": "Point",
        "coordinates": [
          16.2232351,
          49.2891638
        ]
      },
      "properties": {
        "@type": "node",
        "@id": 6417444477,
        "@url": "https://www.openstreetmap.org/node/6417444477",
        "name": "Vinotéka",
        "shop": "alcohol",
        "alcohol": "wine",
        "wheelchair": "no"
      }
    },
    {
      "type": "Feature",
      "geometry": {
        "type": "Point",
        "coordinates": [
          18.4341911,
          49.7775469
        ]
      },
      "properties": {
        "@type": "node",
        "@id": 6447119311,
        "@url": "https://www.openstreetmap.org/node/6447119311",
        "addr:city": "Havířov",
        "addr:country": "CZ",
        "addr:housenumber": "519/14",
        "addr:postcode": "73601",
        "addr:street": "Národní třída",
        "check_date:opening_hours": "2021-11-09",
        "drink:beer": "yes",
        "drink:liquor": "yes",
        "drink:wine": "yes",
        "drive_through": "no",
        "name": "Alkotéka Havířov",
        "opening_hours": "Mo-Fr 08:00-18:00; Sa 08:00-17:00",
        "operator": "Premium alko s.r.o.",
        "payment:cash": "yes",
        "payment:mastercard": "yes",
        "payment:visa": "yes",
        "phone": "+420 778 451 857",
        "shop": "alcohol",
        "website": "https://www.facebook.com/Alkot%C3%A9ka-Hav%C3%AD%C5%99ov-1888759508018624/"
      }
    },
    {
      "type": "Feature",
      "geometry": {
        "type": "Point",
        "coordinates": [
          16.2233138,
          49.2893511
        ]
      },
      "properties": {
        "@type": "node",
        "@id": 6449994651,
        "@url": "https://www.openstreetmap.org/node/6449994651",
        "name": "Vinotéka",
        "shop": "alcohol",
        "alcohol": "wine",
        "wheelchair": "no"
      }
    },
    {
      "type": "Feature",
      "geometry": {
        "type": "Point",
        "coordinates": [
          14.4449587,
          50.1080912
        ]
      },
      "properties": {
        "@type": "node",
        "@id": 6466509813,
        "@url": "https://www.openstreetmap.org/node/6466509813",
        "name": "Stáčené vino",
        "shop": "alcohol",
        "website": "stacenevino.cz",
        "opening_hours": "Mo-Fr 15:00-20:00; Sa 16:00-20:00"
      }
    },
    {
      "type": "Feature",
      "geometry": {
        "type": "Point",
        "coordinates": [
          15.0035897,
          49.1458777
        ]
      },
      "properties": {
        "@type": "node",
        "@id": 6550193240,
        "@url": "https://www.openstreetmap.org/node/6550193240",
        "shop": "alcohol"
      }
    },
    {
      "type": "Feature",
      "geometry": {
        "type": "Point",
        "coordinates": [
          16.750709,
          49.2251717
        ]
      },
      "properties": {
        "@type": "node",
        "@id": 6652705332,
        "@url": "https://www.openstreetmap.org/node/6652705332",
        "mobile": "+420 602 511 196",
        "name": "Vinotéka Za kapličkou",
        "opening_hours": "Mo-Fr 16:00-20:00; Sa 09:00-12:00",
        "payment:maestro": "yes",
        "payment:mastercard": "yes",
        "payment:visa": "yes",
        "payment:visa_debit": "yes",
        "payment:visa_electron": "yes",
        "shop": "alcohol"
      }
    },
    {
      "type": "Feature",
      "geometry": {
        "type": "Point",
        "coordinates": [
          16.8190121,
          48.8974209
        ]
      },
      "properties": {
        "@type": "node",
        "@id": 6657439187,
        "@url": "https://www.openstreetmap.org/node/6657439187",
        "name": "Vinium",
        "shop": "alcohol"
      }
    },
    {
      "type": "Feature",
      "geometry": {
        "type": "Point",
        "coordinates": [
          17.4661568,
          49.0678882
        ]
      },
      "properties": {
        "@type": "node",
        "@id": 6681057836,
        "@url": "https://www.openstreetmap.org/node/6681057836",
        "name": "vinotéka",
        "shop": "alcohol"
      }
    },
    {
      "type": "Feature",
      "geometry": {
        "type": "Point",
        "coordinates": [
          18.0132942,
          49.0756844
        ]
      },
      "properties": {
        "@type": "node",
        "@id": 6685863398,
        "@url": "https://www.openstreetmap.org/node/6685863398",
        "addr:housenumber": "5",
        "addr:street": "Mýto",
        "name": "Pivotéka - vinotéka Bylnice",
        "opening_hours": "Mo-Fr 09:00-11:30, 13:00-17:00; Sa 08:00-11:30",
        "phone": "736 780 497",
        "shop": "alcohol",
        "website": "http://pisud.cz/"
      }
    },
    {
      "type": "Feature",
      "geometry": {
        "type": "Point",
        "coordinates": [
          14.4681492,
          50.3546144
        ]
      },
      "properties": {
        "@type": "node",
        "@id": 6901065830,
        "@url": "https://www.openstreetmap.org/node/6901065830",
        "shop": "alcohol",
        "drink:wine": "yes"
      }
    },
    {
      "type": "Feature",
      "geometry": {
        "type": "Point",
        "coordinates": [
          13.543746,
          49.5042503
        ]
      },
      "properties": {
        "@type": "node",
        "@id": 7045103085,
        "@url": "https://www.openstreetmap.org/node/7045103085",
        "name": "Jenčík a dcery, s.r.o.",
        "shop": "alcohol",
        "email": "info@jencikadcery.cz",
        "phone": "+420 608 064 859",
        "website": "https://www.jencikadcery.cz",
        "addr:street": "Prádlo",
        "addr:postcode": "335 01",
        "opening_hours": "Mo-Fr 07:30-16:00",
        "addr:housenumber": "5"
      }
    },
    {
      "type": "Feature",
      "geometry": {
        "type": "Point",
        "coordinates": [
          15.8202113,
          50.2149461
        ]
      },
      "properties": {
        "@type": "node",
        "@id": 7060176585,
        "@url": "https://www.openstreetmap.org/node/7060176585",
        "name": "Pivotéka Pivoňka",
        "shop": "alcohol",
        "phone": "+420774061520",
        "addr:street": "Wonkova",
        "opening_hours": "Mo-Fr 10:00-18:00; Sa 09:00-12:00",
        "addr:housenumber": "385/28"
      }
    },
    {
      "type": "Feature",
      "geometry": {
        "type": "Point",
        "coordinates": [
          16.5845842,
          49.2390431
        ]
      },
      "properties": {
        "@type": "node",
        "@id": 7104316986,
        "@url": "https://www.openstreetmap.org/node/7104316986",
        "addr:housenumber": "182",
        "addr:street": "Banskobystrická",
        "name": "Vinotéka Fénix",
        "opening_hours": "Mo-Fr 11:00-21:00; Sa 11:00-21:00; Su 12:00-20:30",
        "shop": "alcohol"
      }
    },
    {
      "type": "Feature",
      "geometry": {
        "type": "Point",
        "coordinates": [
          14.4064657,
          50.0985346
        ]
      },
      "properties": {
        "@type": "node",
        "@id": 7117550286,
        "@url": "https://www.openstreetmap.org/node/7117550286",
        "name": "Base Camp",
        "shop": "alcohol",
        "addr:street": "Muchova",
        "addr:postcode": "16000",
        "opening_hours": "Mo-Su 11:00-23:00",
        "addr:housenumber": "241/4"
      }
    },
    {
      "type": "Feature",
      "geometry": {
        "type": "Point",
        "coordinates": [
          16.5687647,
          49.2128765
        ]
      },
      "properties": {
        "@type": "node",
        "@id": 7128770920,
        "@url": "https://www.openstreetmap.org/node/7128770920",
        "name": "vinotéka",
        "shop": "alcohol"
      }
    },
    {
      "type": "Feature",
      "geometry": {
        "type": "Point",
        "coordinates": [
          16.625501,
          49.203338
        ]
      },
      "properties": {
        "@type": "node",
        "@id": 7139181550,
        "@url": "https://www.openstreetmap.org/node/7139181550",
        "name": "Vinotéka Pavlovín",
        "shop": "alcohol"
      }
    },
    {
      "type": "Feature",
      "geometry": {
        "type": "Point",
        "coordinates": [
          16.6434473,
          49.2239329
        ]
      },
      "properties": {
        "@type": "node",
        "@id": 7139321415,
        "@url": "https://www.openstreetmap.org/node/7139321415",
        "name": "Vinotéka Ševčík",
        "opening_hours": "Mo-Su 09:00-21:00",
        "shop": "alcohol"
      }
    },
    {
      "type": "Feature",
      "geometry": {
        "type": "Point",
        "coordinates": [
          16.5829243,
          49.2115781
        ]
      },
      "properties": {
        "@type": "node",
        "@id": 7139573259,
        "@url": "https://www.openstreetmap.org/node/7139573259",
        "addr:city": "Brno",
        "addr:housenumber": "341/48",
        "addr:postcode": "61600",
        "addr:street": "Minská",
        "drink:beer": "yes",
        "drive_through": "no",
        "name": "Beershop.cz",
        "opening_hours": "Mo-Fr 10:00-18:00",
        "phone": "+420 724 028 503",
        "shop": "alcohol",
        "website": "https://www.beershop.cz/",
        "wheelchair": "no"
      }
    },
    {
      "type": "Feature",
      "geometry": {
        "type": "Point",
        "coordinates": [
          17.1362001,
          48.8596736
        ]
      },
      "properties": {
        "@type": "node",
        "@id": 7222751736,
        "@url": "https://www.openstreetmap.org/node/7222751736",
        "name": "Vinotéka Na Rozmarýnku",
        "shop": "alcohol"
      }
    },
    {
      "type": "Feature",
      "geometry": {
        "type": "Point",
        "coordinates": [
          16.3355403,
          50.6040166
        ]
      },
      "properties": {
        "@type": "node",
        "@id": 7223131779,
        "@url": "https://www.openstreetmap.org/node/7223131779",
        "shop": "alcohol"
      }
    },
    {
      "type": "Feature",
      "geometry": {
        "type": "Point",
        "coordinates": [
          16.6164015,
          49.1908949
        ]
      },
      "properties": {
        "@type": "node",
        "@id": 7277782036,
        "@url": "https://www.openstreetmap.org/node/7277782036",
        "drink:beer": "yes",
        "drink:wine": "yes",
        "email": "klasterni@post.cz",
        "mobile": "+420 722 498 578",
        "name": "Vinotéka Pivotéka Delikatesy",
        "opening_hours": "Mo-Fr 14:00-21:00; Sa 16:00-21:00",
        "shop": "alcohol",
        "website": "http://www.likora.cz/"
      }
    },
    {
      "type": "Feature",
      "geometry": {
        "type": "Point",
        "coordinates": [
          18.3550941,
          49.9037273
        ]
      },
      "properties": {
        "@type": "node",
        "@id": 7294742485,
        "@url": "https://www.openstreetmap.org/node/7294742485",
        "name": "Vinotéka & Pivotéka",
        "shop": "alcohol",
        "email": "obchod@vinoteka-pivoteka.cz",
        "phone": "+420732339300",
        "website": "http://www.vinoteka-pivoteka.cz",
        "addr:street": "tř. Dr. E. Beneše",
        "addr:postcode": "73581",
        "opening_hours": "Mo-Fr 09:00-19:00; Sa 09:00-18:00",
        "addr:housenumber": "1155"
      }
    },
    {
      "type": "Feature",
      "geometry": {
        "type": "Point",
        "coordinates": [
          14.4762672,
          50.0578438
        ]
      },
      "properties": {
        "@type": "node",
        "@id": 7344503530,
        "@url": "https://www.openstreetmap.org/node/7344503530",
        "name": "Don Pealo",
        "shop": "alcohol"
      }
    },
    {
      "type": "Feature",
      "geometry": {
        "type": "Point",
        "coordinates": [
          18.1490444,
          49.8476898
        ]
      },
      "properties": {
        "@type": "node",
        "@id": 7390591638,
        "@url": "https://www.openstreetmap.org/node/7390591638",
        "shop": "alcohol"
      }
    },
    {
      "type": "Feature",
      "geometry": {
        "type": "Point",
        "coordinates": [
          16.6180019,
          49.228515
        ]
      },
      "properties": {
        "@type": "node",
        "@id": 7422242436,
        "@url": "https://www.openstreetmap.org/node/7422242436",
        "name": "Vinný bar u3deci",
        "shop": "alcohol",
        "amenity": "bar",
        "drink:wine": "yes",
        "contact:email": "bar@u3deci.cz",
        "contact:phone": "+420 607038474",
        "opening_hours": "Mo-Su 11:00-22:00",
        "contact:website": "http://www.u3deci.cz"
      }
    },
    {
      "type": "Feature",
      "geometry": {
        "type": "Point",
        "coordinates": [
          16.643167,
          49.3592065
        ]
      },
      "properties": {
        "@type": "node",
        "@id": 7528896888,
        "@url": "https://www.openstreetmap.org/node/7528896888",
        "name": "Salenatéka pivotéka & vinotéka",
        "shop": "alcohol",
        "phone": "+420770101473",
        "website": "http://www.salenateka.cz",
        "addr:street": "Svitavská",
        "addr:postcode": "67801",
        "opening_hours": "Mo-Sa 09:00-19:00",
        "addr:housenumber": "500/7"
      }
    },
    {
      "type": "Feature",
      "geometry": {
        "type": "Point",
        "coordinates": [
          14.4570498,
          50.1209598
        ]
      },
      "properties": {
        "@type": "node",
        "@id": 7576729406,
        "@url": "https://www.openstreetmap.org/node/7576729406",
        "name": "Kaňka",
        "shop": "alcohol"
      }
    },
    {
      "type": "Feature",
      "geometry": {
        "type": "Point",
        "coordinates": [
          16.7570606,
          49.6259395
        ]
      },
      "properties": {
        "@type": "node",
        "@id": 7604347885,
        "@url": "https://www.openstreetmap.org/node/7604347885",
        "name": "Vichr Jaroměřický minipivovar",
        "shop": "alcohol",
        "email": "pivovichr@seznam.cz",
        "phone": "+420731498663",
        "website": "http://www.pivovichr.cz",
        "addr:postcode": "56944",
        "addr:housenumber": "23"
      }
    },
    {
      "type": "Feature",
      "geometry": {
        "type": "Point",
        "coordinates": [
          17.4791079,
          49.0578237
        ]
      },
      "properties": {
        "@type": "node",
        "@id": 7653631761,
        "@url": "https://www.openstreetmap.org/node/7653631761",
        "name": "Vinotéka Eva",
        "shop": "alcohol"
      }
    },
    {
      "type": "Feature",
      "geometry": {
        "type": "Point",
        "coordinates": [
          16.5375763,
          49.2978987
        ]
      },
      "properties": {
        "@type": "node",
        "@id": 7673849208,
        "@url": "https://www.openstreetmap.org/node/7673849208",
        "drink:beer": "yes",
        "name": "Vinotéka",
        "shop": "alcohol"
      }
    },
    {
      "type": "Feature",
      "geometry": {
        "type": "Point",
        "coordinates": [
          16.5474068,
          49.2975456
        ]
      },
      "properties": {
        "@type": "node",
        "@id": 7681294468,
        "@url": "https://www.openstreetmap.org/node/7681294468",
        "name": "Vinofol",
        "shop": "alcohol"
      }
    },
    {
      "type": "Feature",
      "geometry": {
        "type": "Point",
        "coordinates": [
          14.4056647,
          50.0721429
        ]
      },
      "properties": {
        "@type": "node",
        "@id": 7761506687,
        "@url": "https://www.openstreetmap.org/node/7761506687",
        "name": "Rumako",
        "shop": "alcohol",
        "website": "http://www.rumako.cz",
        "addr:street": "Lidická",
        "addr:postcode": "150 00",
        "addr:housenumber": "33"
      }
    },
    {
      "type": "Feature",
      "geometry": {
        "type": "Point",
        "coordinates": [
          14.2366965,
          50.8744706
        ]
      },
      "properties": {
        "@type": "node",
        "@id": 7840728792,
        "@url": "https://www.openstreetmap.org/node/7840728792",
        "name": "Danny Shop",
        "shop": "alcohol"
      }
    },
    {
      "type": "Feature",
      "geometry": {
        "type": "Point",
        "coordinates": [
          13.5195324,
          49.2303924
        ]
      },
      "properties": {
        "@type": "node",
        "@id": 7868100928,
        "@url": "https://www.openstreetmap.org/node/7868100928",
        "name": "Vinotéka Fialka",
        "shop": "alcohol"
      }
    },
    {
      "type": "Feature",
      "geometry": {
        "type": "Point",
        "coordinates": [
          16.7623786,
          49.1388072
        ]
      },
      "properties": {
        "@type": "node",
        "@id": 8010386726,
        "@url": "https://www.openstreetmap.org/node/8010386726",
        "name": "Pratecká pálenice",
        "opening_hours:signed": "no",
        "shop": "alcohol"
      }
    },
    {
      "type": "Feature",
      "geometry": {
        "type": "Point",
        "coordinates": [
          16.6776246,
          49.2507555
        ]
      },
      "properties": {
        "@type": "node",
        "@id": 8198602684,
        "@url": "https://www.openstreetmap.org/node/8198602684",
        "addr:city": "Bílovice nad Svitavou",
        "addr:country": "CZ",
        "addr:housenumber": "533",
        "addr:postcode": "66401",
        "addr:street": "Havlíčkova",
        "craft": "brewery",
        "drink:beer": "yes",
        "mobile": "+420 603 490 207",
        "name": "Havlíčkova továrna",
        "opening_hours": "Mo-Fr 08:00-16:30",
        "phone": "+420 603 490 207",
        "shop": "alcohol",
        "website": "https://www.havlickovatovarna.cz/"
      }
    },
    {
      "type": "Feature",
      "geometry": {
        "type": "Point",
        "coordinates": [
          16.6090678,
          49.1973247
        ]
      },
      "properties": {
        "@type": "node",
        "@id": 8360447836,
        "@url": "https://www.openstreetmap.org/node/8360447836",
        "addr:city": "Brno",
        "addr:housenumber": "2/22",
        "addr:postcode": "60200",
        "addr:street": "Běhounská",
        "name": "Vychutnavej.cz",
        "opening_hours": "Mo-Fr 10:00-18:00",
        "phone": "+420 731 220 995",
        "shop": "alcohol",
        "website": "https://www.vychutnavej.cz/",
        "wheelchair": "no"
      }
    },
    {
      "type": "Feature",
      "geometry": {
        "type": "Point",
        "coordinates": [
          16.6587769,
          49.2018839
        ]
      },
      "properties": {
        "@type": "node",
        "@id": 8676776966,
        "@url": "https://www.openstreetmap.org/node/8676776966",
        "name": "Vinotéka Skoupímto",
        "opening_hours": "Mo-Sa 12:00-20:00",
        "shop": "alcohol",
        "website": "http://www.skoupimto.cz/"
      }
    },
    {
      "type": "Feature",
      "geometry": {
        "type": "Point",
        "coordinates": [
          16.6208205,
          49.2285108
        ]
      },
      "properties": {
        "@type": "node",
        "@id": 8694267252,
        "@url": "https://www.openstreetmap.org/node/8694267252",
        "drink:beer": "yes",
        "level": "1",
        "opening_hours": "Mo-Fr 10:00-19:00;Sa 14:00-18:00;Su off",
        "shop": "alcohol"
      }
    },
    {
      "type": "Feature",
      "geometry": {
        "type": "Point",
        "coordinates": [
          14.4768208,
          50.1024821
        ]
      },
      "properties": {
        "@type": "node",
        "@id": 8708648316,
        "@url": "https://www.openstreetmap.org/node/8708648316",
        "addr:city": "Praha",
        "addr:housenumber": "1464/188",
        "addr:postcode": "18000",
        "addr:street": "Sokolovská",
        "name": "Beershop.cz",
        "opening_hours": "Mo-Fr 10:00-19:00, Sa 10:00-16:00",
        "phone": "+420 607 056 512",
        "shop": "alcohol",
        "website": "https://www.beershop.cz/"
      }
    },
    {
      "type": "Feature",
      "geometry": {
        "type": "Point",
        "coordinates": [
          16.6086781,
          49.1884521
        ]
      },
      "properties": {
        "@type": "node",
        "@id": 8778860706,
        "@url": "https://www.openstreetmap.org/node/8778860706",
        "name": "HYVECO Nové sady",
        "opening_hours": "Mo-Fr 10:00-18:00; Sa 10:00-14:00",
        "shop": "alcohol"
      }
    },
    {
      "type": "Feature",
      "geometry": {
        "type": "Point",
        "coordinates": [
          14.4855255,
          50.0711646
        ]
      },
      "properties": {
        "@type": "node",
        "@id": 8928207859,
        "@url": "https://www.openstreetmap.org/node/8928207859",
        "drive_through": "no",
        "email": "info@vycepnipivo.cz",
        "level": "0",
        "min_age": "18",
        "name": "Výčepní pivo",
        "opening_hours": "Mo-Su 15:00-22:00",
        "phone": "+420 774 455 997",
        "shop": "alcohol",
        "website": "https://vycepnipivo.cz/"
      }
    },
    {
      "type": "Feature",
      "geometry": {
        "type": "Point",
        "coordinates": [
          16.6171561,
          49.1988729
        ]
      },
      "properties": {
        "@type": "node",
        "@id": 9014363987,
        "@url": "https://www.openstreetmap.org/node/9014363987",
        "addr:housenumber": "918/22",
        "addr:street": "Bratislavská",
        "description": "Vinotéka rodinného vinařství Janásovi z Blatničky",
        "drink:wine": "bottled,served",
        "name": "Rodinné vinařství Janásovi",
        "opening_hours": "Mo-Fr 14:30-20:30",
        "phone": "+420607666677",
        "shop": "alcohol"
      }
    },
    {
      "type": "Feature",
      "geometry": {
        "type": "Point",
        "coordinates": [
          14.494687,
          50.120892
        ]
      },
      "properties": {
        "@type": "node",
        "@id": 9018622579,
        "@url": "https://www.openstreetmap.org/node/9018622579",
        "name": "Vinotéka U Květy",
        "shop": "alcohol"
      }
    },
    {
      "type": "Feature",
      "geometry": {
        "type": "Point",
        "coordinates": [
          17.4794687,
          49.0719911
        ]
      },
      "properties": {
        "@type": "node",
        "@id": 9057097204,
        "@url": "https://www.openstreetmap.org/node/9057097204",
        "email": "info@domaci-pivoteka.cz",
        "name": "Domácí Pivotéka",
        "opening_hours": "Mo-Fr 10:00-17:00",
        "operator": "Atama-trade, s.r.o.",
        "phone": "+420 735 757 650",
        "shop": "alcohol",
        "website": "https://www.domaci-pivoteka.cz/"
      }
    },
    {
      "type": "Feature",
      "geometry": {
        "type": "Point",
        "coordinates": [
          17.7352324,
          49.5486382
        ]
      },
      "properties": {
        "@type": "node",
        "@id": 9077672604,
        "@url": "https://www.openstreetmap.org/node/9077672604",
        "shop": "alcohol"
      }
    },
    {
      "type": "Feature",
      "geometry": {
        "type": "Point",
        "coordinates": [
          15.7049801,
          50.1715749
        ]
      },
      "properties": {
        "@type": "node",
        "@id": 9084256481,
        "@url": "https://www.openstreetmap.org/node/9084256481",
        "email": "ondra@pivnilednice.cz",
        "name": "Pivní lednice",
        "opening_hours": "Mo-We 17:00-20:00; Th-Su 12:00-20:00",
        "phone": "+420 723 550 247",
        "shop": "alcohol",
        "website": "https://pivnilednice.cz/"
      }
    },
    {
      "type": "Feature",
      "geometry": {
        "type": "Point",
        "coordinates": [
          14.1505337,
          49.3085075
        ]
      },
      "properties": {
        "@type": "node",
        "@id": 9104120779,
        "@url": "https://www.openstreetmap.org/node/9104120779",
        "name": "muJ Rum",
        "shop": "alcohol"
      }
    },
    {
      "type": "Feature",
      "geometry": {
        "type": "Point",
        "coordinates": [
          16.1619572,
          50.2946557
        ]
      },
      "properties": {
        "@type": "node",
        "@id": 9214737471,
        "@url": "https://www.openstreetmap.org/node/9214737471",
        "addr:housenumber": "267",
        "addr:postcode": "518 01",
        "addr:street": "Křovická",
        "drive_through": "no",
        "name": "Pivovarská prodejna",
        "opening_hours": "Mo-Fr 09:00-17:00; Sa 08:00-12:00",
        "payment:cash": "yes",
        "payment:coins": "yes",
        "payment:credit_cards": "yes",
        "payment:debit_cards": "yes",
        "payment:visa": "yes",
        "phone": "+420 494 661 905",
        "shop": "alcohol",
        "website": "https://www.pivovarrampusak.cz/"
      }
    },
    {
      "type": "Feature",
      "geometry": {
        "type": "Point",
        "coordinates": [
          14.4687103,
          50.0676776
        ]
      },
      "properties": {
        "@type": "node",
        "@id": 9229710403,
        "@url": "https://www.openstreetmap.org/node/9229710403",
        "drive_through": "no",
        "level": "0",
        "name": "Don Pealo",
        "shop": "alcohol"
      }
    },
    {
      "type": "Feature",
      "geometry": {
        "type": "Point",
        "coordinates": [
          16.6117773,
          49.2004182
        ]
      },
      "properties": {
        "@type": "node",
        "@id": 9241190326,
        "@url": "https://www.openstreetmap.org/node/9241190326",
        "drink:beer": "yes",
        "name": "Kyselá Rybka",
        "opening_hours": "Mo-Fr 13:00-20:00",
        "payment:maestro": "yes",
        "payment:mastercard": "yes",
        "payment:visa": "yes",
        "payment:visa_debit": "yes",
        "payment:visa_electron": "yes",
        "shop": "alcohol",
        "website": "https://www.facebook.com/kyselarybka/",
        "wheelchair": "yes"
      }
    },
    {
      "type": "Feature",
      "geometry": {
        "type": "Point",
        "coordinates": [
          16.6415087,
          49.392926
        ]
      },
      "properties": {
        "@type": "node",
        "@id": 9284262061,
        "@url": "https://www.openstreetmap.org/node/9284262061",
        "drink:beer": "yes",
        "drink:wine": "yes",
        "mobile": "+420 605 324 633",
        "opening_hours": "Mo-Fr 11:00-19:00; Sa,Su 10:00-19:00",
        "shop": "alcohol",
        "wheelchair": "no"
      }
    },
    {
      "type": "Feature",
      "geometry": {
        "type": "Point",
        "coordinates": [
          14.4597022,
          50.1173568
        ]
      },
      "properties": {
        "@type": "node",
        "@id": 9293399648,
        "@url": "https://www.openstreetmap.org/node/9293399648",
        "name": "Alko domů",
        "shop": "alcohol",
        "wheelchair": "no"
      }
    },
    {
      "type": "Feature",
      "geometry": {
        "type": "Point",
        "coordinates": [
          14.4431978,
          50.1260749
        ]
      },
      "properties": {
        "@type": "node",
        "@id": 9316250199,
        "@url": "https://www.openstreetmap.org/node/9316250199",
        "name": "Výčepní pivo",
        "shop": "alcohol"
      }
    },
    {
      "type": "Feature",
      "geometry": {
        "type": "Point",
        "coordinates": [
          16.883939,
          49.2046405
        ]
      },
      "properties": {
        "@type": "node",
        "@id": 9328340655,
        "@url": "https://www.openstreetmap.org/node/9328340655",
        "drink:beer": "yes",
        "name": "Pivní anděl",
        "phone": "+420 517 332 286",
        "shop": "alcohol",
        "website": "https://pivniandel.cz/prodejny/nabidka-piv/6-rousinov#"
      }
    },
    {
      "type": "Feature",
      "geometry": {
        "type": "Point",
        "coordinates": [
          17.6613044,
          49.025354
        ]
      },
      "properties": {
        "@type": "node",
        "@id": 9380302676,
        "@url": "https://www.openstreetmap.org/node/9380302676",
        "drink:beer": "yes",
        "mobile": "+420 739 210 173",
        "name": "U sládků",
        "opening_hours": "Mo,Tu 08:30-16:00; We-Fr 08:30-17:00; Sa 08:30-11:00",
        "payment:diners_club": "yes",
        "payment:jcb": "yes",
        "payment:maestro": "yes",
        "payment:mastercard": "yes",
        "payment:visa": "yes",
        "payment:visa_debit": "yes",
        "payment:visa_electron": "yes",
        "shop": "alcohol",
        "website": "http://www.usladku.eu/"
      }
    },
    {
      "type": "Feature",
      "geometry": {
        "type": "Point",
        "coordinates": [
          16.3824891,
          48.7308766
        ]
      },
      "properties": {
        "@type": "node",
        "@id": 9449475111,
        "@url": "https://www.openstreetmap.org/node/9449475111",
        "shop": "alcohol"
      }
    },
    {
      "type": "Feature",
      "geometry": {
        "type": "LineString",
        "coordinates": [
          [
            17.7522121,
            49.0170947
          ],
          [
            17.7519106,
            49.017195
          ],
          [
            17.7519466,
            49.017243
          ],
          [
            17.752165,
            49.0171725
          ],
          [
            17.7523447,
            49.0173517
          ],
          [
            17.7524888,
            49.0172878
          ],
          [
            17.7522783,
            49.0170701
          ],
          [
            17.7522121,
            49.0170947
          ]
        ]
      },
      "properties": {
        "@type": "way",
        "@id": 52046724,
        "@url": "https://www.openstreetmap.org/way/52046724",
        "name": "Likérka",
        "shop": "alcohol",
        "source": "cuzk:ruian",
        "building": "house",
        "building:flats": "1",
        "building:levels": "1",
        "ref:ruian:building": "4794443",
        "building:ruian:type": "7"
      }
    },
    {
      "type": "Feature",
      "geometry": {
        "type": "LineString",
        "coordinates": [
          [
            18.5076274,
            49.9016023
          ],
          [
            18.5076813,
            49.9014769
          ],
          [
            18.5078202,
            49.9014944
          ],
          [
            18.5078733,
            49.9015088
          ],
          [
            18.5078187,
            49.9016365
          ],
          [
            18.5076274,
            49.9016023
          ]
        ]
      },
      "properties": {
        "@type": "way",
        "@id": 93259731,
        "@url": "https://www.openstreetmap.org/way/93259731",
        "shop": "alcohol",
        "source": "uhul:ortofoto",
        "building": "yes"
      }
    },
    {
      "type": "Feature",
      "geometry": {
        "type": "LineString",
        "coordinates": [
          [
            18.2580656,
            49.7741969
          ],
          [
            18.2581215,
            49.7741926
          ],
          [
            18.2581221,
            49.7741959
          ],
          [
            18.2581668,
            49.7741925
          ],
          [
            18.2581661,
            49.7741893
          ],
          [
            18.2582934,
            49.7741797
          ],
          [
            18.2582869,
            49.7741433
          ],
          [
            18.258318,
            49.774141
          ],
          [
            18.2583048,
            49.7740676
          ],
          [
            18.2582737,
            49.77407
          ],
          [
            18.2582682,
            49.7740402
          ],
          [
            18.2580404,
            49.7740574
          ],
          [
            18.258045,
            49.7740821
          ],
          [
            18.2580551,
            49.7741386
          ],
          [
            18.2580656,
            49.7741969
          ]
        ]
      },
      "properties": {
        "@type": "way",
        "@id": 96764662,
        "@url": "https://www.openstreetmap.org/way/96764662",
        "shop": "alcohol",
        "source": "cuzk:ruian",
        "building": "yes",
        "opening_hours": "Mo-Fr 11:00-18:00",
        "addr:housename": "VinBox",
        "building:levels": "1",
        "ref:ruian:building": "3332594",
        "building:ruian:type": "19"
      }
    },
    {
      "type": "Feature",
      "geometry": {
        "type": "LineString",
        "coordinates": [
          [
            18.119503,
            49.5901425
          ],
          [
            18.1194475,
            49.5901937
          ],
          [
            18.1195743,
            49.5902451
          ],
          [
            18.1196252,
            49.5902008
          ],
          [
            18.119503,
            49.5901425
          ]
        ]
      },
      "properties": {
        "@type": "way",
        "@id": 123492996,
        "@url": "https://www.openstreetmap.org/way/123492996",
        "name": "Vinotéka Babulka",
        "shop": "alcohol",
        "source": "cuzk:ruian",
        "building": "house",
        "building:flats": "1",
        "building:levels": "1",
        "ref:ruian:building": "8269891",
        "building:ruian:type": "7"
      }
    },
    {
      "type": "Feature",
      "geometry": {
        "type": "LineString",
        "coordinates": [
          [
            14.4481929,
            50.2899016
          ],
          [
            14.448381,
            50.2898389
          ],
          [
            14.4483346,
            50.2897821
          ],
          [
            14.4481465,
            50.2898448
          ],
          [
            14.4481929,
            50.2899016
          ]
        ]
      },
      "properties": {
        "@type": "way",
        "@id": 215192176,
        "@url": "https://www.openstreetmap.org/way/215192176",
        "name": "Pěstitelská pálenice",
        "shop": "alcohol",
        "building": "yes"
      }
    },
    {
      "type": "Feature",
      "geometry": {
        "type": "LineString",
        "coordinates": [
          [
            17.1161722,
            48.8598428
          ],
          [
            17.1161338,
            48.8598304
          ],
          [
            17.1161409,
            48.8598208
          ],
          [
            17.1161109,
            48.859811
          ],
          [
            17.1160584,
            48.859877
          ],
          [
            17.1161799,
            48.8599166
          ],
          [
            17.116194,
            48.8599011
          ],
          [
            17.1161722,
            48.8598428
          ]
        ]
      },
      "properties": {
        "@type": "way",
        "@id": 350209753,
        "@url": "https://www.openstreetmap.org/way/350209753",
        "name": "Vinotéka Žerotín",
        "shop": "alcohol",
        "source": "cuzk:ruian",
        "building": "commercial",
        "wheelchair": "no",
        "ref:ruian:building": "27574041",
        "building:ruian:type": "10"
      }
    },
    {
      "type": "Feature",
      "geometry": {
        "type": "LineString",
        "coordinates": [
          [
            14.4606488,
            50.0793241
          ],
          [
            14.4608724,
            50.0793491
          ],
          [
            14.4608873,
            50.0792939
          ],
          [
            14.4607852,
            50.0792825
          ],
          [
            14.4607794,
            50.0793014
          ],
          [
            14.4606585,
            50.0792876
          ],
          [
            14.4606488,
            50.0793241
          ]
        ]
      },
      "properties": {
        "@type": "way",
        "@id": 486402753,
        "@url": "https://www.openstreetmap.org/way/486402753",
        "name": "Wine store",
        "shop": "alcohol",
        "email": "winestoreflora@gmail.com",
        "level": "1",
        "phone": "+420 731 803 379",
        "indoor": "room",
        "addr:unit": "120",
        "opening_hours": "Mo-Sa 09:00-21:00; Su 10:00-21:00"
      }
    },
    {
      "type": "Feature",
      "geometry": {
        "type": "LineString",
        "coordinates": [
          [
            14.402317,
            50.0727324
          ],
          [
            14.4023327,
            50.0726455
          ],
          [
            14.4024587,
            50.0726548
          ],
          [
            14.402443,
            50.0727418
          ],
          [
            14.402317,
            50.0727324
          ]
        ]
      },
      "properties": {
        "@type": "way",
        "@id": 651254372,
        "@url": "https://www.openstreetmap.org/way/651254372",
        "name": "Obchod domácí vinotéka stávek",
        "room": "shop",
        "shop": "alcohol",
        "level": "-1",
        "indoor": "room"
      }
    },
    {
      "type": "Feature",
      "geometry": {
        "type": "MultiPolygon",
        "coordinates": [
          [
            [
              [
                17.7519106,
                49.017195
              ],
              [
                17.7522121,
                49.0170947
              ],
              [
                17.7522783,
                49.0170701
              ],
              [
                17.7524888,
                49.0172878
              ],
              [
                17.7523447,
                49.0173517
              ],
              [
                17.752165,
                49.0171725
              ],
              [
                17.7519466,
                49.017243
              ],
              [
                17.7519106,
                49.017195
              ]
            ]
          ]
        ]
      },
      "properties": {
        "@type": "way",
        "@id": 52046724,
        "@url": "https://www.openstreetmap.org/way/52046724",
        "name": "Likérka",
        "shop": "alcohol",
        "source": "cuzk:ruian",
        "building": "house",
        "building:flats": "1",
        "building:levels": "1",
        "ref:ruian:building": "4794443",
        "building:ruian:type": "7"
      }
    },
    {
      "type": "Feature",
      "geometry": {
        "type": "MultiPolygon",
        "coordinates": [
          [
            [
              [
                18.5076274,
                49.9016023
              ],
              [
                18.5076813,
                49.9014769
              ],
              [
                18.5078202,
                49.9014944
              ],
              [
                18.5078733,
                49.9015088
              ],
              [
                18.5078187,
                49.9016365
              ],
              [
                18.5076274,
                49.9016023
              ]
            ]
          ]
        ]
      },
      "properties": {
        "@type": "way",
        "@id": 93259731,
        "@url": "https://www.openstreetmap.org/way/93259731",
        "shop": "alcohol",
        "source": "uhul:ortofoto",
        "building": "yes"
      }
    },
    {
      "type": "Feature",
      "geometry": {
        "type": "MultiPolygon",
        "coordinates": [
          [
            [
              [
                18.2580404,
                49.7740574
              ],
              [
                18.2582682,
                49.7740402
              ],
              [
                18.2582737,
                49.77407
              ],
              [
                18.2583048,
                49.7740676
              ],
              [
                18.258318,
                49.774141
              ],
              [
                18.2582869,
                49.7741433
              ],
              [
                18.2582934,
                49.7741797
              ],
              [
                18.2581661,
                49.7741893
              ],
              [
                18.2581668,
                49.7741925
              ],
              [
                18.2581221,
                49.7741959
              ],
              [
                18.2581215,
                49.7741926
              ],
              [
                18.2580656,
                49.7741969
              ],
              [
                18.2580551,
                49.7741386
              ],
              [
                18.258045,
                49.7740821
              ],
              [
                18.2580404,
                49.7740574
              ]
            ]
          ]
        ]
      },
      "properties": {
        "@type": "way",
        "@id": 96764662,
        "@url": "https://www.openstreetmap.org/way/96764662",
        "shop": "alcohol",
        "source": "cuzk:ruian",
        "building": "yes",
        "opening_hours": "Mo-Fr 11:00-18:00",
        "addr:housename": "VinBox",
        "building:levels": "1",
        "ref:ruian:building": "3332594",
        "building:ruian:type": "19"
      }
    },
    {
      "type": "Feature",
      "geometry": {
        "type": "MultiPolygon",
        "coordinates": [
          [
            [
              [
                18.1194475,
                49.5901937
              ],
              [
                18.119503,
                49.5901425
              ],
              [
                18.1196252,
                49.5902008
              ],
              [
                18.1195743,
                49.5902451
              ],
              [
                18.1194475,
                49.5901937
              ]
            ]
          ]
        ]
      },
      "properties": {
        "@type": "way",
        "@id": 123492996,
        "@url": "https://www.openstreetmap.org/way/123492996",
        "name": "Vinotéka Babulka",
        "shop": "alcohol",
        "source": "cuzk:ruian",
        "building": "house",
        "building:flats": "1",
        "building:levels": "1",
        "ref:ruian:building": "8269891",
        "building:ruian:type": "7"
      }
    },
    {
      "type": "Feature",
      "geometry": {
        "type": "MultiPolygon",
        "coordinates": [
          [
            [
              [
                14.4481465,
                50.2898448
              ],
              [
                14.4483346,
                50.2897821
              ],
              [
                14.448381,
                50.2898389
              ],
              [
                14.4481929,
                50.2899016
              ],
              [
                14.4481465,
                50.2898448
              ]
            ]
          ]
        ]
      },
      "properties": {
        "@type": "way",
        "@id": 215192176,
        "@url": "https://www.openstreetmap.org/way/215192176",
        "name": "Pěstitelská pálenice",
        "shop": "alcohol",
        "building": "yes"
      }
    },
    {
      "type": "Feature",
      "geometry": {
        "type": "MultiPolygon",
        "coordinates": [
          [
            [
              [
                17.1160584,
                48.859877
              ],
              [
                17.1161109,
                48.859811
              ],
              [
                17.1161409,
                48.8598208
              ],
              [
                17.1161338,
                48.8598304
              ],
              [
                17.1161722,
                48.8598428
              ],
              [
                17.116194,
                48.8599011
              ],
              [
                17.1161799,
                48.8599166
              ],
              [
                17.1160584,
                48.859877
              ]
            ]
          ]
        ]
      },
      "properties": {
        "@type": "way",
        "@id": 350209753,
        "@url": "https://www.openstreetmap.org/way/350209753",
        "name": "Vinotéka Žerotín",
        "shop": "alcohol",
        "source": "cuzk:ruian",
        "building": "commercial",
        "wheelchair": "no",
        "ref:ruian:building": "27574041",
        "building:ruian:type": "10"
      }
    },
    {
      "type": "Feature",
      "geometry": {
        "type": "MultiPolygon",
        "coordinates": [
          [
            [
              [
                14.4606488,
                50.0793241
              ],
              [
                14.4606585,
                50.0792876
              ],
              [
                14.4607794,
                50.0793014
              ],
              [
                14.4607852,
                50.0792825
              ],
              [
                14.4608873,
                50.0792939
              ],
              [
                14.4608724,
                50.0793491
              ],
              [
                14.4606488,
                50.0793241
              ]
            ]
          ]
        ]
      },
      "properties": {
        "@type": "way",
        "@id": 486402753,
        "@url": "https://www.openstreetmap.org/way/486402753",
        "name": "Wine store",
        "shop": "alcohol",
        "email": "winestoreflora@gmail.com",
        "level": "1",
        "phone": "+420 731 803 379",
        "indoor": "room",
        "addr:unit": "120",
        "opening_hours": "Mo-Sa 09:00-21:00; Su 10:00-21:00"
      }
    },
    {
      "type": "Feature",
      "geometry": {
        "type": "MultiPolygon",
        "coordinates": [
          [
            [
              [
                14.402317,
                50.0727324
              ],
              [
                14.4023327,
                50.0726455
              ],
              [
                14.4024587,
                50.0726548
              ],
              [
                14.402443,
                50.0727418
              ],
              [
                14.402317,
                50.0727324
              ]
            ]
          ]
        ]
      },
      "properties": {
        "@type": "way",
        "@id": 651254372,
        "@url": "https://www.openstreetmap.org/way/651254372",
        "name": "Obchod domácí vinotéka stávek",
        "room": "shop",
        "shop": "alcohol",
        "level": "-1",
        "indoor": "room"
      }
    }
  ]
}
