{
  "type": "FeatureCollection",
  "features": [
    {
      "type": "Feature",
      "geometry": {
        "type": "Point",
        "coordinates": [
          14.9482476,
          50.5256838
        ]
      },
      "properties": {
        "@type": "node",
        "@id": 2392717680,
        "name": "Pivovar Klášter",
        "shop": "alcohol",
        "drink:beer": "yes"
      }
    },
    {
      "type": "Feature",
      "geometry": {
        "type": "Point",
        "coordinates": [
          16.605873,
          49.1963605
        ]
      },
      "properties": {
        "@type": "node",
        "@id": 2770900544,
        "addr:housenumber": "19",
        "addr:postcode": "60200",
        "addr:street": "Česká",
        "drink:beer": "yes",
        "email": "ceska@pivoteka.eu",
        "name": "Pivotéka U Modrého lva",
        "opening_hours": "Mo-Fr 09:00-19:00; Sa 09:00-16:00",
        "payment:american_express": "yes",
        "payment:diners_club": "yes",
        "payment:discover_card": "yes",
        "payment:maestro": "yes",
        "payment:mastercard": "yes",
        "payment:visa": "yes",
        "payment:visa_debit": "yes",
        "payment:visa_electron": "yes",
        "phone": "+420725087144",
        "shop": "alcohol",
        "website": "http://pivoteka.eu/clanky.php?id_clanku=7",
        "wheelchair": "yes"
      }
    },
    {
      "type": "Feature",
      "geometry": {
        "type": "Point",
        "coordinates": [
          17.2019096,
          50.2289516
        ]
      },
      "properties": {
        "@type": "node",
        "@id": 2993835171,
        "contact:email": "jesenik@pivoteka-u-krizu.cz",
        "contact:facebook": "https://www.facebook.com/pivotekajesenik",
        "contact:phone": "+420 606 423 328",
        "contact:website": "http://pivoteka-u-krizu.cz",
        "drink:beer": "yes",
        "name": "Pivotéka U Křížů",
        "opening_hours": "Mo-Fr 11:00-17:30;Sa 09:00-12:00",
        "payment:cash": "yes",
        "payment:maestro": "yes",
        "payment:mastercard": "yes",
        "payment:visa": "yes",
        "payment:visa_debit": "yes",
        "payment:visa_electron": "yes",
        "shop": "alcohol",
        "wheelchair": "no"
      }
    },
    {
      "type": "Feature",
      "geometry": {
        "type": "Point",
        "coordinates": [
          14.9762548,
          50.5184306
        ]
      },
      "properties": {
        "@type": "node",
        "@id": 3155117978,
        "name": "Fedrinx",
        "shop": "alcohol",
        "drink:beer": "yes",
        "opening_hours": "Mo-Fr 08:00-17:00; Sa 08:00-12:00"
      }
    },
    {
      "type": "Feature",
      "geometry": {
        "type": "Point",
        "coordinates": [
          14.4228703,
          50.0775388
        ]
      },
      "properties": {
        "@type": "node",
        "@id": 3166218274,
        "drink:beer": "yes",
        "name": "SPA BEER LAND",
        "shop": "alcohol"
      }
    },
    {
      "type": "Feature",
      "geometry": {
        "type": "Point",
        "coordinates": [
          14.6427586,
          50.0631294
        ]
      },
      "properties": {
        "@type": "node",
        "@id": 3468140934,
        "shop": "alcohol",
        "amenity": "bar",
        "smoking": "outside",
        "drink:beer": "yes",
        "drink:wine": "yes"
      }
    },
    {
      "type": "Feature",
      "geometry": {
        "type": "Point",
        "coordinates": [
          16.5985295,
          49.2018397
        ]
      },
      "properties": {
        "@type": "node",
        "@id": 4180626914,
        "name": "Vinotéka Pivotéka Delikatesy",
        "shop": "alcohol",
        "email": "klasterni@post.cz",
        "phone": "+420 607 766 262",
        "website": "http://www.veveri41.cz/",
        "drink:beer": "yes",
        "drink:wine": "yes",
        "wheelchair": "no",
        "payment:visa": "yes",
        "opening_hours": "Mo-Su 14:00-22:00",
        "payment:maestro": "yes",
        "payment:mastercard": "yes",
        "payment:visa_debit": "yes",
        "payment:visa_electron": "yes"
      }
    },
    {
      "type": "Feature",
      "geometry": {
        "type": "Point",
        "coordinates": [
          17.4657712,
          49.0680336
        ]
      },
      "properties": {
        "@type": "node",
        "@id": 5313521417,
        "addr:city": "Uherské Hradiště",
        "drink:beer": "yes",
        "name": "Pivotéka BARAN",
        "shop": "alcohol",
        "website": "http://www.pivobaran.cz/"
      }
    },
    {
      "type": "Feature",
      "geometry": {
        "type": "Point",
        "coordinates": [
          17.7361322,
          49.5501363
        ]
      },
      "properties": {
        "@type": "node",
        "@id": 5740966739,
        "name": "Pivotéka|Vinotéka",
        "shop": "alcohol",
        "website": "http://pivoteka-hranice.cz/",
        "addr:city": "Hranice",
        "drink:beer": "yes",
        "drink:wine": "yes",
        "addr:street": "Komenského",
        "addr:postcode": "75301",
        "addr:housenumber": "380"
      }
    },
    {
      "type": "Feature",
      "geometry": {
        "type": "Point",
        "coordinates": [
          18.4341911,
          49.7775469
        ]
      },
      "properties": {
        "@type": "node",
        "@id": 6447119311,
        "addr:city": "Havířov",
        "addr:country": "CZ",
        "addr:housenumber": "519/14",
        "addr:postcode": "73601",
        "addr:street": "Národní třída",
        "check_date:opening_hours": "2021-11-09",
        "drink:beer": "yes",
        "drink:liquor": "yes",
        "drink:wine": "yes",
        "drive_through": "no",
        "name": "Alkotéka Havířov",
        "opening_hours": "Mo-Fr 08:00-18:00; Sa 08:00-17:00",
        "operator": "Premium alko s.r.o.",
        "payment:cash": "yes",
        "payment:mastercard": "yes",
        "payment:visa": "yes",
        "phone": "+420 778 451 857",
        "shop": "alcohol",
        "website": "https://www.facebook.com/Alkot%C3%A9ka-Hav%C3%AD%C5%99ov-1888759508018624/"
      }
    },
    {
      "type": "Feature",
      "geometry": {
        "type": "Point",
        "coordinates": [
          16.6208205,
          49.2285108
        ]
      },
      "properties": {
        "@type": "node",
        "@id": 8694267252,
        "drink:beer": "yes",
        "level": "1",
        "opening_hours": "Mo-Fr 10:00-19:00;Sa 14:00-18:00;Su off",
        "shop": "alcohol"
      }
    },
    {
      "type": "Feature",
      "geometry": {
        "type": "Point",
        "coordinates": [
          16.6117773,
          49.2004182
        ]
      },
      "properties": {
        "@type": "node",
        "@id": 9241190326,
        "drink:beer": "yes",
        "name": "Kyselá Rybka",
        "opening_hours": "Mo-Fr 13:00-20:00",
        "payment:maestro": "yes",
        "payment:mastercard": "yes",
        "payment:visa": "yes",
        "payment:visa_debit": "yes",
        "payment:visa_electron": "yes",
        "shop": "alcohol",
        "website": "https://www.facebook.com/kyselarybka/",
        "wheelchair": "yes"
      }
    }
  ]
}
