{
  "type": "FeatureCollection",
  "features": [
    {
      "type": "Feature",
      "geometry": {
        "type": "Point",
        "coordinates": [
          14.436627,
          50.0998984
        ]
      },
      "properties": {
        "@type": "node",
        "@id": 296811331,
        "@url": "https://www.openstreetmap.org/node/296811331",
        "addr:city": "Praha 7",
        "addr:conscriptionnumber": "436",
        "addr:housenumber": "436/3",
        "addr:place": "Holešovice",
        "addr:postcode": "17000",
        "addr:street": "Pplk. Sochora",
        "addr:streetnumber": "3",
        "check_date": "2025-02-14",
        "currency:CZK": "yes",
        "currency:EUR": "yes",
        "currency:GBP": "yes",
        "currency:USD": "yes",
        "currency:XBT": "no",
        "description": "M0ST je maloobchodní kamenná prodejna na Praze 7, která se zaměřuje na vyhledávání, dovoz a prodej výrobků prémiové kvality, klademe důraz na osobní přístup a k našim zákazníkum rádi přistupujeme individuálně.",
        "email": "info@m0st.cz",
        "internet_access": "wlan",
        "level": "0",
        "name": "M0ST nápoje - beverages",
        "opening_hours": "Mo-Su 15:00-23:00",
        "operator": "Pavel Vojta",
        "payment:american_express": "yes",
        "payment:cards": "yes",
        "payment:cash": "yes",
        "payment:coins": "yes",
        "payment:contactless": "yes",
        "payment:cryptocurrencies": "yes",
        "payment:debit_cards": "yes",
        "payment:lightning": "no",
        "payment:lightning_contactless": "no",
        "payment:onchain": "no",
        "payment:visa": "yes",
        "phone": "+420775041561",
        "ref:ruian:addr": "22299297",
        "shop": "beverages",
        "start_date": "12.12.2018",
        "website": "https://www.m0st.cz/",
        "wheelchair": "limited"
      }
    },
    {
      "type": "Feature",
      "geometry": {
        "type": "Point",
        "coordinates": [
          12.7833599,
          50.3656739
        ]
      },
      "properties": {
        "@type": "node",
        "@id": 365022699,
        "@url": "https://www.openstreetmap.org/node/365022699",
        "name": "Kramek",
        "shop": "beverages"
      }
    },
    {
      "type": "Feature",
      "geometry": {
        "type": "Point",
        "coordinates": [
          16.5045333,
          49.1536637
        ]
      },
      "properties": {
        "@type": "node",
        "@id": 459981870,
        "@url": "https://www.openstreetmap.org/node/459981870",
        "check_date:opening_hours": "2023-07-09",
        "drink:beer": "yes",
        "mobile": "+420 775 958 738",
        "name": "Pivní sklep JASO",
        "opening_hours": "Mo-Fr 08:00-19:00; Sa 08:00-18:30",
        "payment:american_express": "yes",
        "payment:diners_club": "yes",
        "payment:discover_card": "yes",
        "payment:jcb": "yes",
        "payment:maestro": "yes",
        "payment:mastercard": "yes",
        "payment:visa": "yes",
        "payment:visa_debit": "yes",
        "payment:visa_electron": "yes",
        "shop": "beverages",
        "source": "survey"
      }
    },
    {
      "type": "Feature",
      "geometry": {
        "type": "Point",
        "coordinates": [
          13.6374696,
          50.5137505
        ]
      },
      "properties": {
        "@type": "node",
        "@id": 652080122,
        "@url": "https://www.openstreetmap.org/node/652080122",
        "name": "Nápoje Trunečková",
        "shop": "beverages"
      }
    },
    {
      "type": "Feature",
      "geometry": {
        "type": "Point",
        "coordinates": [
          13.637869,
          50.5144322
        ]
      },
      "properties": {
        "@type": "node",
        "@id": 652080197,
        "@url": "https://www.openstreetmap.org/node/652080197",
        "shop": "beverages"
      }
    },
    {
      "type": "Feature",
      "geometry": {
        "type": "Point",
        "coordinates": [
          15.8196836,
          50.6586135
        ]
      },
      "properties": {
        "@type": "node",
        "@id": 656461768,
        "@url": "https://www.openstreetmap.org/node/656461768",
        "addr:conscriptionnumber": "87",
        "addr:country": "CZ",
        "addr:housenumber": "91",
        "addr:place": "Horní Maršov",
        "addr:postcode": "54226",
        "addr:street": "Třída Josefa II.",
        "name": "Nápoje Maxa",
        "opening_hours": "Mo-Fr 08:00-12:00, 13:00-16:00; Sa 08:00-11:00; PH off",
        "operator": "Milan Maxa",
        "phone": "+420 777 616 942",
        "ref:ruian:addr": "2332744",
        "shop": "beverages",
        "website": "http://www.pivo-maxa.tode.cz"
      }
    },
    {
      "type": "Feature",
      "geometry": {
        "type": "Point",
        "coordinates": [
          17.2618461,
          49.5659658
        ]
      },
      "properties": {
        "@type": "node",
        "@id": 912124422,
        "@url": "https://www.openstreetmap.org/node/912124422",
        "drink:beer": "yes",
        "name": "Pivotéka.cz",
        "opening_hours": "Mo-Th 11:00-18:00, Fr 09:00-18:00, Sa 09:00-12:00",
        "shop": "beverages",
        "url": "http://www.pivoteka.cz",
        "wheelchair": "no"
      }
    },
    {
      "type": "Feature",
      "geometry": {
        "type": "Point",
        "coordinates": [
          14.3968492,
          50.1025179
        ]
      },
      "properties": {
        "@type": "node",
        "@id": 1425646284,
        "@url": "https://www.openstreetmap.org/node/1425646284",
        "addr:housenumber": "789/49",
        "addr:postcode": "16000",
        "addr:street": "Národní obrany",
        "drink:beer": "yes",
        "mobile": "+420 735 113 736",
        "name": "Nápoje Bubeneč",
        "name:en": "Drinks Bubeneč",
        "opening_hours": "Mo-Fr 09:30-21:00; Sa 09:30-20:00; Su 14:00-20:00",
        "shop": "beverages",
        "website": "https://www.facebook.com/napojebubenec"
      }
    },
    {
      "type": "Feature",
      "geometry": {
        "type": "Point",
        "coordinates": [
          16.9302546,
          50.0730649
        ]
      },
      "properties": {
        "@type": "node",
        "@id": 1481433551,
        "@url": "https://www.openstreetmap.org/node/1481433551",
        "addr:city": "Hanušovice",
        "addr:housenumber": "255",
        "addr:postcode": "78833",
        "addr:street": "Školní",
        "name": "Hanušovice Pivovar",
        "opening_hours": "Mo-Fr 09:00-11:00,12:00-17:30; Sa,Su 09:00-13:00",
        "operator": "Pivovar HOLBA, a.s.",
        "shop": "beverages"
      }
    },
    {
      "type": "Feature",
      "geometry": {
        "type": "Point",
        "coordinates": [
          12.5550811,
          50.1848199
        ]
      },
      "properties": {
        "@type": "node",
        "@id": 1485969515,
        "@url": "https://www.openstreetmap.org/node/1485969515",
        "shop": "beverages"
      }
    },
    {
      "type": "Feature",
      "geometry": {
        "type": "Point",
        "coordinates": [
          12.9547251,
          50.3094085
        ]
      },
      "properties": {
        "@type": "node",
        "@id": 1832614028,
        "@url": "https://www.openstreetmap.org/node/1832614028",
        "addr:city": "Ostrov",
        "addr:postcode": "36301",
        "name": "Večerka",
        "shop": "beverages"
      }
    },
    {
      "type": "Feature",
      "geometry": {
        "type": "Point",
        "coordinates": [
          14.0045825,
          49.6795549
        ]
      },
      "properties": {
        "@type": "node",
        "@id": 2121967627,
        "@url": "https://www.openstreetmap.org/node/2121967627",
        "name": "LekoMarket",
        "shop": "beverages"
      }
    },
    {
      "type": "Feature",
      "geometry": {
        "type": "Point",
        "coordinates": [
          17.1201851,
          49.660432
        ]
      },
      "properties": {
        "@type": "node",
        "@id": 2151798730,
        "@url": "https://www.openstreetmap.org/node/2151798730",
        "name": "Moštárna Mezice",
        "shop": "beverages",
        "website": "https://www.mostarnamezice.cz/"
      }
    },
    {
      "type": "Feature",
      "geometry": {
        "type": "Point",
        "coordinates": [
          16.593395,
          49.2575309
        ]
      },
      "properties": {
        "@type": "node",
        "@id": 2196480497,
        "@url": "https://www.openstreetmap.org/node/2196480497",
        "shop": "beverages"
      }
    },
    {
      "type": "Feature",
      "geometry": {
        "type": "Point",
        "coordinates": [
          14.455821,
          50.0684357
        ]
      },
      "properties": {
        "@type": "node",
        "@id": 2217367131,
        "@url": "https://www.openstreetmap.org/node/2217367131",
        "name": "vinný šenk U soudečku",
        "shop": "beverages",
        "source": "survey"
      }
    },
    {
      "type": "Feature",
      "geometry": {
        "type": "Point",
        "coordinates": [
          14.4566989,
          50.0696816
        ]
      },
      "properties": {
        "@type": "node",
        "@id": 2260242220,
        "@url": "https://www.openstreetmap.org/node/2260242220",
        "shop": "beverages",
        "source": "survey"
      }
    },
    {
      "type": "Feature",
      "geometry": {
        "type": "Point",
        "coordinates": [
          13.9005533,
          50.15181
        ]
      },
      "properties": {
        "@type": "node",
        "@id": 2322812108,
        "@url": "https://www.openstreetmap.org/node/2322812108",
        "description": "Víc než 200 druhů piv. Piva z malých pivovarů",
        "drink:beer": "yes",
        "name": "Pivárium",
        "shop": "beverages"
      }
    },
    {
      "type": "Feature",
      "geometry": {
        "type": "Point",
        "coordinates": [
          17.39665,
          50.2630583
        ]
      },
      "properties": {
        "@type": "node",
        "@id": 2357638989,
        "@url": "https://www.openstreetmap.org/node/2357638989",
        "addr:city": "Zlaté Hory",
        "addr:housenumber": "20",
        "addr:postcode": "79376",
        "addr:street": "nám. Svobody",
        "name": "Prodejna nápojů",
        "shop": "beverages"
      }
    },
    {
      "type": "Feature",
      "geometry": {
        "type": "Point",
        "coordinates": [
          15.147343,
          50.6109632
        ]
      },
      "properties": {
        "@type": "node",
        "@id": 2391514765,
        "@url": "https://www.openstreetmap.org/node/2391514765",
        "addr:city": "Turnov",
        "addr:housenumber": "29",
        "addr:postcode": "51101",
        "addr:street": "Malý Rohozec",
        "drink:beer": "yes",
        "name": "Expedice Pivovar Rohozec a.s.",
        "opening_hours": "Mo-Fr 06:30-15:00",
        "operator": "Pivovar Rohozec a.s.",
        "payment:cards": "yes",
        "payment:cash": "yes",
        "payment:contactless": "yes",
        "payment:debit_cards": "yes",
        "payment:mastercard": "yes",
        "payment:visa": "yes",
        "phone": "+420 481 323 166",
        "shop": "beverages",
        "website": "https://www.pivorohozec.cz/"
      }
    },
    {
      "type": "Feature",
      "geometry": {
        "type": "Point",
        "coordinates": [
          14.4480806,
          50.0793946
        ]
      },
      "properties": {
        "@type": "node",
        "@id": 2408146787,
        "@url": "https://www.openstreetmap.org/node/2408146787",
        "check_date": "2024-02-21",
        "drink:beer": "yes",
        "name": "BeerGeek Pivotéka",
        "opening_hours": "Mo-Fr 13:00-21:00; Sa 11:00-21:00; Su 15:00-20:00",
        "shop": "beverages",
        "wheelchair": "no"
      }
    },
    {
      "type": "Feature",
      "geometry": {
        "type": "Point",
        "coordinates": [
          13.9972718,
          49.6790102
        ]
      },
      "properties": {
        "@type": "node",
        "@id": 2768000119,
        "@url": "https://www.openstreetmap.org/node/2768000119",
        "name": "vinotéka Bobule",
        "shop": "beverages"
      }
    },
    {
      "type": "Feature",
      "geometry": {
        "type": "Point",
        "coordinates": [
          16.594474,
          49.2284268
        ]
      },
      "properties": {
        "@type": "node",
        "@id": 2777105906,
        "@url": "https://www.openstreetmap.org/node/2777105906",
        "addr:housenumber": "3006/6",
        "addr:postcode": "61200",
        "addr:street": "Kosmova",
        "check_date:opening_hours": "2024-04-27",
        "email": "vino@vinotekauromana.cz",
        "name": "Vinotéka u Romana",
        "opening_hours": "Mo-Sa 10:00-20:00; Su 14:00-20:00",
        "payment:credit_cards": "yes",
        "payment:debit_cards": "yes",
        "phone": "+420736488281",
        "shop": "beverages",
        "website": "https://www.vinotekauromana.cz/",
        "wheelchair": "limited"
      }
    },
    {
      "type": "Feature",
      "geometry": {
        "type": "Point",
        "coordinates": [
          15.5071769,
          50.610695
        ]
      },
      "properties": {
        "@type": "node",
        "@id": 2864299760,
        "@url": "https://www.openstreetmap.org/node/2864299760",
        "addr:city": "Jilemnice",
        "addr:housenumber": "291",
        "addr:postcode": "51401",
        "addr:street": "Dolení",
        "name": "Vinotéka Agáve",
        "opening_hours": "Mo-Th 09:00-12:00,13:00-18:00; Fr 09:00-12:00,13:00-20:00; Sa 09:00-12:00",
        "phone": "+420 724 264 980",
        "shop": "beverages",
        "website": "http://vinoteka-jilemnice.cz"
      }
    },
    {
      "type": "Feature",
      "geometry": {
        "type": "Point",
        "coordinates": [
          18.2847404,
          49.8308445
        ]
      },
      "properties": {
        "@type": "node",
        "@id": 3049366321,
        "@url": "https://www.openstreetmap.org/node/3049366321",
        "amenity": "fast_food",
        "brand": "UGO",
        "brand:wikidata": "Q108126892",
        "contact:email": "karolina@ugo.cz",
        "contact:website": "http://www.ugo.cz/",
        "cuisine": "juice",
        "level": "1",
        "name": "UGO",
        "opening_hours": "09:00-21:00",
        "shop": "beverages",
        "takeaway": "yes"
      }
    },
    {
      "type": "Feature",
      "geometry": {
        "type": "Point",
        "coordinates": [
          14.3104157,
          50.2413975
        ]
      },
      "properties": {
        "@type": "node",
        "@id": 3248100666,
        "@url": "https://www.openstreetmap.org/node/3248100666",
        "description": "100% PŘÍRODNÍ MOŠTY Z ČERSTVÉHO OVOCE",
        "email": "info@mostarna-kralupy.cz",
        "name": "Moštárna Kralupy",
        "opening_hours": "Mo-Fr 09:00-17:00",
        "phone": "+420 702 102 999",
        "ref:vatin": "CZ6904200897",
        "shop": "beverages",
        "website": "https://mostarna-kralupy.cz/"
      }
    },
    {
      "type": "Feature",
      "geometry": {
        "type": "Point",
        "coordinates": [
          13.8876946,
          49.8334849
        ]
      },
      "properties": {
        "@type": "node",
        "@id": 3908840459,
        "@url": "https://www.openstreetmap.org/node/3908840459",
        "name": "FA, ZEKI",
        "opening_hours": "Mo-Sa 08:00-20:00; Su 10:00-20:00",
        "phone": "+420 602 308 630",
        "shop": "beverages",
        "website": "http://napoje-zeki.cz",
        "wheelchair": "yes"
      }
    },
    {
      "type": "Feature",
      "geometry": {
        "type": "Point",
        "coordinates": [
          18.3581456,
          49.5934846
        ]
      },
      "properties": {
        "@type": "node",
        "@id": 3966804648,
        "@url": "https://www.openstreetmap.org/node/3966804648",
        "name": "Gurmet",
        "shop": "beverages"
      }
    },
    {
      "type": "Feature",
      "geometry": {
        "type": "Point",
        "coordinates": [
          14.493086,
          50.028674
        ]
      },
      "properties": {
        "@type": "node",
        "@id": 4059996456,
        "@url": "https://www.openstreetmap.org/node/4059996456",
        "email": "info@fruitisimo.cz",
        "name": "Fruitisimo",
        "phone": "+420 774 300 330",
        "shop": "beverages",
        "website": "https://www.fruitisimo.cz/"
      }
    },
    {
      "type": "Feature",
      "geometry": {
        "type": "Point",
        "coordinates": [
          17.8032208,
          49.6503976
        ]
      },
      "properties": {
        "@type": "node",
        "@id": 4198741389,
        "@url": "https://www.openstreetmap.org/node/4198741389",
        "name": "aa",
        "shop": "beverages"
      }
    },
    {
      "type": "Feature",
      "geometry": {
        "type": "Point",
        "coordinates": [
          16.5294309,
          49.224138
        ]
      },
      "properties": {
        "@type": "node",
        "@id": 4209756058,
        "@url": "https://www.openstreetmap.org/node/4209756058",
        "drink:beer": "yes",
        "name": "PIVO & BEER",
        "opening_hours": "Mo-Fr 11:00-18:00,Sa 09:00-13:00",
        "payment:diners_club": "yes",
        "payment:maestro": "yes",
        "payment:mastercard": "yes",
        "payment:visa": "yes",
        "payment:visa_debit": "yes",
        "payment:visa_electron": "yes",
        "shop": "beverages",
        "website": "https://www.pivoabeer.cz/"
      }
    },
    {
      "type": "Feature",
      "geometry": {
        "type": "Point",
        "coordinates": [
          15.3558131,
          50.4379017
        ]
      },
      "properties": {
        "@type": "node",
        "@id": 4292813791,
        "@url": "https://www.openstreetmap.org/node/4292813791",
        "addr:housenumber": "37",
        "addr:postcode": "50601",
        "addr:street": "Havlíčkova",
        "email": "info@napojkajicin.cz",
        "name": "Nápojka",
        "phone": "+420604230949",
        "shop": "beverages",
        "website": "https://www.napojkajicin.cz/"
      }
    },
    {
      "type": "Feature",
      "geometry": {
        "type": "Point",
        "coordinates": [
          15.0542348,
          50.5736099
        ]
      },
      "properties": {
        "@type": "node",
        "@id": 4316080907,
        "@url": "https://www.openstreetmap.org/node/4316080907",
        "contact:website": "https://www.pivovarsvijany.cz/kontakty-prodejna/",
        "name": "Prodejna pivovar Svijany",
        "opening_hours": "Mo 13:00-17:00;Tu-Th 9:30-17:00;Fr-Sa 9:30-18:00;Su 9:30-17:00",
        "shop": "beverages"
      }
    },
    {
      "type": "Feature",
      "geometry": {
        "type": "Point",
        "coordinates": [
          16.6078493,
          49.1232181
        ]
      },
      "properties": {
        "@type": "node",
        "@id": 4319782294,
        "@url": "https://www.openstreetmap.org/node/4319782294",
        "addr:housenumber": "843",
        "addr:postcode": "664 42",
        "addr:street": "U vlečky",
        "email": "info@delikomat.cz",
        "name": "Delikomat s.r.o",
        "opening_hours": "Mo-Fr 10:00-22:00",
        "phone": "+420 546 125 810",
        "shop": "beverages",
        "website": "https://www.delikomat.cz/"
      }
    },
    {
      "type": "Feature",
      "geometry": {
        "type": "Point",
        "coordinates": [
          14.477525,
          50.1046221
        ]
      },
      "properties": {
        "@type": "node",
        "@id": 4380062890,
        "@url": "https://www.openstreetmap.org/node/4380062890",
        "name": "falcon independent brewery",
        "name:cs": "falcon independent brewery",
        "name:es": "falcon independent brewery",
        "shop": "beverages"
      }
    },
    {
      "type": "Feature",
      "geometry": {
        "type": "Point",
        "coordinates": [
          16.0768242,
          49.5619848
        ]
      },
      "properties": {
        "@type": "node",
        "@id": 4393396989,
        "@url": "https://www.openstreetmap.org/node/4393396989",
        "name:cs": "Mlékomat",
        "shop": "beverages"
      }
    },
    {
      "type": "Feature",
      "geometry": {
        "type": "Point",
        "coordinates": [
          16.6265368,
          49.1840256
        ]
      },
      "properties": {
        "@type": "node",
        "@id": 4435740702,
        "@url": "https://www.openstreetmap.org/node/4435740702",
        "addr:city": "Brno",
        "addr:housenumber": "27/9",
        "addr:postcode": "60200",
        "addr:street": "Masná",
        "drink:beer": "yes",
        "email": "masna@jasocc.cz",
        "name": "JASO - CASH and CARRY, s.r.o",
        "opening_hours": "Mo-Fr 8:00-16:00",
        "shop": "beverages",
        "website": "https://www.jasocc.cz/"
      }
    },
    {
      "type": "Feature",
      "geometry": {
        "type": "Point",
        "coordinates": [
          13.3744591,
          49.7455287
        ]
      },
      "properties": {
        "@type": "node",
        "@id": 4584117792,
        "@url": "https://www.openstreetmap.org/node/4584117792",
        "contact:email": "info@brewhemian.cz",
        "contact:phone": "+420 607 679 353",
        "opening_hours": "Mo-Fr 10:30-18:30; Sa 09:00-12:00",
        "shop": "beverages",
        "source": "survey"
      }
    },
    {
      "type": "Feature",
      "geometry": {
        "type": "Point",
        "coordinates": [
          14.5097467,
          48.9746534
        ]
      },
      "properties": {
        "@type": "node",
        "@id": 4612036092,
        "@url": "https://www.openstreetmap.org/node/4612036092",
        "fax": "+387 240 569",
        "name": "Vrtal",
        "opening_hours": "Mo-Fr 08:00-16:00; Sa 09:00-12:00",
        "operator": "Vrtal s.r.o.",
        "phone": "+420387 240 569",
        "shop": "beverages",
        "website": "http://www.vrtal.cz/kontakt-ceske-budejovice"
      }
    },
    {
      "type": "Feature",
      "geometry": {
        "type": "Point",
        "coordinates": [
          15.241609,
          50.9968329
        ]
      },
      "properties": {
        "@type": "node",
        "@id": 4613580789,
        "@url": "https://www.openstreetmap.org/node/4613580789",
        "addr:housenumber": "3",
        "addr:place": "Srbská",
        "addr:postcode": "46401",
        "shop": "beverages"
      }
    },
    {
      "type": "Feature",
      "geometry": {
        "type": "Point",
        "coordinates": [
          14.4922833,
          50.3494228
        ]
      },
      "properties": {
        "@type": "node",
        "@id": 4653220191,
        "@url": "https://www.openstreetmap.org/node/4653220191",
        "name": "Pivní pohotovost",
        "name:cs": "Pivní pohotovost",
        "shop": "beverages"
      }
    },
    {
      "type": "Feature",
      "geometry": {
        "type": "Point",
        "coordinates": [
          14.3469509,
          50.0959096
        ]
      },
      "properties": {
        "@type": "node",
        "@id": 4706863275,
        "@url": "https://www.openstreetmap.org/node/4706863275",
        "addr:city": "Praha 6",
        "addr:conscriptionnumber": "32",
        "addr:housenumber": "32/3c",
        "addr:postcode": "16000",
        "addr:street": "Evropská",
        "addr:streetnumber": "3c",
        "check_date:opening_hours": "2025-04-18",
        "drink": "juice",
        "level": "-1",
        "location": "underground",
        "name": "Ugova čerstvá šťáva",
        "opening_hours": "Mo-Fr 06:00-21:00",
        "phone": "+420 739 546 211",
        "shop": "beverages",
        "website": "https://www.ugo.cz/",
        "wheelchair": "yes"
      }
    },
    {
      "type": "Feature",
      "geometry": {
        "type": "Point",
        "coordinates": [
          14.4331112,
          50.087729
        ]
      },
      "properties": {
        "@type": "node",
        "@id": 4830447587,
        "@url": "https://www.openstreetmap.org/node/4830447587",
        "drink": "juice",
        "level": "0",
        "name": "Ugova čerstvá šťáva",
        "opening_hours": "Mo-Fr 06:00-21:00; Sa-Su 07:00-19:00",
        "shop": "beverages",
        "website": "https://ugo.cz/",
        "wheelchair": "yes"
      }
    },
    {
      "type": "Feature",
      "geometry": {
        "type": "Point",
        "coordinates": [
          16.5920974,
          49.2265964
        ]
      },
      "properties": {
        "@type": "node",
        "@id": 4985117621,
        "@url": "https://www.openstreetmap.org/node/4985117621",
        "addr:housenumber": "441/91",
        "addr:postcode": "61200",
        "addr:street": "Palackého třída",
        "drink:beer": "yes",
        "email": "palackeho@jasocc.cz",
        "name": "JASO",
        "opening_hours": "Mo-Su 09:00-19:00",
        "phone": "+420541246252",
        "shop": "beverages",
        "website": "https://www.jasocc.cz/"
      }
    },
    {
      "type": "Feature",
      "geometry": {
        "type": "Point",
        "coordinates": [
          13.3438477,
          49.728663
        ]
      },
      "properties": {
        "@type": "node",
        "@id": 5294055965,
        "@url": "https://www.openstreetmap.org/node/5294055965",
        "amenity": "fast_food",
        "brand": "UGO",
        "brand:wikidata": "Q108126892",
        "cuisine": "juice",
        "name": "UGO",
        "shop": "beverages",
        "source": "survey;Bing aerial (shifted)",
        "takeaway": "yes"
      }
    },
    {
      "type": "Feature",
      "geometry": {
        "type": "Point",
        "coordinates": [
          14.4909141,
          50.1045473
        ]
      },
      "properties": {
        "@type": "node",
        "@id": 5611992641,
        "@url": "https://www.openstreetmap.org/node/5611992641",
        "level": "0",
        "name": "Fruitisimo",
        "opening_hours": "Mo-Su 09:00-21:00",
        "payment:credit_cards": "yes",
        "payment:debit_cards": "yes",
        "shop": "beverages"
      }
    },
    {
      "type": "Feature",
      "geometry": {
        "type": "Point",
        "coordinates": [
          14.8409999,
          50.8560612
        ]
      },
      "properties": {
        "@type": "node",
        "@id": 5892781131,
        "@url": "https://www.openstreetmap.org/node/5892781131",
        "name": "Jarmila Zimova",
        "shop": "beverages",
        "wheelchair": "no"
      }
    },
    {
      "type": "Feature",
      "geometry": {
        "type": "Point",
        "coordinates": [
          13.6776849,
          50.2113384
        ]
      },
      "properties": {
        "@type": "node",
        "@id": 5903704486,
        "@url": "https://www.openstreetmap.org/node/5903704486",
        "name": "Vietnamský obchod",
        "shop": "beverages"
      }
    },
    {
      "type": "Feature",
      "geometry": {
        "type": "Point",
        "coordinates": [
          15.0435148,
          50.7587114
        ]
      },
      "properties": {
        "@type": "node",
        "@id": 5908573787,
        "@url": "https://www.openstreetmap.org/node/5908573787",
        "addr:housenumber": "318/20",
        "addr:street": "Hanychovská",
        "name": "Kousek Piva Pivovar",
        "shop": "beverages"
      }
    },
    {
      "type": "Feature",
      "geometry": {
        "type": "Point",
        "coordinates": [
          14.1329644,
          49.939333
        ]
      },
      "properties": {
        "@type": "node",
        "@id": 5911763885,
        "@url": "https://www.openstreetmap.org/node/5911763885",
        "name": "Srbecky Lok Pivovar",
        "shop": "beverages"
      }
    },
    {
      "type": "Feature",
      "geometry": {
        "type": "Point",
        "coordinates": [
          12.1888378,
          50.2213371
        ]
      },
      "properties": {
        "@type": "node",
        "@id": 6191551629,
        "@url": "https://www.openstreetmap.org/node/6191551629",
        "shop": "beverages",
        "source": "bing;cuzk:km;local_knowledge"
      }
    },
    {
      "type": "Feature",
      "geometry": {
        "type": "Point",
        "coordinates": [
          14.4468194,
          50.0934942
        ]
      },
      "properties": {
        "@type": "node",
        "@id": 6251237585,
        "@url": "https://www.openstreetmap.org/node/6251237585",
        "addr:city": "Praha",
        "addr:housenumber": "81/55",
        "addr:postcode": "18600",
        "addr:street": "Sokolovská",
        "amenity": "bar",
        "loc_name": "U dvou kohoutů",
        "microbrewery": "yes",
        "name": "Dva Kohouti",
        "opening_hours": "Mo-Fr 15:00-01:00, Sa 12:00-01:00, Su 12:00-22:00, PH 12:00-22:00",
        "operator": "AMBI CZ, s.r.o.",
        "outdoor_seating": "yes",
        "payment:cash": "yes",
        "payment:credit_cards": "yes",
        "payment:debit_cards": "yes",
        "payment:mastercard": "yes",
        "payment:visa": "yes",
        "payment:visa_debit": "yes",
        "payment:visa_electron": "yes",
        "self_checkout": "no",
        "self_service": "yes",
        "shop": "beverages",
        "smoking": "outside",
        "website": "https://www.dvakohouti.cz/",
        "wheelchair": "no"
      }
    },
    {
      "type": "Feature",
      "geometry": {
        "type": "Point",
        "coordinates": [
          14.4059866,
          50.0723246
        ]
      },
      "properties": {
        "@type": "node",
        "@id": 6251438786,
        "@url": "https://www.openstreetmap.org/node/6251438786",
        "addr:conscriptionnumber": "337",
        "addr:housenumber": "337/30",
        "addr:postcode": "15000",
        "addr:street": "Lidická",
        "air_conditioning": "yes",
        "amenity": "restaurant",
        "check_date:opening_hours": "2023-06-12",
        "indoor_seating": "yes",
        "internet_access": "wlan",
        "microbrewery": "yes",
        "name": "Andělský Pivovar",
        "opening_hours": "Mo-Su 11:00-24:00",
        "outdoor_seating": "yes",
        "payment:credit_cards": "yes",
        "payment:debit_cards": "yes",
        "shop": "beverages",
        "smoking": "outside",
        "website": "https://www.andelskypivovar.cz/"
      }
    },
    {
      "type": "Feature",
      "geometry": {
        "type": "Point",
        "coordinates": [
          14.3297809,
          48.8361499
        ]
      },
      "properties": {
        "@type": "node",
        "@id": 7038085516,
        "@url": "https://www.openstreetmap.org/node/7038085516",
        "addr:city": "Český Krumlov",
        "addr:housenumber": "119",
        "addr:postcode": "38101",
        "addr:street": "Tovární",
        "email": "objednavky@hameco.cz",
        "name": "HAMECO",
        "operator": "HAMECO EVROPA s.r.o.",
        "phone": "+420 380 711 751",
        "product": "beverages",
        "shop": "beverages",
        "website": "https://www.hameco.cz/"
      }
    },
    {
      "type": "Feature",
      "geometry": {
        "type": "Point",
        "coordinates": [
          18.1489555,
          49.8477585
        ]
      },
      "properties": {
        "@type": "node",
        "@id": 7390591639,
        "@url": "https://www.openstreetmap.org/node/7390591639",
        "shop": "beverages"
      }
    },
    {
      "type": "Feature",
      "geometry": {
        "type": "Point",
        "coordinates": [
          15.0800095,
          49.298958
        ]
      },
      "properties": {
        "@type": "node",
        "@id": 7404186685,
        "@url": "https://www.openstreetmap.org/node/7404186685",
        "addr:housenumber": "236",
        "addr:street": "V Oboře",
        "email": "info@pivokokes.cz",
        "name": "Pivovar Kokeš",
        "phone": "+420603792086",
        "shop": "beverages"
      }
    },
    {
      "type": "Feature",
      "geometry": {
        "type": "Point",
        "coordinates": [
          14.7836344,
          49.3031649
        ]
      },
      "properties": {
        "@type": "node",
        "@id": 7404241485,
        "@url": "https://www.openstreetmap.org/node/7404241485",
        "addr:housenumber": "46",
        "email": "pivovarbrandlinskakuna@seznam.cz",
        "name": "Minipivovar Brandlínská Kuna",
        "phone": "+420602208824",
        "shop": "beverages",
        "website": "http://www.facebook.com/brandlinskakuna/"
      }
    },
    {
      "type": "Feature",
      "geometry": {
        "type": "Point",
        "coordinates": [
          14.6227082,
          49.2966553
        ]
      },
      "properties": {
        "@type": "node",
        "@id": 7404261585,
        "@url": "https://www.openstreetmap.org/node/7404261585",
        "addr:housenumber": "9",
        "addr:street": "Hlavatce",
        "description": "První rodinný poloautomatický pivovar",
        "microbrewery": "yes",
        "name": "Pivovar Transformátor",
        "shop": "beverages"
      }
    },
    {
      "type": "Feature",
      "geometry": {
        "type": "Point",
        "coordinates": [
          14.6390726,
          49.338919
        ]
      },
      "properties": {
        "@type": "node",
        "@id": 7404314485,
        "@url": "https://www.openstreetmap.org/node/7404314485",
        "addr:housenumber": "4",
        "addr:street": "Obora",
        "email": "novakova.obora@seznam.cz",
        "name": "Pivovar Obora",
        "opening_hours": "Mo-Sa 08:00-18:00",
        "phone": "+420608271605",
        "shop": "beverages",
        "website": "https://www.pivovarobora.cz/"
      }
    },
    {
      "type": "Feature",
      "geometry": {
        "type": "Point",
        "coordinates": [
          14.6826023,
          49.4137945
        ]
      },
      "properties": {
        "@type": "node",
        "@id": 7404321685,
        "@url": "https://www.openstreetmap.org/node/7404321685",
        "addr:housenumber": "1834/30",
        "addr:street": "Sedláčkova",
        "name": "Pivovar Křížek",
        "phone": "+420607961656",
        "shop": "beverages",
        "website": "http://www.pivovarkrizek.cz"
      }
    },
    {
      "type": "Feature",
      "geometry": {
        "type": "Point",
        "coordinates": [
          14.6588188,
          49.4147608
        ]
      },
      "properties": {
        "@type": "node",
        "@id": 7404340185,
        "@url": "https://www.openstreetmap.org/node/7404340185",
        "addr:housenumber": "5",
        "addr:street": "Žižkovo nám.",
        "email": "tocik.karel@ssjs-tabor.cz",
        "name": "Pivovar Pod Besedou",
        "phone": "+420732471968",
        "shop": "beverages",
        "website": "http://www.restaurace-beseda.cz"
      }
    },
    {
      "type": "Feature",
      "geometry": {
        "type": "Point",
        "coordinates": [
          14.680885,
          49.4790966
        ]
      },
      "properties": {
        "@type": "node",
        "@id": 7404374985,
        "@url": "https://www.openstreetmap.org/node/7404374985",
        "addr:housenumber": "1",
        "addr:street": "Na Nádvoří",
        "email": "adamek@pivovarchotoviny.cz",
        "name": "Minipivovar Chotoviny",
        "shop": "beverages",
        "website": "http://www.pivovarchotoviny.cz"
      }
    },
    {
      "type": "Feature",
      "geometry": {
        "type": "Point",
        "coordinates": [
          15.8501715,
          50.0642885
        ]
      },
      "properties": {
        "@type": "node",
        "@id": 7503313085,
        "@url": "https://www.openstreetmap.org/node/7503313085",
        "name": "Vinárna u Krista",
        "shop": "beverages"
      }
    },
    {
      "type": "Feature",
      "geometry": {
        "type": "Point",
        "coordinates": [
          17.8787264,
          49.0503609
        ]
      },
      "properties": {
        "@type": "node",
        "@id": 7595639085,
        "@url": "https://www.openstreetmap.org/node/7595639085",
        "addr:city": "Hostětín",
        "addr:postcode": "68771",
        "addr:unit": "4",
        "brand": "Hostětínský mošt",
        "name": "Moštárna Hostětín",
        "opening_hours:signed": "no",
        "operator": "Moštárna Hostětín s.r.o.",
        "payment:cash": "yes",
        "phone": "+420572641040",
        "shop": "beverages",
        "start_date": "2000-09-10",
        "website": "https://www.mostarna.bio/",
        "wheelchair": "yes",
        "wikidata": "Q12038862",
        "wikipedia": "cs:Moštárna Hostětín"
      }
    },
    {
      "type": "Feature",
      "geometry": {
        "type": "Point",
        "coordinates": [
          14.448881,
          50.0990408
        ]
      },
      "properties": {
        "@type": "node",
        "@id": 7834869087,
        "@url": "https://www.openstreetmap.org/node/7834869087",
        "name": "Red Bull",
        "opening_hours": "Mo-Su 00:00-24:00",
        "shop": "beverages"
      }
    },
    {
      "type": "Feature",
      "geometry": {
        "type": "Point",
        "coordinates": [
          16.9675261,
          48.8628797
        ]
      },
      "properties": {
        "@type": "node",
        "@id": 8382015449,
        "@url": "https://www.openstreetmap.org/node/8382015449",
        "shop": "beverages"
      }
    },
    {
      "type": "Feature",
      "geometry": {
        "type": "Point",
        "coordinates": [
          16.7614,
          49.4815619
        ]
      },
      "properties": {
        "@type": "node",
        "@id": 8400274626,
        "@url": "https://www.openstreetmap.org/node/8400274626",
        "name": "Vinotéka - Suvenýry",
        "opening_hours": "We-Su 14:00-18:00; Fr 14:00-19:00",
        "payment:diners_club": "yes",
        "payment:discover_card": "yes",
        "payment:jcb": "yes",
        "payment:maestro": "yes",
        "payment:mastercard": "yes",
        "payment:visa": "yes",
        "payment:visa_debit": "yes",
        "payment:visa_electron": "yes",
        "phone": "+420 608 214 050",
        "shop": "beverages"
      }
    },
    {
      "type": "Feature",
      "geometry": {
        "type": "Point",
        "coordinates": [
          16.3252408,
          49.1273235
        ]
      },
      "properties": {
        "@type": "node",
        "@id": 8839942993,
        "@url": "https://www.openstreetmap.org/node/8839942993",
        "drink:beer": "yes",
        "email": "info@pivoset-oslavany.cz",
        "mobile": "+420 732 131 001",
        "name": "Pivoset",
        "opening_hours": "Mo-Th 14:00-19:00; Fr,Sa 10:00-19:00",
        "shop": "beverages",
        "website": "https://pivoset-oslavany.cz"
      }
    },
    {
      "type": "Feature",
      "geometry": {
        "type": "Point",
        "coordinates": [
          16.7583084,
          49.1051227
        ]
      },
      "properties": {
        "@type": "node",
        "@id": 9103426733,
        "@url": "https://www.openstreetmap.org/node/9103426733",
        "name": "Ričiho B&B nápoje",
        "opening_hours": "Mo-Fr 09:00-12:30, 13:00-18:00; Sa 08:00-11:15",
        "shop": "beverages"
      }
    },
    {
      "type": "Feature",
      "geometry": {
        "type": "Point",
        "coordinates": [
          16.631716,
          48.7994379
        ]
      },
      "properties": {
        "@type": "node",
        "@id": 9151910477,
        "@url": "https://www.openstreetmap.org/node/9151910477",
        "shop": "beverages"
      }
    },
    {
      "type": "Feature",
      "geometry": {
        "type": "Point",
        "coordinates": [
          17.2652452,
          49.5971873
        ]
      },
      "properties": {
        "@type": "node",
        "@id": 9198341786,
        "@url": "https://www.openstreetmap.org/node/9198341786",
        "check_date": "2025-01-28",
        "check_date:opening_hours": "2024-10-23",
        "drink:beer": "yes",
        "name": "Pivní ráj",
        "opening_hours": "Mo-Fr 12:00-19:00, Sa 15:00-19:00",
        "phone": "+420 792 757 280",
        "shop": "beverages",
        "website": "https://www.jsemzolomouce.cz/pivniraj"
      }
    },
    {
      "type": "Feature",
      "geometry": {
        "type": "Point",
        "coordinates": [
          16.6066341,
          49.1999615
        ]
      },
      "properties": {
        "@type": "node",
        "@id": 9389478328,
        "@url": "https://www.openstreetmap.org/node/9389478328",
        "check_date": "2024-05-11",
        "email": "mostak@mostak.cz",
        "mobile": "+420 606 031 440",
        "name": "Mošťák",
        "opening_hours": "Mo-Th 13:00-19:00; Fr,Sa 13:00-20:00",
        "payment:jcb": "yes",
        "payment:maestro": "yes",
        "payment:mastercard": "yes",
        "payment:visa": "yes",
        "payment:visa_debit": "yes",
        "payment:visa_electron": "yes",
        "shop": "beverages",
        "website": "https://www.mostak.cz/"
      }
    },
    {
      "type": "Feature",
      "geometry": {
        "type": "Point",
        "coordinates": [
          14.4191003,
          50.0820712
        ]
      },
      "properties": {
        "@type": "node",
        "@id": 9605933222,
        "@url": "https://www.openstreetmap.org/node/9605933222",
        "check_date:opening_hours": "2024-07-13",
        "name": "Minimarket",
        "opening_hours": "Mo-Su 11:00-00:30",
        "phone": "+420 702 489 999",
        "shop": "beverages",
        "wheelchair": "limited"
      }
    },
    {
      "type": "Feature",
      "geometry": {
        "type": "Point",
        "coordinates": [
          14.4193609,
          50.0786541
        ]
      },
      "properties": {
        "@type": "node",
        "@id": 9620574227,
        "@url": "https://www.openstreetmap.org/node/9620574227",
        "name": "Cosmopole Market",
        "opening_hours": "Mo-Su 10:00-03:00",
        "shop": "beverages"
      }
    },
    {
      "type": "Feature",
      "geometry": {
        "type": "Point",
        "coordinates": [
          14.4165176,
          50.085962
        ]
      },
      "properties": {
        "@type": "node",
        "@id": 9621169651,
        "@url": "https://www.openstreetmap.org/node/9621169651",
        "name": "Market",
        "opening_hours": "Mo-Su 10:00-01:00",
        "shop": "beverages",
        "wheelchair": "limited"
      }
    },
    {
      "type": "Feature",
      "geometry": {
        "type": "Point",
        "coordinates": [
          14.4266206,
          50.0814942
        ]
      },
      "properties": {
        "@type": "node",
        "@id": 9629322795,
        "@url": "https://www.openstreetmap.org/node/9629322795",
        "name": "Absinth Market",
        "opening_hours": "Mo-Su 07:00-02:00",
        "shop": "beverages"
      }
    },
    {
      "type": "Feature",
      "geometry": {
        "type": "Point",
        "coordinates": [
          14.4295969,
          50.0712115
        ]
      },
      "properties": {
        "@type": "node",
        "@id": 9727480017,
        "@url": "https://www.openstreetmap.org/node/9727480017",
        "name": "Mini Market",
        "opening_hours": "09:00-22:00",
        "shop": "beverages",
        "survey:date": "2022-05-09"
      }
    },
    {
      "type": "Feature",
      "geometry": {
        "type": "Point",
        "coordinates": [
          14.3155366,
          48.811216
        ]
      },
      "properties": {
        "@type": "node",
        "@id": 9880525618,
        "@url": "https://www.openstreetmap.org/node/9880525618",
        "addr:city": "Český Krumlov",
        "addr:postcode": "381 01",
        "addr:street": "Masná",
        "name": "Prosek",
        "payment:cash": "yes",
        "payment:credit_cards": "yes",
        "shop": "beverages"
      }
    },
    {
      "type": "Feature",
      "geometry": {
        "type": "Point",
        "coordinates": [
          14.4286751,
          50.0842964
        ]
      },
      "properties": {
        "@type": "node",
        "@id": 10123993117,
        "@url": "https://www.openstreetmap.org/node/10123993117",
        "name": "Comebuy",
        "shop": "beverages"
      }
    },
    {
      "type": "Feature",
      "geometry": {
        "type": "Point",
        "coordinates": [
          13.4409237,
          49.7452262
        ]
      },
      "properties": {
        "@type": "node",
        "@id": 10218621734,
        "@url": "https://www.openstreetmap.org/node/10218621734",
        "name": "ELKO",
        "shop": "beverages"
      }
    },
    {
      "type": "Feature",
      "geometry": {
        "type": "Point",
        "coordinates": [
          14.4247525,
          50.0995854
        ]
      },
      "properties": {
        "@type": "node",
        "@id": 10923393804,
        "@url": "https://www.openstreetmap.org/node/10923393804",
        "addr:city": "Praha 7",
        "addr:housenumber": "517",
        "addr:postcode": "17000",
        "addr:street": "Ovenecká",
        "addr:unit": "22",
        "check_date": "2023-05-24",
        "currency:XBT": "yes",
        "name": "M0ST Nápoje / Beverages",
        "opening_hours": "Mo-Su 15:00-23:00",
        "operator": "Vojtěch Antoš",
        "payment:lightning": "yes",
        "payment:lightning_contactless": "no",
        "payment:onchain": "no",
        "phone": "+420 775 041 561",
        "shop": "beverages"
      }
    },
    {
      "type": "Feature",
      "geometry": {
        "type": "Point",
        "coordinates": [
          13.7302395,
          50.1011438
        ]
      },
      "properties": {
        "@type": "node",
        "@id": 11177440864,
        "@url": "https://www.openstreetmap.org/node/11177440864",
        "addr:city": "Rakovník",
        "addr:housenumber": "151",
        "addr:postcode": "26901",
        "addr:street": "Vrchlického náměstí",
        "brewery": "Bakalář",
        "name": "Podniková Prodejna Bakalář",
        "operator": "Tradiční pivovar v Rakovníku, a.s.",
        "payment:cards": "yes",
        "payment:cash": "yes",
        "payment:contactless": "yes",
        "phone": "+420724426242",
        "shop": "beverages"
      }
    },
    {
      "type": "Feature",
      "geometry": {
        "type": "Point",
        "coordinates": [
          16.5811983,
          49.247003
        ]
      },
      "properties": {
        "@type": "node",
        "@id": 11186097039,
        "@url": "https://www.openstreetmap.org/node/11186097039",
        "addr:city": "Brno",
        "addr:housenumber": "1144/5",
        "addr:postcode": "62100",
        "addr:street": "Kolaříkova",
        "name": "Eniqa",
        "post_office": "post_partner",
        "post_office:brand": "DPD Pickup;Balíkovna;PPL Parcelshop",
        "shop": "beverages"
      }
    },
    {
      "type": "Feature",
      "geometry": {
        "type": "Point",
        "coordinates": [
          14.3544484,
          50.0181927
        ]
      },
      "properties": {
        "@type": "node",
        "@id": 11244346352,
        "@url": "https://www.openstreetmap.org/node/11244346352",
        "addr:housenumber": "3/10",
        "addr:street": "K Lochkovu",
        "name": "Pivní maják",
        "opening_hours": "Mo, Fr 08:00-18:00; Mo, Fr 08:00-16:00",
        "phone": "+420 257 320 915",
        "shop": "beverages",
        "website": "https://www.pivnimajak.cz/"
      }
    },
    {
      "type": "Feature",
      "geometry": {
        "type": "Point",
        "coordinates": [
          14.061911,
          49.9576653
        ]
      },
      "properties": {
        "@type": "node",
        "@id": 11271796355,
        "@url": "https://www.openstreetmap.org/node/11271796355",
        "addr:city": "Beroun",
        "addr:housenumber": "441",
        "addr:postcode": "26601",
        "addr:street": "Plzeňská",
        "email": "obchod@treknapoje.cz",
        "image": "https://www.treknapoje.cz/img/logo.svg",
        "name": "TREK Cash&Carry",
        "note": "Velkoobchod a maloobchod zabývající se prodejek alkoholických, nealkoholických nápojů a potravin. Cílem je zajistit kompletní sortiment nápojů a potravin jak pro hospody, restaurace, bary a jídelny, tak i pro konečného spotřebitele.",
        "opening_hours": "Mo-Fr 08:00-17:00; Su 08:00-12:00",
        "operator": "KK Trek s.r.o.",
        "payment:cards": "yes",
        "payment:cash": "yes",
        "phone": "+420 725 372 370",
        "shop": "beverages",
        "website": "https://www.treknapoje.cz/"
      }
    },
    {
      "type": "Feature",
      "geometry": {
        "type": "Point",
        "coordinates": [
          14.3149839,
          48.8222478
        ]
      },
      "properties": {
        "@type": "node",
        "@id": 11500576793,
        "@url": "https://www.openstreetmap.org/node/11500576793",
        "addr:city": "Český Krumlov",
        "addr:housenumber": "3",
        "addr:postcode": "38101",
        "addr:street": "Nádražní",
        "contact:facebook": "https://www.facebook.com/hajer.sro",
        "name": "Hajer nápoje",
        "operator": "Hajer s.r.o.",
        "payment:cash": "yes",
        "payment:credit_cards": "yes",
        "payment:mastercard": "yes",
        "payment:visa": "yes",
        "shop": "beverages",
        "website": "http://hajer-napoje.cz"
      }
    },
    {
      "type": "Feature",
      "geometry": {
        "type": "Point",
        "coordinates": [
          14.0995761,
          50.1415416
        ]
      },
      "properties": {
        "@type": "node",
        "@id": 11539322156,
        "@url": "https://www.openstreetmap.org/node/11539322156",
        "name": "Pivovarská prodejna BAKALÁŘ",
        "phone": "+420 725 958 632",
        "shop": "beverages",
        "website": "https://www.pivobakalar.cz"
      }
    },
    {
      "type": "Feature",
      "geometry": {
        "type": "Point",
        "coordinates": [
          16.6175671,
          49.0367845
        ]
      },
      "properties": {
        "@type": "node",
        "@id": 12020392929,
        "@url": "https://www.openstreetmap.org/node/12020392929",
        "addr:city": "Židlochovice",
        "addr:housenumber": "23",
        "addr:postcode": "66701",
        "addr:street": "náměstí Míru",
        "name": "Sweet point",
        "shop": "beverages",
        "wheelchair": "no"
      }
    },
    {
      "type": "Feature",
      "geometry": {
        "type": "Point",
        "coordinates": [
          14.3661298,
          48.8163802
        ]
      },
      "properties": {
        "@type": "node",
        "@id": 12128466088,
        "@url": "https://www.openstreetmap.org/node/12128466088",
        "addr:city": "Chabičovice",
        "addr:postcode": "38232",
        "name": "Svachovka Shop",
        "shop": "beverages"
      }
    },
    {
      "type": "Feature",
      "geometry": {
        "type": "Point",
        "coordinates": [
          17.5958987,
          49.5303138
        ]
      },
      "properties": {
        "@type": "node",
        "@id": 12132088123,
        "@url": "https://www.openstreetmap.org/node/12132088123",
        "addr:city": "Lipník nad Bečvou",
        "addr:conscriptionnumber": "804",
        "addr:housenumber": "804/33",
        "addr:place": "Lipník nad Bečvou I-Město",
        "addr:postcode": "75131",
        "addr:street": "Jezerská",
        "addr:streetnumber": "33",
        "name": "Tovy's Drinks",
        "phone": "+420 604 436 690",
        "shop": "beverages",
        "website": "https://www.tovysdrinks.cz/"
      }
    },
    {
      "type": "Feature",
      "geometry": {
        "type": "Point",
        "coordinates": [
          13.6457963,
          49.9718428
        ]
      },
      "properties": {
        "@type": "node",
        "@id": 12174443999,
        "@url": "https://www.openstreetmap.org/node/12174443999",
        "email": "info@jablkajablka.cz",
        "name": "Zastávka Chříč",
        "opening_hours": "Mo-Fr 08:00-17:00",
        "payment:cash": "yes",
        "payment:contactless": "yes",
        "payment:credit_cards": "yes",
        "payment:debit_cards": "yes",
        "phone": "+420374449181",
        "shop": "beverages",
        "website": "https://jablkajablka.cz/"
      }
    },
    {
      "type": "Feature",
      "geometry": {
        "type": "Point",
        "coordinates": [
          15.0834497,
          50.1314498
        ]
      },
      "properties": {
        "@type": "node",
        "@id": 12231736844,
        "@url": "https://www.openstreetmap.org/node/12231736844",
        "name": "Bene Nápoje",
        "opening_hours": "Mo-Su 07:00-20:00",
        "shop": "beverages",
        "start_date": "2024-10-19"
      }
    },
    {
      "type": "Feature",
      "geometry": {
        "type": "Point",
        "coordinates": [
          17.1251818,
          49.0113615
        ]
      },
      "properties": {
        "@type": "node",
        "@id": 12660784064,
        "@url": "https://www.openstreetmap.org/node/12660784064",
        "drink:beer": "yes",
        "email": "rojal-ky@rojal.cz",
        "mobile": "+420 778 719 702",
        "name": "Rojal",
        "opening_hours": "Mo-Fr 08:30-17:00; Sa 08:00-12:00",
        "shop": "beverages",
        "website": "https://eshop.rojal.cz/prodejna-kyjov"
      }
    },
    {
      "type": "Feature",
      "geometry": {
        "type": "Point",
        "coordinates": [
          16.6014945,
          49.1179059
        ]
      },
      "properties": {
        "@type": "node",
        "@id": 12734233906,
        "@url": "https://www.openstreetmap.org/node/12734233906",
        "addr:housenumber": "682",
        "addr:place": "Modřice",
        "addr:postcode": "66442",
        "addr:street": "Evropská",
        "contact:phone": "+420 774 433 361",
        "contact:website": "https://eshop.hyveco.cz/",
        "name": "HY & VE co",
        "opening_hours": "Mo-Fr 07:00-15:00",
        "shop": "beverages"
      }
    },
    {
      "type": "Feature",
      "geometry": {
        "type": "Point",
        "coordinates": [
          15.6639494,
          49.9476837
        ]
      },
      "properties": {
        "@type": "node",
        "@id": 12772717533,
        "@url": "https://www.openstreetmap.org/node/12772717533",
        "addr:city": "Heřmanův Městec",
        "addr:housenumber": "267",
        "addr:postcode": "53803",
        "addr:street": "Čáslavská",
        "name": "Nápoje",
        "shop": "beverages"
      }
    },
    {
      "type": "Feature",
      "geometry": {
        "type": "LineString",
        "coordinates": [
          [
            16.0474942,
            48.8552666
          ],
          [
            16.047517,
            48.8552634
          ],
          [
            16.0474892,
            48.8551763
          ],
          [
            16.0474159,
            48.8551904
          ],
          [
            16.04741,
            48.8551961
          ],
          [
            16.0474333,
            48.8552308
          ],
          [
            16.0473932,
            48.8552355
          ],
          [
            16.0473901,
            48.8552248
          ],
          [
            16.0474028,
            48.8552188
          ],
          [
            16.0473824,
            48.8551977
          ],
          [
            16.0474069,
            48.8551869
          ],
          [
            16.0474127,
            48.8551799
          ],
          [
            16.0474803,
            48.8551564
          ],
          [
            16.0474605,
            48.8551136
          ],
          [
            16.047447,
            48.855097
          ],
          [
            16.0473321,
            48.8551358
          ],
          [
            16.0473081,
            48.8551058
          ],
          [
            16.0472895,
            48.8551178
          ],
          [
            16.0472834,
            48.8551135
          ],
          [
            16.0472488,
            48.8551332
          ],
          [
            16.0473245,
            48.8552284
          ],
          [
            16.0473555,
            48.8553567
          ],
          [
            16.0475169,
            48.8553445
          ],
          [
            16.0474942,
            48.8552666
          ]
        ]
      },
      "properties": {
        "@type": "way",
        "@id": 74316617,
        "@url": "https://www.openstreetmap.org/way/74316617",
        "building": "civic",
        "building:flats": "3",
        "building:levels": "3",
        "building:ruian:type": "15",
        "name": "vinotéka Ampelos",
        "ref:ruian:building": "10918680",
        "shop": "beverages",
        "source": "cuzk:ruian"
      }
    },
    {
      "type": "Feature",
      "geometry": {
        "type": "LineString",
        "coordinates": [
          [
            15.8190446,
            50.7311377
          ],
          [
            15.819016,
            50.7311146
          ],
          [
            15.818752,
            50.7312409
          ],
          [
            15.8188323,
            50.7313075
          ],
          [
            15.8188088,
            50.7313196
          ],
          [
            15.8188261,
            50.731334
          ],
          [
            15.8188498,
            50.7313219
          ],
          [
            15.8188762,
            50.7313438
          ],
          [
            15.8191404,
            50.7312173
          ],
          [
            15.8191123,
            50.7311938
          ],
          [
            15.8191213,
            50.7311893
          ],
          [
            15.8190538,
            50.7311335
          ],
          [
            15.8190446,
            50.7311377
          ]
        ]
      },
      "properties": {
        "@type": "way",
        "@id": 96093584,
        "@url": "https://www.openstreetmap.org/way/96093584",
        "amenity": "restaurant",
        "building": "residential",
        "building:flats": "1",
        "building:levels": "1",
        "building:ruian:type": "3",
        "name": "Moravanka",
        "ref:ruian:building": "15052788",
        "shop": "beverages",
        "source": "cuzk:ruian"
      }
    },
    {
      "type": "Feature",
      "geometry": {
        "type": "LineString",
        "coordinates": [
          [
            16.0453772,
            50.4537028
          ],
          [
            16.0454656,
            50.4537256
          ],
          [
            16.045498,
            50.4536733
          ],
          [
            16.0454103,
            50.4536507
          ],
          [
            16.0453772,
            50.4537028
          ]
        ]
      },
      "properties": {
        "@type": "way",
        "@id": 140010216,
        "@url": "https://www.openstreetmap.org/way/140010216",
        "building": "civic",
        "building:ruian:type": "9",
        "ref:ruian:building": "48289469",
        "shop": "beverages",
        "source": "cuzk:ruian"
      }
    },
    {
      "type": "Feature",
      "geometry": {
        "type": "LineString",
        "coordinates": [
          [
            17.1071923,
            49.4592949
          ],
          [
            17.1077039,
            49.459248
          ],
          [
            17.1076821,
            49.4591434
          ],
          [
            17.1071704,
            49.4591905
          ],
          [
            17.1071923,
            49.4592949
          ]
        ]
      },
      "properties": {
        "@type": "way",
        "@id": 148505307,
        "@url": "https://www.openstreetmap.org/way/148505307",
        "building": "yes",
        "building:ruian:type": "19",
        "name": "Interdrinks",
        "ref:ruian:building": "24386367",
        "shop": "beverages",
        "source": "cuzk:ruian"
      }
    },
    {
      "type": "Feature",
      "geometry": {
        "type": "LineString",
        "coordinates": [
          [
            18.3931707,
            49.5368757
          ],
          [
            18.3932713,
            49.5368483
          ],
          [
            18.3932468,
            49.5368103
          ],
          [
            18.3931462,
            49.5368377
          ],
          [
            18.3931707,
            49.5368757
          ]
        ]
      },
      "properties": {
        "@type": "way",
        "@id": 219000604,
        "@url": "https://www.openstreetmap.org/way/219000604",
        "building": "commercial",
        "opening_hours": "Tu-Fr 08:30-13:00,14:00-17:00; Sa 08:30-13:00,14:00-16:00; Mo,Su,PH off",
        "shop": "beverages",
        "source": "bing"
      }
    },
    {
      "type": "Feature",
      "geometry": {
        "type": "LineString",
        "coordinates": [
          [
            15.5910081,
            49.6046706
          ],
          [
            15.5912605,
            49.6046864
          ],
          [
            15.591279,
            49.6046017
          ],
          [
            15.5913381,
            49.6046083
          ],
          [
            15.5913418,
            49.6045915
          ],
          [
            15.591478,
            49.6046067
          ],
          [
            15.5914822,
            49.604579
          ],
          [
            15.5914884,
            49.6045372
          ],
          [
            15.5915457,
            49.6045412
          ],
          [
            15.5915508,
            49.6045094
          ],
          [
            15.5909545,
            49.604465
          ],
          [
            15.5909532,
            49.6044743
          ],
          [
            15.5909461,
            49.6044737
          ],
          [
            15.5909467,
            49.6044702
          ],
          [
            15.5909391,
            49.6044696
          ],
          [
            15.5909357,
            49.6044936
          ],
          [
            15.5909503,
            49.6044948
          ],
          [
            15.5909488,
            49.6045058
          ],
          [
            15.5909298,
            49.6045043
          ],
          [
            15.5909264,
            49.6045285
          ],
          [
            15.5909454,
            49.60453
          ],
          [
            15.5909408,
            49.6045633
          ],
          [
            15.5909605,
            49.604564
          ],
          [
            15.5909585,
            49.6045842
          ],
          [
            15.5910161,
            49.6045871
          ],
          [
            15.5910081,
            49.6046706
          ]
        ]
      },
      "properties": {
        "@type": "way",
        "@id": 332154241,
        "@url": "https://www.openstreetmap.org/way/332154241",
        "addr:city": "Havlíčkův Brod",
        "addr:housenumber": "1210",
        "addr:postcode": "58001",
        "addr:street": "Žižkova",
        "building": "civic",
        "building:levels": "6",
        "building:ruian:type": "15",
        "name": "Vrtal s.r.o.",
        "opening_hours": "Mo-Th 08:00-16:00; Fr 08:00-17:00; Sa 09:00-11:30; PH,Su off",
        "ref:ruian:building": "9548351",
        "shop": "beverages",
        "source": "cuzk:ruian"
      }
    },
    {
      "type": "Feature",
      "geometry": {
        "type": "LineString",
        "coordinates": [
          [
            14.4611684,
            50.0783476
          ],
          [
            14.4612215,
            50.0783537
          ],
          [
            14.4612309,
            50.0783198
          ],
          [
            14.4611778,
            50.0783137
          ],
          [
            14.4611684,
            50.0783476
          ]
        ]
      },
      "properties": {
        "@type": "way",
        "@id": 485847604,
        "@url": "https://www.openstreetmap.org/way/485847604",
        "addr:unit": "233",
        "email": "info@drinkfresh.cz",
        "indoor": "area",
        "level": "2",
        "name": "Nude Juice Bar",
        "opening_hours": "Mo-Fr 08:00-21:00; Sa-Su 09:00-21:00",
        "phone": "+420 775 161 805",
        "shop": "beverages",
        "website": "https://www.drinkfresh.cz/"
      }
    },
    {
      "type": "Feature",
      "geometry": {
        "type": "LineString",
        "coordinates": [
          [
            14.4610082,
            50.0791226
          ],
          [
            14.4609741,
            50.0791186
          ],
          [
            14.4609621,
            50.0791607
          ],
          [
            14.4609962,
            50.0791647
          ],
          [
            14.4610082,
            50.0791226
          ]
        ]
      },
      "properties": {
        "@type": "way",
        "@id": 486469551,
        "@url": "https://www.openstreetmap.org/way/486469551",
        "addr:unit": "143",
        "email": "chiquita.fruitbar@yahoo.com",
        "indoor": "area",
        "level": "1",
        "name": "Chiquita Fruit Bar",
        "opening_hours": "Mo-Sa 09:00-21:00; Su 10:00-21:00",
        "phone": "+420 608 912 495",
        "shop": "beverages",
        "website": "http://www.chiquita-fruitbar.com",
        "wheelchair": "no"
      }
    },
    {
      "type": "Feature",
      "geometry": {
        "type": "LineString",
        "coordinates": [
          [
            14.461181,
            50.0785055
          ],
          [
            14.4611469,
            50.0785015
          ],
          [
            14.461135,
            50.0785436
          ],
          [
            14.461169,
            50.0785476
          ],
          [
            14.461181,
            50.0785055
          ]
        ]
      },
      "properties": {
        "@type": "way",
        "@id": 486469561,
        "@url": "https://www.openstreetmap.org/way/486469561",
        "addr:unit": "133",
        "email": "info@bubbleology.cz",
        "indoor": "area",
        "level": "1",
        "name": "Bubbleology",
        "opening_hours": "Mo-Sa 09:00-21:00; Su 10:00-21:00",
        "phone": "+420 605 331 810",
        "shop": "beverages",
        "website": "http://www.bubbleology.cz"
      }
    },
    {
      "type": "Feature",
      "geometry": {
        "type": "LineString",
        "coordinates": [
          [
            12.6379305,
            50.178841
          ],
          [
            12.6379081,
            50.1788246
          ],
          [
            12.6377699,
            50.1787113
          ],
          [
            12.6377358,
            50.1787288
          ],
          [
            12.6378275,
            50.1788027
          ],
          [
            12.6376913,
            50.1788726
          ],
          [
            12.6377583,
            50.1789269
          ],
          [
            12.6379305,
            50.178841
          ]
        ]
      },
      "properties": {
        "@type": "way",
        "@id": 661479582,
        "@url": "https://www.openstreetmap.org/way/661479582",
        "addr:city": "Sokolov",
        "addr:housenumber": "77",
        "addr:postcode": "35601",
        "addr:street": "Komenského",
        "brewery": "yes",
        "building": "brewery",
        "building:levels": "1",
        "building:ruian:type": "15",
        "craft": "brewery",
        "name": "Pivovar PERMON",
        "opening_hours": "Mo-Th 13:00-22:00; Fri 10:00-23:00; Sat 14:00-23:00",
        "operator": "Pivovar PERMON s.r.o.",
        "phone": "+420 602 610 813",
        "product": "beer",
        "ref:ruian:building": "78388627",
        "shop": "beverages",
        "source": "cuzk:ruian",
        "website": "https://www.pivopermon.cz/"
      }
    },
    {
      "type": "Feature",
      "geometry": {
        "type": "MultiPolygon",
        "coordinates": [
          [
            [
              [
                16.0472488,
                48.8551332
              ],
              [
                16.0472834,
                48.8551135
              ],
              [
                16.0472895,
                48.8551178
              ],
              [
                16.0473081,
                48.8551058
              ],
              [
                16.0473321,
                48.8551358
              ],
              [
                16.047447,
                48.855097
              ],
              [
                16.0474605,
                48.8551136
              ],
              [
                16.0474803,
                48.8551564
              ],
              [
                16.0474127,
                48.8551799
              ],
              [
                16.0474069,
                48.8551869
              ],
              [
                16.0473824,
                48.8551977
              ],
              [
                16.0474028,
                48.8552188
              ],
              [
                16.0473901,
                48.8552248
              ],
              [
                16.0473932,
                48.8552355
              ],
              [
                16.0474333,
                48.8552308
              ],
              [
                16.04741,
                48.8551961
              ],
              [
                16.0474159,
                48.8551904
              ],
              [
                16.0474892,
                48.8551763
              ],
              [
                16.047517,
                48.8552634
              ],
              [
                16.0474942,
                48.8552666
              ],
              [
                16.0475169,
                48.8553445
              ],
              [
                16.0473555,
                48.8553567
              ],
              [
                16.0473245,
                48.8552284
              ],
              [
                16.0472488,
                48.8551332
              ]
            ]
          ]
        ]
      },
      "properties": {
        "@type": "way",
        "@id": 74316617,
        "@url": "https://www.openstreetmap.org/way/74316617",
        "building": "civic",
        "building:flats": "3",
        "building:levels": "3",
        "building:ruian:type": "15",
        "name": "vinotéka Ampelos",
        "ref:ruian:building": "10918680",
        "shop": "beverages",
        "source": "cuzk:ruian"
      }
    },
    {
      "type": "Feature",
      "geometry": {
        "type": "MultiPolygon",
        "coordinates": [
          [
            [
              [
                15.818752,
                50.7312409
              ],
              [
                15.819016,
                50.7311146
              ],
              [
                15.8190446,
                50.7311377
              ],
              [
                15.8190538,
                50.7311335
              ],
              [
                15.8191213,
                50.7311893
              ],
              [
                15.8191123,
                50.7311938
              ],
              [
                15.8191404,
                50.7312173
              ],
              [
                15.8188762,
                50.7313438
              ],
              [
                15.8188498,
                50.7313219
              ],
              [
                15.8188261,
                50.731334
              ],
              [
                15.8188088,
                50.7313196
              ],
              [
                15.8188323,
                50.7313075
              ],
              [
                15.818752,
                50.7312409
              ]
            ]
          ]
        ]
      },
      "properties": {
        "@type": "way",
        "@id": 96093584,
        "@url": "https://www.openstreetmap.org/way/96093584",
        "amenity": "restaurant",
        "building": "residential",
        "building:flats": "1",
        "building:levels": "1",
        "building:ruian:type": "3",
        "name": "Moravanka",
        "ref:ruian:building": "15052788",
        "shop": "beverages",
        "source": "cuzk:ruian"
      }
    },
    {
      "type": "Feature",
      "geometry": {
        "type": "MultiPolygon",
        "coordinates": [
          [
            [
              [
                16.0453772,
                50.4537028
              ],
              [
                16.0454103,
                50.4536507
              ],
              [
                16.045498,
                50.4536733
              ],
              [
                16.0454656,
                50.4537256
              ],
              [
                16.0453772,
                50.4537028
              ]
            ]
          ]
        ]
      },
      "properties": {
        "@type": "way",
        "@id": 140010216,
        "@url": "https://www.openstreetmap.org/way/140010216",
        "building": "civic",
        "building:ruian:type": "9",
        "ref:ruian:building": "48289469",
        "shop": "beverages",
        "source": "cuzk:ruian"
      }
    },
    {
      "type": "Feature",
      "geometry": {
        "type": "MultiPolygon",
        "coordinates": [
          [
            [
              [
                17.1071704,
                49.4591905
              ],
              [
                17.1076821,
                49.4591434
              ],
              [
                17.1077039,
                49.459248
              ],
              [
                17.1071923,
                49.4592949
              ],
              [
                17.1071704,
                49.4591905
              ]
            ]
          ]
        ]
      },
      "properties": {
        "@type": "way",
        "@id": 148505307,
        "@url": "https://www.openstreetmap.org/way/148505307",
        "building": "yes",
        "building:ruian:type": "19",
        "name": "Interdrinks",
        "ref:ruian:building": "24386367",
        "shop": "beverages",
        "source": "cuzk:ruian"
      }
    },
    {
      "type": "Feature",
      "geometry": {
        "type": "MultiPolygon",
        "coordinates": [
          [
            [
              [
                18.3931462,
                49.5368377
              ],
              [
                18.3932468,
                49.5368103
              ],
              [
                18.3932713,
                49.5368483
              ],
              [
                18.3931707,
                49.5368757
              ],
              [
                18.3931462,
                49.5368377
              ]
            ]
          ]
        ]
      },
      "properties": {
        "@type": "way",
        "@id": 219000604,
        "@url": "https://www.openstreetmap.org/way/219000604",
        "building": "commercial",
        "opening_hours": "Tu-Fr 08:30-13:00,14:00-17:00; Sa 08:30-13:00,14:00-16:00; Mo,Su,PH off",
        "shop": "beverages",
        "source": "bing"
      }
    },
    {
      "type": "Feature",
      "geometry": {
        "type": "MultiPolygon",
        "coordinates": [
          [
            [
              [
                15.5909264,
                49.6045285
              ],
              [
                15.5909298,
                49.6045043
              ],
              [
                15.5909488,
                49.6045058
              ],
              [
                15.5909503,
                49.6044948
              ],
              [
                15.5909357,
                49.6044936
              ],
              [
                15.5909391,
                49.6044696
              ],
              [
                15.5909467,
                49.6044702
              ],
              [
                15.5909461,
                49.6044737
              ],
              [
                15.5909532,
                49.6044743
              ],
              [
                15.5909545,
                49.604465
              ],
              [
                15.5915508,
                49.6045094
              ],
              [
                15.5915457,
                49.6045412
              ],
              [
                15.5914884,
                49.6045372
              ],
              [
                15.5914822,
                49.604579
              ],
              [
                15.591478,
                49.6046067
              ],
              [
                15.5913418,
                49.6045915
              ],
              [
                15.5913381,
                49.6046083
              ],
              [
                15.591279,
                49.6046017
              ],
              [
                15.5912605,
                49.6046864
              ],
              [
                15.5910081,
                49.6046706
              ],
              [
                15.5910161,
                49.6045871
              ],
              [
                15.5909585,
                49.6045842
              ],
              [
                15.5909605,
                49.604564
              ],
              [
                15.5909408,
                49.6045633
              ],
              [
                15.5909454,
                49.60453
              ],
              [
                15.5909264,
                49.6045285
              ]
            ]
          ]
        ]
      },
      "properties": {
        "@type": "way",
        "@id": 332154241,
        "@url": "https://www.openstreetmap.org/way/332154241",
        "addr:city": "Havlíčkův Brod",
        "addr:housenumber": "1210",
        "addr:postcode": "58001",
        "addr:street": "Žižkova",
        "building": "civic",
        "building:levels": "6",
        "building:ruian:type": "15",
        "name": "Vrtal s.r.o.",
        "opening_hours": "Mo-Th 08:00-16:00; Fr 08:00-17:00; Sa 09:00-11:30; PH,Su off",
        "ref:ruian:building": "9548351",
        "shop": "beverages",
        "source": "cuzk:ruian"
      }
    },
    {
      "type": "Feature",
      "geometry": {
        "type": "MultiPolygon",
        "coordinates": [
          [
            [
              [
                14.4611684,
                50.0783476
              ],
              [
                14.4611778,
                50.0783137
              ],
              [
                14.4612309,
                50.0783198
              ],
              [
                14.4612215,
                50.0783537
              ],
              [
                14.4611684,
                50.0783476
              ]
            ]
          ]
        ]
      },
      "properties": {
        "@type": "way",
        "@id": 485847604,
        "@url": "https://www.openstreetmap.org/way/485847604",
        "addr:unit": "233",
        "email": "info@drinkfresh.cz",
        "indoor": "area",
        "level": "2",
        "name": "Nude Juice Bar",
        "opening_hours": "Mo-Fr 08:00-21:00; Sa-Su 09:00-21:00",
        "phone": "+420 775 161 805",
        "shop": "beverages",
        "website": "https://www.drinkfresh.cz/"
      }
    },
    {
      "type": "Feature",
      "geometry": {
        "type": "MultiPolygon",
        "coordinates": [
          [
            [
              [
                14.4609621,
                50.0791607
              ],
              [
                14.4609741,
                50.0791186
              ],
              [
                14.4610082,
                50.0791226
              ],
              [
                14.4609962,
                50.0791647
              ],
              [
                14.4609621,
                50.0791607
              ]
            ]
          ]
        ]
      },
      "properties": {
        "@type": "way",
        "@id": 486469551,
        "@url": "https://www.openstreetmap.org/way/486469551",
        "addr:unit": "143",
        "email": "chiquita.fruitbar@yahoo.com",
        "indoor": "area",
        "level": "1",
        "name": "Chiquita Fruit Bar",
        "opening_hours": "Mo-Sa 09:00-21:00; Su 10:00-21:00",
        "phone": "+420 608 912 495",
        "shop": "beverages",
        "website": "http://www.chiquita-fruitbar.com",
        "wheelchair": "no"
      }
    },
    {
      "type": "Feature",
      "geometry": {
        "type": "MultiPolygon",
        "coordinates": [
          [
            [
              [
                14.461135,
                50.0785436
              ],
              [
                14.4611469,
                50.0785015
              ],
              [
                14.461181,
                50.0785055
              ],
              [
                14.461169,
                50.0785476
              ],
              [
                14.461135,
                50.0785436
              ]
            ]
          ]
        ]
      },
      "properties": {
        "@type": "way",
        "@id": 486469561,
        "@url": "https://www.openstreetmap.org/way/486469561",
        "addr:unit": "133",
        "email": "info@bubbleology.cz",
        "indoor": "area",
        "level": "1",
        "name": "Bubbleology",
        "opening_hours": "Mo-Sa 09:00-21:00; Su 10:00-21:00",
        "phone": "+420 605 331 810",
        "shop": "beverages",
        "website": "http://www.bubbleology.cz"
      }
    },
    {
      "type": "Feature",
      "geometry": {
        "type": "MultiPolygon",
        "coordinates": [
          [
            [
              [
                12.6376913,
                50.1788726
              ],
              [
                12.6378275,
                50.1788027
              ],
              [
                12.6377358,
                50.1787288
              ],
              [
                12.6377699,
                50.1787113
              ],
              [
                12.6379081,
                50.1788246
              ],
              [
                12.6379305,
                50.178841
              ],
              [
                12.6377583,
                50.1789269
              ],
              [
                12.6376913,
                50.1788726
              ]
            ]
          ]
        ]
      },
      "properties": {
        "@type": "way",
        "@id": 661479582,
        "@url": "https://www.openstreetmap.org/way/661479582",
        "addr:city": "Sokolov",
        "addr:housenumber": "77",
        "addr:postcode": "35601",
        "addr:street": "Komenského",
        "brewery": "yes",
        "building": "brewery",
        "building:levels": "1",
        "building:ruian:type": "15",
        "craft": "brewery",
        "name": "Pivovar PERMON",
        "opening_hours": "Mo-Th 13:00-22:00; Fri 10:00-23:00; Sat 14:00-23:00",
        "operator": "Pivovar PERMON s.r.o.",
        "phone": "+420 602 610 813",
        "product": "beer",
        "ref:ruian:building": "78388627",
        "shop": "beverages",
        "source": "cuzk:ruian",
        "website": "https://www.pivopermon.cz/"
      }
    }
  ]
}
