{
  "type": "FeatureCollection",
  "features": [
    {
      "type": "Feature",
      "geometry": {
        "type": "Point",
        "coordinates": [
          16.5933769,
          49.1998287
        ]
      },
      "properties": {
        "@type": "node",
        "@id": 2816695807,
        "@url": "https://www.openstreetmap.org/node/2816695807",
        "addr:city": "Brno",
        "addr:housenumber": "84",
        "addr:postcode": "60200",
        "addr:street": "Úvoz",
        "bulk_purchase": "yes",
        "check_date:opening_hours": "2025-11-10",
        "contact:facebook": "https://www.facebook.com/nasypsi",
        "email": "nasypsi@gmail.com",
        "name": "Nasyp si",
        "opening_hours": "Mo-Fr 09:00-12:00,12:30-19:00; Sa 09:00-14:00",
        "organic": "yes",
        "payment:diners_club": "yes",
        "payment:discover_card": "yes",
        "payment:jcb": "yes",
        "payment:maestro": "yes",
        "payment:mastercard": "yes",
        "payment:visa": "yes",
        "payment:visa_debit": "yes",
        "payment:visa_electron": "yes",
        "phone": "+420 774 020 892",
        "shop": "convenience",
        "website": "https://www.nasypsi.cz/",
        "wheelchair": "yes",
        "zero_waste": "yes"
      }
    },
    {
      "type": "Feature",
      "geometry": {
        "type": "Point",
        "coordinates": [
          16.6005528,
          49.2009167
        ]
      },
      "properties": {
        "@type": "node",
        "@id": 3157685884,
        "@url": "https://www.openstreetmap.org/node/3157685884",
        "addr:city": "Brno",
        "addr:housenumber": "1",
        "addr:postcode": "60200",
        "addr:street": "Smetanova",
        "bulk_purchase": "yes",
        "name": "Bezobalový obchod NOsáček",
        "opening_hours": "Mo,We,Fr 11:00-18:00; Tu,Th 09:00-18:00; Sa 12:12-14:00; Su off",
        "organic": "yes",
        "payment:credit_cards": "yes",
        "payment:debit_cards": "yes",
        "phone": "+ 420 776 166 926",
        "shop": "convenience",
        "website": "https://www.facebook.com/NOsacek/",
        "zero_waste": "yes"
      }
    },
    {
      "type": "Feature",
      "geometry": {
        "type": "Point",
        "coordinates": [
          16.6294079,
          49.202263
        ]
      },
      "properties": {
        "@type": "node",
        "@id": 3159641046,
        "@url": "https://www.openstreetmap.org/node/3159641046",
        "addr:city": "Brno",
        "addr:housenumber": "2",
        "addr:postcode": "61500",
        "addr:street": "Zábrdovická",
        "bulk_purchase": "yes",
        "contact:facebook": "https://www.facebook.com/prodejnaZdravyzivot",
        "email": "obchod@zzbrno.cz",
        "facebook": "https://www.facebook.com/prodejnaZdravyzivot/",
        "name": "Zdravý život",
        "opening_hours": "Mo-Fr 08:00-18:00; Sa 09:00-12:00; PH,Su off",
        "operator": "Ing. Michal Kadaňka",
        "organic": "yes",
        "payment:cash": "yes",
        "payment:maestro": "yes",
        "payment:mastercard": "yes",
        "payment:sodexo": "yes",
        "payment:ticket_restaurant": "yes",
        "payment:visa": "yes",
        "payment:visa_electron": "yes",
        "phone": "+420 549 240 056",
        "ref:vatin": "CZ72404485",
        "shop": "convenience",
        "website": "https://www.zzbrno.cz/prodejna/prodejna.html",
        "wheelchair": "yes"
      }
    },
    {
      "type": "Feature",
      "geometry": {
        "type": "Point",
        "coordinates": [
          16.6117027,
          49.1937796
        ]
      },
      "properties": {
        "@type": "node",
        "@id": 3462485661,
        "@url": "https://www.openstreetmap.org/node/3462485661",
        "addr:city": "Brno",
        "addr:housenumber": "17",
        "addr:postcode": "60200",
        "addr:street": "Orlí",
        "bulk_purchase": "yes",
        "check_date": "2024-11-20",
        "check_date:opening_hours": "2024-11-20",
        "name": "Brána ke zdraví",
        "opening_hours": "Mo-Th 07:30-18:00; Fr 07:00-17:00",
        "payment:cards": "yes",
        "payment:contactless": "yes",
        "phone": "+420 725 065 899",
        "shop": "health_food",
        "website": "https://branakezdravi.cz/",
        "wheelchair": "no"
      }
    },
    {
      "type": "Feature",
      "geometry": {
        "type": "Point",
        "coordinates": [
          16.6587241,
          49.2027772
        ]
      },
      "properties": {
        "@type": "node",
        "@id": 4597934387,
        "@url": "https://www.openstreetmap.org/node/4597934387",
        "addr:city": "Brno",
        "addr:postcode": "62800",
        "addr:street": "Bořetická",
        "bulk_purchase": "yes",
        "name": "Vážím si - Bezobalový obchůdek Brno Vinohrady",
        "opening_hours": "Mo-Th 09:00-12:00,14:00-17:30",
        "shop": "convenience",
        "zero_waste": "yes"
      }
    },
    {
      "type": "Feature",
      "geometry": {
        "type": "Point",
        "coordinates": [
          14.4052284,
          50.0983591
        ]
      },
      "properties": {
        "@type": "node",
        "@id": 5115130297,
        "@url": "https://www.openstreetmap.org/node/5115130297",
        "addr:conscriptionnumber": "182",
        "addr:housenumber": "182/5",
        "addr:place": "Dejvice",
        "addr:postcode": "16000",
        "addr:street": "Pod kaštany",
        "addr:streetnumber": "5",
        "bulk_purchase": "only",
        "contact:facebook": "https://facebook.com/groups/cirkakolektiv",
        "email": "obchod@cirka.cz",
        "name": "~ cirka",
        "note": "package-free grocery store/club",
        "opening_hours": "Mo-Fr 08:00-20:00; Sa 10:00-15:00",
        "organic": "yes",
        "payment:cash": "yes",
        "payment:credit_cards": "yes",
        "payment:debit_cards": "yes",
        "phone": "+420 222 956 462",
        "shop": "convenience",
        "website": "https://www.cirka.cz/",
        "wheelchair": "no",
        "zero_waste": "yes"
      }
    },
    {
      "type": "Feature",
      "geometry": {
        "type": "Point",
        "coordinates": [
          14.472319,
          50.0040965
        ]
      },
      "properties": {
        "@type": "node",
        "@id": 6404971247,
        "@url": "https://www.openstreetmap.org/node/6404971247",
        "bulk_purchase": "yes",
        "name": "Tamda Foods",
        "opening_hours": "Mo-Fr 09:00-19:00, Sa,Su,PH 09:00-20:00",
        "organic": "no",
        "shop": "supermarket",
        "wheelchair": "yes"
      }
    },
    {
      "type": "Feature",
      "geometry": {
        "type": "Point",
        "coordinates": [
          12.9280414,
          49.4398527
        ]
      },
      "properties": {
        "@type": "node",
        "@id": 6696600845,
        "@url": "https://www.openstreetmap.org/node/6696600845",
        "bulk_purchase": "yes",
        "check_date:opening_hours": "2023-07-26",
        "level": "0",
        "name": "Náš Konzum",
        "opening_hours": "Mo-Fr 07:00-18:00; Sa 07:30-11:30",
        "organic": "only",
        "shop": "convenience",
        "source": "survey",
        "website": "http://www.naskonzum.cz/",
        "wheelchair": "limited"
      }
    },
    {
      "type": "Feature",
      "geometry": {
        "type": "Point",
        "coordinates": [
          17.6455157,
          49.0249346
        ]
      },
      "properties": {
        "@type": "node",
        "@id": 7359967342,
        "@url": "https://www.openstreetmap.org/node/7359967342",
        "addr:city": "Uherský Brod",
        "addr:housenumber": "69",
        "addr:postcode": "68801",
        "addr:street": "Masarykovo nám.",
        "bulk_purchase": "yes",
        "email": "bezva@pastva.cz",
        "name": "Bezva pastva s.r.o.",
        "opening_hours": "Mo-Fr 09:00-16:00",
        "operator": "Bezva pastva s.r.o.",
        "organic": "yes",
        "payment:cash": "yes",
        "payment:credit_cards": "yes",
        "payment:debit_cards": "yes",
        "phone": "+420 771 113 863",
        "shop": "convenience",
        "website": "https://bezva.pastva.cz"
      }
    },
    {
      "type": "Feature",
      "geometry": {
        "type": "Point",
        "coordinates": [
          16.6127629,
          49.2005181
        ]
      },
      "properties": {
        "@type": "node",
        "@id": 8097341206,
        "@url": "https://www.openstreetmap.org/node/8097341206",
        "addr:conscriptionnumber": "329",
        "addr:housenumber": "329/24",
        "addr:postcode": "60200",
        "addr:street": "Milady Horákové",
        "addr:streetnumber": "24",
        "bulk_purchase": "yes",
        "name": "Bezobalový obchod NOsáček",
        "opening_hours": "Mo-Fr 09:00-18:00; Tu,Th 11:00-18:00; Sa 10:00-12:00,14:14-16:00",
        "organic": "yes",
        "payment:diners_club": "yes",
        "payment:discover_card": "yes",
        "payment:jcb": "yes",
        "payment:maestro": "yes",
        "payment:mastercard": "yes",
        "payment:visa": "yes",
        "payment:visa_debit": "yes",
        "payment:visa_electron": "yes",
        "phone": "+ 420 776 166 926",
        "shop": "convenience",
        "website": "https://www.facebook.com/NOsacek/",
        "zero_waste": "yes"
      }
    },
    {
      "type": "Feature",
      "geometry": {
        "type": "Point",
        "coordinates": [
          16.6006002,
          49.2106713
        ]
      },
      "properties": {
        "@type": "node",
        "@id": 8174560735,
        "@url": "https://www.openstreetmap.org/node/8174560735",
        "bulk_purchase": "yes",
        "contact:email": "bezobalovysvetnika@gmail.com",
        "contact:facebook": "https://www.facebook.com/people/Bezobalov%C3%BD-sv%C4%9Bt-Nika/61553125568394/",
        "name": "Bezobalový svět NIKA",
        "opening_hours": "Mo-Th 09:00-18:00; Fr 09:00-17:00; Sa 09:00-13:00",
        "organic": "yes",
        "payment:diners_club": "yes",
        "payment:discover_card": "yes",
        "payment:jcb": "yes",
        "payment:maestro": "yes",
        "payment:mastercard": "yes",
        "payment:visa": "yes",
        "payment:visa_debit": "yes",
        "payment:visa_electron": "yes",
        "phone": "+420 777 330 206",
        "shop": "convenience",
        "zero_waste": "yes"
      }
    },
    {
      "type": "Feature",
      "geometry": {
        "type": "Point",
        "coordinates": [
          16.6042881,
          49.2041179
        ]
      },
      "properties": {
        "@type": "node",
        "@id": 12071934482,
        "@url": "https://www.openstreetmap.org/node/12071934482",
        "addr:city": "Brno",
        "addr:housenumber": "17b",
        "addr:postcode": "60200",
        "addr:street": "Cihlářská",
        "bulk_purchase": "yes",
        "currency:XBT": "yes",
        "name": "Čočkův BioJarmark",
        "opening_hours": "Tu-Fr 16:30-19:00",
        "organic": "only",
        "payment:lightning": "yes",
        "payment:onchain": "no",
        "shop": "convenience",
        "survey:date": "2025-10-23",
        "website": "http://cockuvbiojarmark.org/"
      }
    },
    {
      "type": "Feature",
      "geometry": {
        "type": "Point",
        "coordinates": [
          16.8779429,
          49.1539765
        ]
      },
      "properties": {
        "@type": "node",
        "@id": 12177084621,
        "@url": "https://www.openstreetmap.org/node/12177084621",
        "bulk_purchase": "only",
        "contact:facebook": "https://www.facebook.com/obchodbezobalu",
        "name": "Dokola",
        "opening_hours": "Mo-Fr 09:00-17:00; Sa 09:00-11:00",
        "shop": "convenience"
      }
    },
    {
      "type": "Feature",
      "geometry": {
        "type": "LineString",
        "coordinates": [
          [
            16.6415889,
            49.3606834
          ],
          [
            16.6417427,
            49.360731
          ],
          [
            16.6417438,
            49.3607297
          ],
          [
            16.6417462,
            49.3607306
          ],
          [
            16.6417985,
            49.3606563
          ],
          [
            16.6416424,
            49.3606076
          ],
          [
            16.6415889,
            49.3606834
          ]
        ]
      },
      "properties": {
        "@type": "way",
        "@id": 253974427,
        "@url": "https://www.openstreetmap.org/way/253974427",
        "amenity": "cafe",
        "building": "commercial",
        "building:ruian:type": "10",
        "bulk_purchase": "yes",
        "email": "uvlacku@email.cz",
        "name": "U Vláčku",
        "opening_hours": "Mo-Fr 07:00-19:00; Sa 09:00-12:00",
        "payment:diners_club": "yes",
        "payment:discover_card": "yes",
        "payment:jcb": "yes",
        "payment:maestro": "yes",
        "payment:mastercard": "yes",
        "payment:visa": "yes",
        "payment:visa_debit": "yes",
        "payment:visa_electron": "yes",
        "ref:ruian:building": "15114881",
        "shop": "health_food",
        "smoking": "no",
        "source": "cuzk:ruian",
        "website": "https://www.facebook.com/UVlacku"
      }
    },
    {
      "type": "Feature",
      "geometry": {
        "type": "LineString",
        "coordinates": [
          [
            16.6413465,
            49.3606647
          ],
          [
            16.6411776,
            49.3605451
          ],
          [
            16.6411013,
            49.3605926
          ],
          [
            16.6410984,
            49.3605983
          ],
          [
            16.6410981,
            49.3606043
          ],
          [
            16.6411008,
            49.3606095
          ],
          [
            16.6411071,
            49.3606145
          ],
          [
            16.6413142,
            49.3606928
          ],
          [
            16.6413221,
            49.3606941
          ],
          [
            16.64133,
            49.3606942
          ],
          [
            16.641339,
            49.3606921
          ],
          [
            16.6413461,
            49.3606885
          ],
          [
            16.6413505,
            49.3606833
          ],
          [
            16.6413528,
            49.3606776
          ],
          [
            16.6413517,
            49.3606713
          ],
          [
            16.6413465,
            49.3606647
          ]
        ]
      },
      "properties": {
        "@type": "way",
        "@id": 253974442,
        "@url": "https://www.openstreetmap.org/way/253974442",
        "amenity": "cafe",
        "building": "yes",
        "building:levels": "2",
        "building:ruian:type": "20",
        "bulk_purchase": "yes",
        "email": "info@julies-bezobalu.cz",
        "name": "Julie's cafe",
        "opening_hours": "Mo-Fr 08:00-18:00; Su 13:00-18:00",
        "payment:maestro": "yes",
        "payment:mastercard": "yes",
        "payment:visa": "yes",
        "payment:visa_debit": "yes",
        "payment:visa_electron": "yes",
        "phone": "+420 773 486 652",
        "ref:ruian:building": "54361087",
        "shop": "health_food",
        "source": "cuzk:ruian",
        "start_date": "2013-08-05",
        "website": "https://www.julies-bezobalu.cz/"
      }
    },
    {
      "type": "Feature",
      "geometry": {
        "type": "MultiPolygon",
        "coordinates": [
          [
            [
              [
                16.6415889,
                49.3606834
              ],
              [
                16.6416424,
                49.3606076
              ],
              [
                16.6417985,
                49.3606563
              ],
              [
                16.6417462,
                49.3607306
              ],
              [
                16.6417438,
                49.3607297
              ],
              [
                16.6417427,
                49.360731
              ],
              [
                16.6415889,
                49.3606834
              ]
            ]
          ]
        ]
      },
      "properties": {
        "@type": "way",
        "@id": 253974427,
        "@url": "https://www.openstreetmap.org/way/253974427",
        "amenity": "cafe",
        "building": "commercial",
        "building:ruian:type": "10",
        "bulk_purchase": "yes",
        "email": "uvlacku@email.cz",
        "name": "U Vláčku",
        "opening_hours": "Mo-Fr 07:00-19:00; Sa 09:00-12:00",
        "payment:diners_club": "yes",
        "payment:discover_card": "yes",
        "payment:jcb": "yes",
        "payment:maestro": "yes",
        "payment:mastercard": "yes",
        "payment:visa": "yes",
        "payment:visa_debit": "yes",
        "payment:visa_electron": "yes",
        "ref:ruian:building": "15114881",
        "shop": "health_food",
        "smoking": "no",
        "source": "cuzk:ruian",
        "website": "https://www.facebook.com/UVlacku"
      }
    },
    {
      "type": "Feature",
      "geometry": {
        "type": "MultiPolygon",
        "coordinates": [
          [
            [
              [
                16.6410981,
                49.3606043
              ],
              [
                16.6410984,
                49.3605983
              ],
              [
                16.6411013,
                49.3605926
              ],
              [
                16.6411776,
                49.3605451
              ],
              [
                16.6413465,
                49.3606647
              ],
              [
                16.6413517,
                49.3606713
              ],
              [
                16.6413528,
                49.3606776
              ],
              [
                16.6413505,
                49.3606833
              ],
              [
                16.6413461,
                49.3606885
              ],
              [
                16.641339,
                49.3606921
              ],
              [
                16.64133,
                49.3606942
              ],
              [
                16.6413221,
                49.3606941
              ],
              [
                16.6413142,
                49.3606928
              ],
              [
                16.6411071,
                49.3606145
              ],
              [
                16.6411008,
                49.3606095
              ],
              [
                16.6410981,
                49.3606043
              ]
            ]
          ]
        ]
      },
      "properties": {
        "@type": "way",
        "@id": 253974442,
        "@url": "https://www.openstreetmap.org/way/253974442",
        "amenity": "cafe",
        "building": "yes",
        "building:levels": "2",
        "building:ruian:type": "20",
        "bulk_purchase": "yes",
        "email": "info@julies-bezobalu.cz",
        "name": "Julie's cafe",
        "opening_hours": "Mo-Fr 08:00-18:00; Su 13:00-18:00",
        "payment:maestro": "yes",
        "payment:mastercard": "yes",
        "payment:visa": "yes",
        "payment:visa_debit": "yes",
        "payment:visa_electron": "yes",
        "phone": "+420 773 486 652",
        "ref:ruian:building": "54361087",
        "shop": "health_food",
        "source": "cuzk:ruian",
        "start_date": "2013-08-05",
        "website": "https://www.julies-bezobalu.cz/"
      }
    }
  ]
}
