{"type":"FeatureCollection","features":[
{"type":"Feature","geometry":{"type":"LineString","coordinates":[[14.4421657,50.0983349],[14.4427448,50.0982943],[14.4430114,50.0982887],[14.4430583,50.0982875]]},"properties":{"@type":"way","@id":4648741,"@url":"https://www.openstreetmap.org/way/4648741","check_date":"2022-12-01","cycleway:right":"soft_lane","highway":"tertiary","lanes":"1","name":"Bubenské nábřeží","name:de":"Bubner Ufer","oneway":"yes","surface":"asphalt","vehicle:conditional":"no @ (20221215-20230131)"}},
{"type":"Feature","geometry":{"type":"LineString","coordinates":[[14.7214923,49.2493421],[14.7233626,49.2493208]]},"properties":{"@type":"way","@id":26380573,"@url":"https://www.openstreetmap.org/way/26380573","highway":"residential","name":"Květnová","vehicle:conditional":"no @ (20141026-20991231)"}},
{"type":"Feature","geometry":{"type":"LineString","coordinates":[[14.7187525,49.2100682],[14.7188412,49.2101631],[14.7189466,49.2102438],[14.7190793,49.2103173],[14.7192179,49.2103719],[14.7193604,49.2104103],[14.7195099,49.2104346],[14.7196705,49.2104444],[14.7198471,49.2104364],[14.7199518,49.2104199],[14.7201127,49.2103976],[14.7206603,49.210288]]},"properties":{"@type":"way","@id":330199590,"@url":"https://www.openstreetmap.org/way/330199590","cycleway:both":"no","highway":"tertiary","lane_markings":"no","ref":"00351","surface":"asphalt","vehicle:conditional":"no @ (20141107-20991231)"}},
{"type":"Feature","geometry":{"type":"LineString","coordinates":[[14.4432407,50.0984137],[14.4431846,50.0984877],[14.4431788,50.0985529]]},"properties":{"@type":"way","@id":405993286,"@url":"https://www.openstreetmap.org/way/405993286","check_date":"2022-12-01","highway":"tertiary","lanes":"1","lit":"yes","maxspeed":"50","maxspeed:type":"CZ:urban","name":"Bubenské nábřeží","name:de":"Bubner Ufer","oneway":"yes","surface":"asphalt","vehicle:conditional":"no @ (20221215-20230131)"}},
{"type":"Feature","geometry":{"type":"LineString","coordinates":[[14.4430583,50.0982875],[14.4432808,50.098278],[14.4434534,50.0982746],[14.4452453,50.0982207],[14.4453201,50.0982206],[14.4453947,50.0982241],[14.4454926,50.0982345]]},"properties":{"@type":"way","@id":1090769521,"@url":"https://www.openstreetmap.org/way/1090769521","check_date":"2022-12-01","highway":"tertiary","lanes":"1","maxspeed":"30","maxspeed:type":"sign","name":"Bubenské nábřeží","name:de":"Bubner Ufer","oneway":"yes","surface":"asphalt","vehicle:conditional":"no @ (20221215-20230131)"}},
{"type":"Feature","geometry":{"type":"LineString","coordinates":[[14.4455328,50.0983064],[14.4451244,50.0983219],[14.4441012,50.0983565],[14.4434767,50.0983721],[14.443305,50.0983868],[14.4432407,50.0984137]]},"properties":{"@type":"way","@id":1122656228,"@url":"https://www.openstreetmap.org/way/1122656228","check_date":"2022-12-01","highway":"tertiary","lanes":"1","lit":"yes","maxspeed":"50","maxspeed:type":"CZ:urban","name":"Bubenské nábřeží","name:de":"Bubner Ufer","oneway":"yes","surface":"asphalt","vehicle:conditional":"no @ (20221215-20230131)"}}
]}
