{
  "type": "FeatureCollection",
  "features": [
    {
      "type": "Feature",
      "geometry": {
        "type": "Point",
        "coordinates": [
          14.4472919,
          50.0761616
        ]
      },
      "properties": {
        "@type": "node",
        "@id": 296694928,
        "@url": "https://www.openstreetmap.org/node/296694928",
        "addr:city": "Praha",
        "addr:conscriptionnumber": "2315",
        "addr:country": "CZ",
        "addr:housenumber": "2315/62",
        "addr:place": "Vinohrady",
        "addr:postcode": "12000",
        "addr:street": "Slezská",
        "addr:streetnumber": "62",
        "addr:suburb": "Praha 2",
        "amenity": "cafe",
        "contact:email": "info@momentcafe.cz",
        "contact:facebook": "https://www.facebook.com/veganmoment/",
        "contact:phone": "+420 775 431 440",
        "contact:website": "http://cafemoment.cz/",
        "cuisine": "regional",
        "diet:vegan": "only",
        "diet:vegetarian": "only",
        "indoor_seating": "yes",
        "name": "Moment Cafe",
        "opening_hours": "Mo-Fr 09:00-22:00",
        "outdoor_seating": "yes",
        "source:addr": "cuzk:ruian",
        "source:loc": "survey",
        "wheelchair": "yes"
      }
    },
    {
      "type": "Feature",
      "geometry": {
        "type": "Point",
        "coordinates": [
          15.814265,
          50.6262238
        ]
      },
      "properties": {
        "@type": "node",
        "@id": 656461057,
        "@url": "https://www.openstreetmap.org/node/656461057",
        "addr:conscriptionnumber": "464",
        "addr:country": "CZ",
        "addr:housenumber": "464",
        "addr:place": "Svoboda nad Úpou",
        "addr:postcode": "54224",
        "addr:street": "Horská",
        "diet:vegan": "only",
        "diet:vegetarian": "only",
        "guest_house": "bed_and_breakfast",
        "name": "VegZion",
        "ref:ruian:addr": "23138165",
        "tourism": "guest_house",
        "website": "https://www.vegzion.cz/"
      }
    },
    {
      "type": "Feature",
      "geometry": {
        "type": "Point",
        "coordinates": [
          14.3981345,
          50.1009425
        ]
      },
      "properties": {
        "@type": "node",
        "@id": 1426550114,
        "@url": "https://www.openstreetmap.org/node/1426550114",
        "addr:city": "Praha 6",
        "addr:housenumber": "714/30",
        "addr:postcode": "16000",
        "addr:street": "Národní obrany",
        "amenity": "fast_food",
        "check_date": "2023-09-22",
        "cuisine": "czech",
        "diet:vegan": "only",
        "diet:vegetarian": "only",
        "drive_through": "no",
        "name": "Restaurace Country Life Dejvice",
        "opening_hours": "Mo-Th 10:00-18:00; Fr 10:00-16:30; PH off",
        "operator": "Country life",
        "outdoor_seating": "yes",
        "payment:credit_cards": "yes",
        "payment:debit_cards": "yes",
        "website": "https://www.countrylife.cz/mo-dejvice-restaurace"
      }
    },
    {
      "type": "Feature",
      "geometry": {
        "type": "Point",
        "coordinates": [
          14.3982453,
          50.0885168
        ]
      },
      "properties": {
        "@type": "node",
        "@id": 3393796268,
        "@url": "https://www.openstreetmap.org/node/3393796268",
        "Floor": "2",
        "addr:city": "Praha",
        "addr:housenumber": "36",
        "addr:postcode": "11800",
        "addr:street": "Nerudova",
        "amenity": "restaurant",
        "check_date": "2025-04-21",
        "diet:gluten_free": "yes",
        "diet:vegan": "only",
        "diet:vegetarian": "only",
        "internet_access": "yes",
        "name": "Vegan's Prague",
        "opening_hours": "Mo-Su 11:30-21:30",
        "outdoor_seating": "yes",
        "payment:cash": "yes",
        "payment:credit_cards": "yes",
        "payment:debit_cards": "yes",
        "website": "https://www.vegansprague.cz/",
        "wheelchair": "no"
      }
    },
    {
      "type": "Feature",
      "geometry": {
        "type": "Point",
        "coordinates": [
          14.4335704,
          50.0998829
        ]
      },
      "properties": {
        "@type": "node",
        "@id": 3725278901,
        "@url": "https://www.openstreetmap.org/node/3725278901",
        "addr:city": "Praha",
        "addr:housenumber": "18",
        "addr:postcode": "17000",
        "addr:street": "Dukelských hrdinů",
        "amenity": "restaurant",
        "brand": "Loving Hut",
        "brand:wikidata": "Q3491655",
        "brand:wikipedia": "en:Loving Hut",
        "cuisine": "international",
        "diet:vegan": "only",
        "diet:vegetarian": "only",
        "name": "Loving Hut",
        "opening_hours": "Mo-Sa 11:00-21:00",
        "phone": "+420 222 950 768",
        "website": "https://www.lovinghut.cz/"
      }
    },
    {
      "type": "Feature",
      "geometry": {
        "type": "Point",
        "coordinates": [
          14.4342614,
          50.0900724
        ]
      },
      "properties": {
        "@type": "node",
        "@id": 3725289411,
        "@url": "https://www.openstreetmap.org/node/3725289411",
        "addr:city": "Praha",
        "addr:housenumber": "25",
        "addr:postcode": "11000",
        "addr:street": "Na Poříčí",
        "amenity": "restaurant",
        "brand": "Loving Hut",
        "brand:wikidata": "Q3491655",
        "brand:wikipedia": "en:Loving Hut",
        "contact:phone": "+420 775 999 376",
        "contact:website": "https://www.lovinghut.cz",
        "cuisine": "international",
        "diet:vegan": "only",
        "diet:vegetarian": "only",
        "name": "Loving Hut",
        "note": "otevírací doba??? bral jsem to podle toho, co mají na webu",
        "opening_hours": "Mo-Fr 11:00-21:00; Sa-Su 12:00-21:00"
      }
    },
    {
      "type": "Feature",
      "geometry": {
        "type": "Point",
        "coordinates": [
          14.4072519,
          50.076205
        ]
      },
      "properties": {
        "@type": "node",
        "@id": 3725310178,
        "@url": "https://www.openstreetmap.org/node/3725310178",
        "addr:city": "Praha",
        "addr:housenumber": "19",
        "addr:postcode": "15000",
        "addr:street": "Zborovská",
        "amenity": "restaurant",
        "brand": "Loving Hut",
        "brand:wikidata": "Q3491655",
        "brand:wikipedia": "en:Loving Hut",
        "cuisine": "international",
        "diet:vegan": "only",
        "diet:vegetarian": "only",
        "name": "Loving Hut",
        "opening_hours": "Mo-Sa 11:00-21:00",
        "phone": "+420 776 569 569",
        "website": "https://www.lovinghut.cz/"
      }
    },
    {
      "type": "Feature",
      "geometry": {
        "type": "Point",
        "coordinates": [
          14.4055853,
          50.0698971
        ]
      },
      "properties": {
        "@type": "node",
        "@id": 4157881298,
        "@url": "https://www.openstreetmap.org/node/4157881298",
        "addr:housenumber": "102",
        "addr:street": "Nádražní",
        "amenity": "restaurant",
        "diet:vegan": "only",
        "diet:vegetarian": "only",
        "email": "info@pastva-restaurant.cz",
        "name": "Pastva",
        "opening_hours": "Mo-Sa 11:00-23:00",
        "phone": "+420 736 115 336",
        "website": "https://www.pastva-restaurant.cz"
      }
    },
    {
      "type": "Feature",
      "geometry": {
        "type": "Point",
        "coordinates": [
          16.6110428,
          49.2027317
        ]
      },
      "properties": {
        "@type": "node",
        "@id": 4833255717,
        "@url": "https://www.openstreetmap.org/node/4833255717",
        "addr:city": "Brno",
        "addr:housenumber": "18",
        "addr:postcode": "60200",
        "addr:street": "třída Kpt. Jaroše",
        "amenity": "cafe",
        "diet:vegan": "only",
        "diet:vegetarian": "only",
        "name": "Tři ocásci",
        "opening_hours": "Mo-Th 17:00-23:00",
        "outdoor_seating": "yes",
        "phone": "+420 775 702 778",
        "website": "https://triocasci.cz/",
        "wheelchair": "no"
      }
    },
    {
      "type": "Feature",
      "geometry": {
        "type": "Point",
        "coordinates": [
          14.4041903,
          50.0969496
        ]
      },
      "properties": {
        "@type": "node",
        "@id": 5713651736,
        "@url": "https://www.openstreetmap.org/node/5713651736",
        "addr:city": "Praha 6",
        "addr:housenumber": "201/119",
        "addr:postcode": "16000",
        "addr:street": "Milady Horákové",
        "amenity": "restaurant",
        "contact:facebook": "https://www.facebook.com/veganiorestaurace",
        "cuisine": "vietnamese",
        "delivery": "yes",
        "description": "Veganský bufet, fresh juice, smoothie, veganské dorty.",
        "diet:vegan": "only",
        "diet:vegetarian": "only",
        "internet_access": "wlan",
        "name": "Veganio",
        "opening_hours": "Mo-Fr 10:30-20:30; Sa 11:00-20:30",
        "outdoor_seating": "no",
        "payment:cash": "yes",
        "payment:contactless": "yes",
        "payment:credit_cards": "yes",
        "payment:debit_cards": "yes",
        "phone": "+420 775 605320",
        "takeaway": "yes",
        "wheelchair": "yes"
      }
    },
    {
      "type": "Feature",
      "geometry": {
        "type": "Point",
        "coordinates": [
          14.4202133,
          50.0857235
        ]
      },
      "properties": {
        "@type": "node",
        "@id": 5854650663,
        "@url": "https://www.openstreetmap.org/node/5854650663",
        "addr:city": "Praha 1",
        "addr:housenumber": "463/15",
        "addr:postcode": "11000",
        "addr:street": "Melantrichova",
        "amenity": "restaurant",
        "cuisine": "czech",
        "diet:vegan": "only",
        "diet:vegetarian": "only",
        "dog": "no",
        "email": "restaurace@countrylife.cz",
        "name": "Restaurace Country Life Melantrichova",
        "opening_hours": "Mo-Th 10:30-19:30, 09:00-18:00; Fr 10:30-18:00; Su 12:00-18:00",
        "operator": "Country Life",
        "outdoor_seating": "yes",
        "phone": "+420 224 213 366",
        "website": "https://www.countrylife.cz/restaurace-country-life-melantrichova-praha",
        "wheelchair": "yes"
      }
    },
    {
      "type": "Feature",
      "geometry": {
        "type": "Point",
        "coordinates": [
          14.4286903,
          50.0772723
        ]
      },
      "properties": {
        "@type": "node",
        "@id": 7011417903,
        "@url": "https://www.openstreetmap.org/node/7011417903",
        "addr:housenumber": "45",
        "addr:street": "Žitná",
        "amenity": "restaurant",
        "capacity": "40",
        "check_date": "2025-12-11",
        "check_date:currency:XBT": "2025-05-14",
        "cuisine": "pasta;breakfast;sandwich;cake;burger;tapas",
        "currency:XBT": "yes",
        "description": "Vegan-only bistro and café, offering breakfast and full meals",
        "diet:vegan": "only",
        "diet:vegetarian": "only",
        "internet_access": "wlan",
        "internet_access:fee": "customers",
        "internet_access:ssid": "Salvator",
        "name": "Palo Verde",
        "opening_hours": "Mo-Su 07:30-22:30",
        "payment:lightning:companion_app_url": "https://www.qerko.com",
        "payment:lightning:requires_companion_app": "yes",
        "payment:maestro": "yes",
        "payment:mastercard": "yes",
        "payment:v_pay": "yes",
        "payment:visa": "yes",
        "phone": "+420775285430",
        "reservation": "yes",
        "toilets": "yes",
        "website": "https://www.paloverdebistro.cz/",
        "wheelchair": "yes"
      }
    },
    {
      "type": "Feature",
      "geometry": {
        "type": "Point",
        "coordinates": [
          14.4202213,
          50.0814952
        ]
      },
      "properties": {
        "@type": "node",
        "@id": 8184966365,
        "@url": "https://www.openstreetmap.org/node/8184966365",
        "addr:housenumber": "2121/22",
        "addr:postcode": "11000",
        "addr:street": "Spálená",
        "amenity": "restaurant",
        "brand": "Loving Hut",
        "brand:wikidata": "Q3491655",
        "brand:wikipedia": "en:Loving Hut",
        "cuisine": "international",
        "diet:vegan": "only",
        "diet:vegetarian": "only",
        "fixme": "Pls move node to the correct location",
        "name": "Loving Hut",
        "phone": "+420 774 215 088"
      }
    },
    {
      "type": "Feature",
      "geometry": {
        "type": "Point",
        "coordinates": [
          14.4736865,
          48.9767075
        ]
      },
      "properties": {
        "@type": "node",
        "@id": 9423662004,
        "@url": "https://www.openstreetmap.org/node/9423662004",
        "amenity": "restaurant",
        "contact:facebook": "https://www.facebook.com/Slunce-1642624969342001/",
        "cuisine": "bio",
        "diet:vegan": "only",
        "diet:vegetarian": "yes",
        "drink:beer": "no",
        "email": "info@restaurantslunce.cz",
        "indoor_seating": "yes",
        "mobile": "+420 777 127 260",
        "name": "Slunce",
        "opening_hours": "Mo-Fr 10:30-14:00",
        "outdoor_seating": "sidewalk",
        "phone": "+420 380 427 580",
        "website": "https://www.restaurantslunce.cz/",
        "wheelchair": "no"
      }
    },
    {
      "type": "Feature",
      "geometry": {
        "type": "Point",
        "coordinates": [
          14.4077084,
          50.0655366
        ]
      },
      "properties": {
        "@type": "node",
        "@id": 10049078218,
        "@url": "https://www.openstreetmap.org/node/10049078218",
        "amenity": "restaurant",
        "diet:vegan": "only",
        "diet:vegetarian": "only",
        "indoor_seating": "yes",
        "name": "Eaternia",
        "opening_hours": "Mo-Sa 11:30-21:00",
        "outdoor_seating": "yes",
        "payment:credit_cards": "yes",
        "payment:debit_cards": "yes",
        "website": "https://facebook.com/eterniasmichov/",
        "wheelchair": "no"
      }
    },
    {
      "type": "Feature",
      "geometry": {
        "type": "Point",
        "coordinates": [
          14.4172451,
          50.0784613
        ]
      },
      "properties": {
        "@type": "node",
        "@id": 10921303605,
        "@url": "https://www.openstreetmap.org/node/10921303605",
        "addr:housenumber": "7",
        "addr:street": "Křemencova",
        "amenity": "restaurant",
        "check_date": "2025-07-02",
        "contact:facebook": "https://www.facebook.com/RestauraceStrecha",
        "contact:instagram": "https://www.instagram.com/restaurace_strecha",
        "description": "All vegan restaurant, that employs people who have experiences homelessness or served a sentence.",
        "diet:vegan": "only",
        "diet:vegetarian": "only",
        "email": "info@restauracestrecha.cz",
        "internet_access": "wlan",
        "internet_access:fee": "customers",
        "name": "Restaurace Střecha",
        "opening_hours": "Mo-Sa 11:00-24:00",
        "payment:cash": "yes",
        "payment:credit_cards": "yes",
        "payment:visa": "yes",
        "phone": "+420 737 048 487",
        "website": "https://www.restauracestrecha.cz"
      }
    },
    {
      "type": "Feature",
      "geometry": {
        "type": "Point",
        "coordinates": [
          14.2873121,
          50.0542019
        ]
      },
      "properties": {
        "@type": "node",
        "@id": 13568182222,
        "@url": "https://www.openstreetmap.org/node/13568182222",
        "amenity": "restaurant",
        "diet:vegan": "only",
        "diet:vegetarian": "yes",
        "indoor_seating": "yes",
        "name": "Loving Hut",
        "outdoor_seating": "no"
      }
    },
    {
      "type": "Feature",
      "geometry": {
        "type": "LineString",
        "coordinates": [
          [
            14.4030687,
            50.0727049
          ],
          [
            14.4030797,
            50.0726623
          ],
          [
            14.4030843,
            50.0726447
          ],
          [
            14.4029215,
            50.0726365
          ],
          [
            14.402812,
            50.0726335
          ],
          [
            14.4025886,
            50.0726217
          ],
          [
            14.4025767,
            50.0726843
          ],
          [
            14.4030687,
            50.0727049
          ]
        ]
      },
      "properties": {
        "@type": "way",
        "@id": 651730185,
        "@url": "https://www.openstreetmap.org/way/651730185",
        "addr:city": "Praha 5",
        "addr:housename": "OC Nový Smíchov",
        "addr:housenumber": "8",
        "addr:postcode": "150 00",
        "addr:street": "Plzeňská",
        "air_conditioning": "yes",
        "amenity": "restaurant",
        "brand": "Loving Hut",
        "brand:wikidata": "Q3491655",
        "brand:wikipedia": "en:Loving Hut",
        "cuisine": "international",
        "diet:vegan": "only",
        "diet:vegetarian": "only",
        "indoor": "room",
        "indoor_seating": "yes",
        "level": "2",
        "name": "Loving Hut",
        "opening_hours": "Mo-Su 09:00-21:00",
        "outdoor_seating": "no",
        "phone": "+420 773 904 988",
        "room": "restaurant",
        "source": "local_knowledge",
        "website": "https://www.lovinghut.cz/",
        "wheelchair": "yes"
      }
    },
    {
      "type": "Feature",
      "geometry": {
        "type": "MultiPolygon",
        "coordinates": [
          [
            [
              [
                14.4025767,
                50.0726843
              ],
              [
                14.4025886,
                50.0726217
              ],
              [
                14.402812,
                50.0726335
              ],
              [
                14.4029215,
                50.0726365
              ],
              [
                14.4030843,
                50.0726447
              ],
              [
                14.4030797,
                50.0726623
              ],
              [
                14.4030687,
                50.0727049
              ],
              [
                14.4025767,
                50.0726843
              ]
            ]
          ]
        ]
      },
      "properties": {
        "@type": "way",
        "@id": 651730185,
        "@url": "https://www.openstreetmap.org/way/651730185",
        "addr:city": "Praha 5",
        "addr:housename": "OC Nový Smíchov",
        "addr:housenumber": "8",
        "addr:postcode": "150 00",
        "addr:street": "Plzeňská",
        "air_conditioning": "yes",
        "amenity": "restaurant",
        "brand": "Loving Hut",
        "brand:wikidata": "Q3491655",
        "brand:wikipedia": "en:Loving Hut",
        "cuisine": "international",
        "diet:vegan": "only",
        "diet:vegetarian": "only",
        "indoor": "room",
        "indoor_seating": "yes",
        "level": "2",
        "name": "Loving Hut",
        "opening_hours": "Mo-Su 09:00-21:00",
        "outdoor_seating": "no",
        "phone": "+420 773 904 988",
        "room": "restaurant",
        "source": "local_knowledge",
        "website": "https://www.lovinghut.cz/",
        "wheelchair": "yes"
      }
    }
  ]
}
