{
  "type": "FeatureCollection",
  "features": [
    {
      "type": "Feature",
      "geometry": {
        "type": "Point",
        "coordinates": [
          14.5775158,
          51.0038983
        ]
      },
      "properties": {
        "amenity": "telephone"
      }
    },
    {
      "type": "Feature",
      "geometry": {
        "type": "Point",
        "coordinates": [
          14.5031084,
          48.6153501
        ]
      },
      "properties": {
        "amenity": "telephone",
        "created_by": "Potlatch 0.9c"
      }
    },
    {
      "type": "Feature",
      "geometry": {
        "type": "Point",
        "coordinates": [
          13.6249951,
          49.067797
        ]
      },
      "properties": {
        "amenity": "telephone",
        "operator": "Telefónica O2"
      }
    },
    {
      "type": "Feature",
      "geometry": {
        "type": "Point",
        "coordinates": [
          13.8031441,
          48.7811509
        ]
      },
      "properties": {
        "amenity": "telephone",
        "operator": "Deutsche Telekom AG"
      }
    },
    {
      "type": "Feature",
      "geometry": {
        "type": "Point",
        "coordinates": [
          14.4605975,
          50.0421384
        ]
      },
      "properties": {
        "note": "dva telefonní automaty",
        "amenity": "telephone",
        "operator": "Telefónica O2"
      }
    },
    {
      "type": "Feature",
      "geometry": {
        "type": "Point",
        "coordinates": [
          14.7580356,
          50.8317626
        ]
      },
      "properties": {
        "amenity": "telephone",
        "operator": "Deutsche Telekom AG"
      }
    },
    {
      "type": "Feature",
      "geometry": {
        "type": "Point",
        "coordinates": [
          14.8653516,
          49.565257
        ]
      },
      "properties": {
        "amenity": "telephone",
        "operator": "Telefónica O2"
      }
    },
    {
      "type": "Feature",
      "geometry": {
        "type": "Point",
        "coordinates": [
          14.3908564,
          50.1004921
        ]
      },
      "properties": {
        "note": "dvě telefonní budky vedle sebe",
        "amenity": "telephone",
        "operator": "Telefónica O2"
      }
    },
    {
      "type": "Feature",
      "geometry": {
        "type": "Point",
        "coordinates": [
          14.4041472,
          50.0878155
        ]
      },
      "properties": {
        "amenity": "telephone",
        "note": "2 automaty vedle sebe",
        "operator": "O2"
      }
    },
    {
      "type": "Feature",
      "geometry": {
        "type": "Point",
        "coordinates": [
          14.525966,
          50.0304831
        ]
      },
      "properties": {
        "note": "4 telefonní automaty vedle sebe",
        "amenity": "telephone",
        "operator": "Telefónica O2"
      }
    },
    {
      "type": "Feature",
      "geometry": {
        "type": "Point",
        "coordinates": [
          14.4261933,
          50.0754765
        ]
      },
      "properties": {
        "amenity": "telephone",
        "operator": "Telefónica O2"
      }
    },
    {
      "type": "Feature",
      "geometry": {
        "type": "Point",
        "coordinates": [
          14.446215,
          50.0847114
        ]
      },
      "properties": {
        "note": "2 telefonní budky vedle sebe",
        "amenity": "telephone",
        "operator": "Telefónica O2"
      }
    },
    {
      "type": "Feature",
      "geometry": {
        "type": "Point",
        "coordinates": [
          14.4689283,
          50.0887399
        ]
      },
      "properties": {
        "amenity": "telephone",
        "operator": "Telefónica O2"
      }
    },
    {
      "type": "Feature",
      "geometry": {
        "type": "Point",
        "coordinates": [
          14.46998,
          50.0872414
        ]
      },
      "properties": {
        "source": "CZ:IPRPraha:ortofoto",
        "amenity": "telephone",
        "operator": "Telefónica O2"
      }
    },
    {
      "type": "Feature",
      "geometry": {
        "type": "Point",
        "coordinates": [
          14.5118547,
          50.0922665
        ]
      },
      "properties": {
        "amenity": "telephone",
        "operator": "Telefónica O2"
      }
    },
    {
      "type": "Feature",
      "geometry": {
        "type": "Point",
        "coordinates": [
          14.4957845,
          50.0948215
        ]
      },
      "properties": {
        "phone": "+420266310920",
        "amenity": "telephone",
        "operator": "Telefónica O2"
      }
    },
    {
      "type": "Feature",
      "geometry": {
        "type": "Point",
        "coordinates": [
          14.4731739,
          50.1032603
        ]
      },
      "properties": {
        "note": "2 automady dole v podchodu",
        "level": "-1",
        "amenity": "telephone",
        "operator": "Telefónica O2"
      }
    },
    {
      "type": "Feature",
      "geometry": {
        "type": "Point",
        "coordinates": [
          14.4095392,
          50.0909727
        ]
      },
      "properties": {
        "note": "automat dole v podchodu",
        "phone": "+420257530376",
        "amenity": "telephone",
        "operator": "Telefónica O2"
      }
    },
    {
      "type": "Feature",
      "geometry": {
        "type": "Point",
        "coordinates": [
          14.396819,
          50.0999324
        ]
      },
      "properties": {
        "phone": "+420224312792",
        "amenity": "telephone",
        "operator": "Telefónica O2"
      }
    },
    {
      "type": "Feature",
      "geometry": {
        "type": "Point",
        "coordinates": [
          14.4499596,
          50.0842309
        ]
      },
      "properties": {
        "note": "2 telefonní budky vedle sebe",
        "amenity": "telephone",
        "operator": "Telefónica O2"
      }
    },
    {
      "type": "Feature",
      "geometry": {
        "type": "Point",
        "coordinates": [
          14.3639206,
          50.0987337
        ]
      },
      "properties": {
        "amenity": "telephone",
        "operator": "Telefónica O2"
      }
    },
    {
      "type": "Feature",
      "geometry": {
        "type": "Point",
        "coordinates": [
          14.3702212,
          50.0989114
        ]
      },
      "properties": {
        "amenity": "telephone",
        "operator": "Telefónica O2"
      }
    },
    {
      "type": "Feature",
      "geometry": {
        "type": "Point",
        "coordinates": [
          14.3903631,
          50.1031352
        ]
      },
      "properties": {
        "amenity": "telephone",
        "operator": "Telefónica O2"
      }
    },
    {
      "type": "Feature",
      "geometry": {
        "type": "Point",
        "coordinates": [
          14.5286731,
          50.0310652
        ]
      },
      "properties": {
        "amenity": "telephone",
        "operator": "Telefónica O2"
      }
    },
    {
      "type": "Feature",
      "geometry": {
        "type": "Point",
        "coordinates": [
          14.4335958,
          50.0987436
        ]
      },
      "properties": {
        "note": "2 budky vedle sebe",
        "amenity": "telephone",
        "operator": "Telefónica O2"
      }
    },
    {
      "type": "Feature",
      "geometry": {
        "type": "Point",
        "coordinates": [
          14.4256012,
          50.0812322
        ]
      },
      "properties": {
        "amenity": "telephone",
        "operator": "Telefónica O2"
      }
    },
    {
      "type": "Feature",
      "geometry": {
        "type": "Point",
        "coordinates": [
          14.4923626,
          50.106678
        ]
      },
      "properties": {
        "phone": "+420266310530",
        "amenity": "telephone",
        "operator": "Telefónica O2"
      }
    },
    {
      "type": "Feature",
      "geometry": {
        "type": "Point",
        "coordinates": [
          13.7617622,
          50.7365157
        ]
      },
      "properties": {
        "amenity": "telephone"
      }
    },
    {
      "type": "Feature",
      "geometry": {
        "type": "Point",
        "coordinates": [
          14.4912843,
          50.1060236
        ]
      },
      "properties": {
        "amenity": "telephone",
        "operator": "Telefónica O2"
      }
    },
    {
      "type": "Feature",
      "geometry": {
        "type": "Point",
        "coordinates": [
          14.4041951,
          50.0226318
        ]
      },
      "properties": {
        "amenity": "telephone",
        "operator": "Telefónica O2"
      }
    },
    {
      "type": "Feature",
      "geometry": {
        "type": "Point",
        "coordinates": [
          14.4737257,
          50.1021123
        ]
      },
      "properties": {
        "note": "2 telefonní budky vedle sebe",
        "amenity": "telephone",
        "operator": "Telefónica O2"
      }
    },
    {
      "type": "Feature",
      "geometry": {
        "type": "Point",
        "coordinates": [
          14.4501174,
          50.1027765
        ]
      },
      "properties": {
        "note": "2 telefonní budky vedle sebe",
        "amenity": "telephone",
        "operator": "Telefónica O2"
      }
    },
    {
      "type": "Feature",
      "geometry": {
        "type": "Point",
        "coordinates": [
          14.4430636,
          50.0988702
        ]
      },
      "properties": {
        "amenity": "telephone",
        "operator": "Telefónica O2"
      }
    },
    {
      "type": "Feature",
      "geometry": {
        "type": "Point",
        "coordinates": [
          14.4331244,
          50.0578248
        ]
      },
      "properties": {
        "amenity": "telephone",
        "operator": "Telefónica O2"
      }
    },
    {
      "type": "Feature",
      "geometry": {
        "type": "Point",
        "coordinates": [
          14.3940943,
          50.1006148
        ]
      },
      "properties": {
        "note": "Telefonní automat, v podchodu pod zemí",
        "layer": "-1",
        "amenity": "telephone",
        "operator": "Telefónica O2"
      }
    },
    {
      "type": "Feature",
      "geometry": {
        "type": "Point",
        "coordinates": [
          14.444375,
          50.0770642
        ]
      },
      "properties": {
        "amenity": "telephone",
        "operator": "Telefónica O2"
      }
    },
    {
      "type": "Feature",
      "geometry": {
        "type": "Point",
        "coordinates": [
          14.3615513,
          50.0974718
        ]
      },
      "properties": {
        "amenity": "telephone",
        "operator": "Telefónica O2"
      }
    },
    {
      "type": "Feature",
      "geometry": {
        "type": "Point",
        "coordinates": [
          14.429939,
          50.0799226
        ]
      },
      "properties": {
        "amenity": "telephone",
        "operator": "Telefónica O2"
      }
    },
    {
      "type": "Feature",
      "geometry": {
        "type": "Point",
        "coordinates": [
          14.5580372,
          50.0452583
        ]
      },
      "properties": {
        "amenity": "telephone",
        "operator": "Telefónica O2"
      }
    },
    {
      "type": "Feature",
      "geometry": {
        "type": "Point",
        "coordinates": [
          14.4476378,
          50.0760654
        ]
      },
      "properties": {
        "amenity": "telephone",
        "operator": "Telefónica O2"
      }
    },
    {
      "type": "Feature",
      "geometry": {
        "type": "Point",
        "coordinates": [
          14.4491885,
          50.0753128
        ]
      },
      "properties": {
        "note": "dvě telefonní budky vedle sebe",
        "amenity": "telephone",
        "operator": "Telefónica O2"
      }
    },
    {
      "type": "Feature",
      "geometry": {
        "type": "Point",
        "coordinates": [
          14.4674952,
          49.9937267
        ]
      },
      "properties": {
        "note": "dvě telefonní budky vedle sebe",
        "amenity": "telephone",
        "operator": "Telefónica O2"
      }
    },
    {
      "type": "Feature",
      "geometry": {
        "type": "Point",
        "coordinates": [
          14.5602743,
          50.0398423
        ]
      },
      "properties": {
        "amenity": "telephone",
        "operator": "Telefónica O2",
        "payment:coins": "yes"
      }
    },
    {
      "type": "Feature",
      "geometry": {
        "type": "Point",
        "coordinates": [
          13.5752807,
          49.8764466
        ]
      },
      "properties": {
        "amenity": "telephone",
        "operator": "Telefónica O2",
        "payment:coins": "yes"
      }
    },
    {
      "type": "Feature",
      "geometry": {
        "type": "Point",
        "coordinates": [
          14.5468391,
          50.0981511
        ]
      },
      "properties": {
        "amenity": "telephone",
        "operator": "Telefónica O2"
      }
    },
    {
      "type": "Feature",
      "geometry": {
        "type": "Point",
        "coordinates": [
          14.4688113,
          49.9909907
        ]
      },
      "properties": {
        "amenity": "telephone",
        "operator": "Telefónica O2"
      }
    },
    {
      "type": "Feature",
      "geometry": {
        "type": "Point",
        "coordinates": [
          14.3955122,
          50.1017917
        ]
      },
      "properties": {
        "source": "survey",
        "amenity": "telephone",
        "operator": "Telefónica O2"
      }
    },
    {
      "type": "Feature",
      "geometry": {
        "type": "Point",
        "coordinates": [
          14.396448,
          50.1012775
        ]
      },
      "properties": {
        "source": "survey",
        "amenity": "telephone",
        "operator": "Telefónica O2"
      }
    },
    {
      "type": "Feature",
      "geometry": {
        "type": "Point",
        "coordinates": [
          14.4044769,
          50.0766575
        ]
      },
      "properties": {
        "source": "CZ:IPRPraha:ortofoto",
        "amenity": "telephone",
        "operator": "Telefónica O2"
      }
    },
    {
      "type": "Feature",
      "geometry": {
        "type": "Point",
        "coordinates": [
          14.3769007,
          50.0959098
        ]
      },
      "properties": {
        "amenity": "telephone",
        "operator": "Telefónica O2"
      }
    },
    {
      "type": "Feature",
      "geometry": {
        "type": "Point",
        "coordinates": [
          13.3961334,
          49.739152
        ]
      },
      "properties": {
        "amenity": "telephone",
        "operator": "Telefónica O2"
      }
    },
    {
      "type": "Feature",
      "geometry": {
        "type": "Point",
        "coordinates": [
          13.3932409,
          49.7389079
        ]
      },
      "properties": {
        "amenity": "telephone",
        "operator": "Telefónica O2"
      }
    },
    {
      "type": "Feature",
      "geometry": {
        "type": "Point",
        "coordinates": [
          13.3933165,
          49.7374828
        ]
      },
      "properties": {
        "amenity": "telephone",
        "operator": "Telefónica O2"
      }
    },
    {
      "type": "Feature",
      "geometry": {
        "type": "Point",
        "coordinates": [
          14.3929737,
          50.1045632
        ]
      },
      "properties": {
        "amenity": "telephone",
        "operator": "Telefónica O2",
        "payment:coins": "yes",
        "payment:telephone_cards": "yes"
      }
    },
    {
      "type": "Feature",
      "geometry": {
        "type": "Point",
        "coordinates": [
          14.3981767,
          50.1035899
        ]
      },
      "properties": {
        "amenity": "telephone",
        "operator": "Telefónica O2"
      }
    },
    {
      "type": "Feature",
      "geometry": {
        "type": "Point",
        "coordinates": [
          14.4005724,
          50.1027237
        ]
      },
      "properties": {
        "amenity": "telephone",
        "operator": "Telefónica O2"
      }
    },
    {
      "type": "Feature",
      "geometry": {
        "type": "Point",
        "coordinates": [
          14.4182888,
          50.1012733
        ]
      },
      "properties": {
        "amenity": "telephone",
        "operator": "Telefónica O2"
      }
    },
    {
      "type": "Feature",
      "geometry": {
        "type": "Point",
        "coordinates": [
          14.4159992,
          50.0784931
        ]
      },
      "properties": {
        "amenity": "telephone",
        "operator": "Telefónica O2"
      }
    },
    {
      "type": "Feature",
      "geometry": {
        "type": "Point",
        "coordinates": [
          14.4917281,
          50.0312327
        ]
      },
      "properties": {
        "note": "automat v podchodu metra",
        "layer": "-1",
        "amenity": "telephone",
        "operator": "Telefónica O2"
      }
    },
    {
      "type": "Feature",
      "geometry": {
        "type": "Point",
        "coordinates": [
          14.3849158,
          50.1006298
        ]
      },
      "properties": {
        "amenity": "telephone",
        "operator": "Telefónica O2"
      }
    },
    {
      "type": "Feature",
      "geometry": {
        "type": "Point",
        "coordinates": [
          14.3744508,
          50.0888775
        ]
      },
      "properties": {
        "amenity": "telephone",
        "operator": "Telefónica O2"
      }
    },
    {
      "type": "Feature",
      "geometry": {
        "type": "Point",
        "coordinates": [
          14.4818591,
          50.0327198
        ]
      },
      "properties": {
        "note": "dva telefonní automaty vedle sebe",
        "amenity": "telephone",
        "operator": "Telefónica O2"
      }
    },
    {
      "type": "Feature",
      "geometry": {
        "type": "Point",
        "coordinates": [
          14.5067844,
          50.0877015
        ]
      },
      "properties": {
        "amenity": "telephone",
        "operator": "Telefónica O2"
      }
    },
    {
      "type": "Feature",
      "geometry": {
        "type": "Point",
        "coordinates": [
          14.3785837,
          50.1105443
        ]
      },
      "properties": {
        "amenity": "telephone",
        "operator": "Telefónica O2"
      }
    },
    {
      "type": "Feature",
      "geometry": {
        "type": "Point",
        "coordinates": [
          14.4340543,
          50.0872061
        ]
      },
      "properties": {
        "amenity": "telephone",
        "operator": "Telefónica O2"
      }
    },
    {
      "type": "Feature",
      "geometry": {
        "type": "Point",
        "coordinates": [
          14.5110206,
          50.0849541
        ]
      },
      "properties": {
        "amenity": "telephone",
        "operator": "Telefónica O2"
      }
    },
    {
      "type": "Feature",
      "geometry": {
        "type": "Point",
        "coordinates": [
          14.4208191,
          50.0758969
        ]
      },
      "properties": {
        "note": "dvě telefonní budky vedle sebe",
        "amenity": "telephone",
        "operator": "Telefónica O2"
      }
    },
    {
      "type": "Feature",
      "geometry": {
        "type": "Point",
        "coordinates": [
          14.4540425,
          50.028692
        ]
      },
      "properties": {
        "amenity": "telephone",
        "operator": "Telefónica O2"
      }
    },
    {
      "type": "Feature",
      "geometry": {
        "type": "Point",
        "coordinates": [
          14.4605391,
          50.042098
        ]
      },
      "properties": {
        "note": "dva telefonní automaty",
        "amenity": "telephone",
        "operator": "Telefónica O2"
      }
    },
    {
      "type": "Feature",
      "geometry": {
        "type": "Point",
        "coordinates": [
          14.3244504,
          50.092785
        ]
      },
      "properties": {
        "amenity": "telephone",
        "operator": "O2",
        "source": "uhul:ortofoto"
      }
    },
    {
      "type": "Feature",
      "geometry": {
        "type": "Point",
        "coordinates": [
          14.3105895,
          50.0822432
        ]
      },
      "properties": {
        "amenity": "telephone",
        "operator": "Telefónica O2",
        "payment:coins": "yes",
        "payment:telephone_cards": "yes"
      }
    },
    {
      "type": "Feature",
      "geometry": {
        "type": "Point",
        "coordinates": [
          14.4013329,
          50.0441352
        ]
      },
      "properties": {
        "amenity": "telephone",
        "operator": "Telefónica O2"
      }
    },
    {
      "type": "Feature",
      "geometry": {
        "type": "Point",
        "coordinates": [
          14.4328973,
          50.117181
        ]
      },
      "properties": {
        "amenity": "telephone",
        "operator": "Telefónica O2"
      }
    },
    {
      "type": "Feature",
      "geometry": {
        "type": "Point",
        "coordinates": [
          14.4872627,
          50.0830324
        ]
      },
      "properties": {
        "amenity": "telephone",
        "operator": "Telefónica O2"
      }
    },
    {
      "type": "Feature",
      "geometry": {
        "type": "Point",
        "coordinates": [
          14.4345415,
          50.0900232
        ]
      },
      "properties": {
        "amenity": "telephone",
        "operator": "Telefónica O2"
      }
    },
    {
      "type": "Feature",
      "geometry": {
        "type": "Point",
        "coordinates": [
          14.5286854,
          50.0305075
        ]
      },
      "properties": {
        "note": "dvě telefonní budky vedle sebe",
        "amenity": "telephone",
        "operator": "Telefónica O2"
      }
    },
    {
      "type": "Feature",
      "geometry": {
        "type": "Point",
        "coordinates": [
          14.3949072,
          50.0982098
        ]
      },
      "properties": {
        "amenity": "telephone",
        "operator": "Telefónica O2"
      }
    },
    {
      "type": "Feature",
      "geometry": {
        "type": "Point",
        "coordinates": [
          14.3755958,
          50.0983468
        ]
      },
      "properties": {
        "amenity": "telephone",
        "operator": "Telefónica O2"
      }
    },
    {
      "type": "Feature",
      "geometry": {
        "type": "Point",
        "coordinates": [
          14.4299338,
          50.0720254
        ]
      },
      "properties": {
        "note": "dvě telefonní budky vedle sebe",
        "amenity": "telephone",
        "operator": "Telefónica O2"
      }
    },
    {
      "type": "Feature",
      "geometry": {
        "type": "Point",
        "coordinates": [
          14.4280207,
          50.0735732
        ]
      },
      "properties": {
        "amenity": "telephone",
        "operator": "Telefónica O2"
      }
    },
    {
      "type": "Feature",
      "geometry": {
        "type": "Point",
        "coordinates": [
          14.4021233,
          50.1014558
        ]
      },
      "properties": {
        "amenity": "telephone",
        "operator": "Telefónica O2"
      }
    },
    {
      "type": "Feature",
      "geometry": {
        "type": "Point",
        "coordinates": [
          14.4231775,
          50.1024317
        ]
      },
      "properties": {
        "amenity": "telephone",
        "operator": "Telefónica O2"
      }
    },
    {
      "type": "Feature",
      "geometry": {
        "type": "Point",
        "coordinates": [
          14.3608526,
          50.0821652
        ]
      },
      "properties": {
        "source": "norc.cz",
        "amenity": "telephone",
        "operator": "Telefónica O2"
      }
    },
    {
      "type": "Feature",
      "geometry": {
        "type": "Point",
        "coordinates": [
          14.3239468,
          50.0860619
        ]
      },
      "properties": {
        "source": "norc.cz",
        "amenity": "telephone",
        "operator": "Telefónica O2"
      }
    },
    {
      "type": "Feature",
      "geometry": {
        "type": "Point",
        "coordinates": [
          14.492943,
          50.1064677
        ]
      },
      "properties": {
        "note": "tři telefonní automaty vedle sebe",
        "amenity": "telephone",
        "operator": "Telefónica O2"
      }
    },
    {
      "type": "Feature",
      "geometry": {
        "type": "Point",
        "coordinates": [
          14.4305183,
          50.0836089
        ]
      },
      "properties": {
        "amenity": "telephone",
        "operator": "Telefónica O2"
      }
    },
    {
      "type": "Feature",
      "geometry": {
        "type": "Point",
        "coordinates": [
          14.453422,
          50.0720811
        ]
      },
      "properties": {
        "amenity": "telephone",
        "operator": "Telefónica O2"
      }
    },
    {
      "type": "Feature",
      "geometry": {
        "type": "Point",
        "coordinates": [
          14.44791,
          50.0454537
        ]
      },
      "properties": {
        "phone": "+420241734069",
        "amenity": "telephone",
        "operator": "Telefónica O2"
      }
    },
    {
      "type": "Feature",
      "geometry": {
        "type": "Point",
        "coordinates": [
          14.4393996,
          50.0902667
        ]
      },
      "properties": {
        "note": "dvě telefonní budky vedle sebe",
        "amenity": "telephone",
        "operator": "Telefónica O2"
      }
    },
    {
      "type": "Feature",
      "geometry": {
        "type": "Point",
        "coordinates": [
          14.4418489,
          50.0731636
        ]
      },
      "properties": {
        "amenity": "telephone",
        "operator": "Telefónica O2"
      }
    },
    {
      "type": "Feature",
      "geometry": {
        "type": "Point",
        "coordinates": [
          14.4157257,
          50.0343381
        ]
      },
      "properties": {
        "amenity": "telephone",
        "operator": "Telefónica O2"
      }
    },
    {
      "type": "Feature",
      "geometry": {
        "type": "Point",
        "coordinates": [
          14.4882238,
          50.1064952
        ]
      },
      "properties": {
        "note": "dvě telefonní budky vedle sebe",
        "amenity": "telephone",
        "operator": "Telefónica O2"
      }
    },
    {
      "type": "Feature",
      "geometry": {
        "type": "Point",
        "coordinates": [
          14.4308107,
          50.0738417
        ]
      },
      "properties": {
        "amenity": "telephone",
        "operator": "Telefónica O2"
      }
    },
    {
      "type": "Feature",
      "geometry": {
        "type": "Point",
        "coordinates": [
          14.422965,
          50.068528
        ]
      },
      "properties": {
        "amenity": "telephone",
        "operator": "Telefónica O2"
      }
    },
    {
      "type": "Feature",
      "geometry": {
        "type": "Point",
        "coordinates": [
          14.3552473,
          50.0287091
        ]
      },
      "properties": {
        "amenity": "telephone",
        "operator": "Telefónica O2"
      }
    },
    {
      "type": "Feature",
      "geometry": {
        "type": "Point",
        "coordinates": [
          14.4831297,
          50.1049633
        ]
      },
      "properties": {
        "note": "dvě telefonní budky vedle sebe",
        "amenity": "telephone",
        "operator": "Telefónica O2"
      }
    },
    {
      "type": "Feature",
      "geometry": {
        "type": "Point",
        "coordinates": [
          14.4533806,
          50.0876292
        ]
      },
      "properties": {
        "amenity": "telephone",
        "operator": "Telefónica O2"
      }
    },
    {
      "type": "Feature",
      "geometry": {
        "type": "Point",
        "coordinates": [
          14.4197467,
          50.0786788
        ]
      },
      "properties": {
        "amenity": "telephone",
        "operator": "Telefónica O2"
      }
    },
    {
      "type": "Feature",
      "geometry": {
        "type": "Point",
        "coordinates": [
          14.6131664,
          50.1153538
        ]
      },
      "properties": {
        "amenity": "telephone",
        "operator": "Telefónica O2"
      }
    },
    {
      "type": "Feature",
      "geometry": {
        "type": "Point",
        "coordinates": [
          14.4238918,
          50.075366
        ]
      },
      "properties": {
        "amenity": "telephone",
        "operator": "Telefónica O2"
      }
    },
    {
      "type": "Feature",
      "geometry": {
        "type": "Point",
        "coordinates": [
          14.4221691,
          50.0757152
        ]
      },
      "properties": {
        "note": "dvě telefonní budky vedle sebe",
        "amenity": "telephone",
        "operator": "Telefónica O2"
      }
    },
    {
      "type": "Feature",
      "geometry": {
        "type": "Point",
        "coordinates": [
          14.445534,
          50.086876
        ]
      },
      "properties": {
        "amenity": "telephone",
        "operator": "Telefónica O2"
      }
    },
    {
      "type": "Feature",
      "geometry": {
        "type": "Point",
        "coordinates": [
          12.7293189,
          50.4286715
        ]
      },
      "properties": {
        "fixme": "didn't find this",
        "amenity": "telephone",
        "operator": "Deutsche Telekom AG"
      }
    },
    {
      "type": "Feature",
      "geometry": {
        "type": "Point",
        "coordinates": [
          14.4703499,
          50.0724904
        ]
      },
      "properties": {
        "note": "dvě telefonní budky vedle sebe",
        "amenity": "telephone",
        "operator": "Telefónica O2"
      }
    },
    {
      "type": "Feature",
      "geometry": {
        "type": "Point",
        "coordinates": [
          14.4615271,
          50.0886523
        ]
      },
      "properties": {
        "note": "dvě telefonní budky vedle sebe",
        "amenity": "telephone",
        "operator": "Telefónica O2"
      }
    },
    {
      "type": "Feature",
      "geometry": {
        "type": "Point",
        "coordinates": [
          14.3647284,
          50.0965151
        ]
      },
      "properties": {
        "amenity": "telephone",
        "operator": "Telefónica O2"
      }
    },
    {
      "type": "Feature",
      "geometry": {
        "type": "Point",
        "coordinates": [
          14.4314766,
          50.0893277
        ]
      },
      "properties": {
        "note": "2 telefonní budky vedle sebe",
        "amenity": "telephone",
        "operator": "Telefónica O2"
      }
    },
    {
      "type": "Feature",
      "geometry": {
        "type": "Point",
        "coordinates": [
          14.3879366,
          49.2957122
        ]
      },
      "properties": {
        "amenity": "telephone",
        "operator": "Telefónica O2"
      }
    },
    {
      "type": "Feature",
      "geometry": {
        "type": "Point",
        "coordinates": [
          15.8596204,
          48.8526005
        ]
      },
      "properties": {
        "amenity": "telephone"
      }
    },
    {
      "type": "Feature",
      "geometry": {
        "type": "Point",
        "coordinates": [
          14.4410798,
          50.0639639
        ]
      },
      "properties": {
        "source": "norc.cz",
        "amenity": "telephone",
        "operator": "Telefónica O2"
      }
    },
    {
      "type": "Feature",
      "geometry": {
        "type": "Point",
        "coordinates": [
          14.4467625,
          50.0267674
        ]
      },
      "properties": {
        "note": "dvě telefonní budky vedle sebe",
        "amenity": "telephone",
        "operator": "Telefónica O2"
      }
    },
    {
      "type": "Feature",
      "geometry": {
        "type": "Point",
        "coordinates": [
          14.4584211,
          50.0509285
        ]
      },
      "properties": {
        "amenity": "telephone",
        "operator": "Telefónica O2"
      }
    },
    {
      "type": "Feature",
      "geometry": {
        "type": "Point",
        "coordinates": [
          14.4287965,
          50.0879565
        ]
      },
      "properties": {
        "amenity": "telephone",
        "note": "dvě telefonní budky vedle sebe",
        "operator": "Telefónica O2"
      }
    },
    {
      "type": "Feature",
      "geometry": {
        "type": "Point",
        "coordinates": [
          14.4526369,
          50.0873006
        ]
      },
      "properties": {
        "amenity": "telephone",
        "operator": "Telefónica O2"
      }
    },
    {
      "type": "Feature",
      "geometry": {
        "type": "Point",
        "coordinates": [
          14.4391773,
          50.0650071
        ]
      },
      "properties": {
        "amenity": "telephone",
        "operator": "Telefónica O2"
      }
    },
    {
      "type": "Feature",
      "geometry": {
        "type": "Point",
        "coordinates": [
          14.4302489,
          50.0658046
        ]
      },
      "properties": {
        "note": "dvě telefonní budky vedle sebe",
        "amenity": "telephone",
        "operator": "Telefónica O2"
      }
    },
    {
      "type": "Feature",
      "geometry": {
        "type": "Point",
        "coordinates": [
          13.3635708,
          49.7461679
        ]
      },
      "properties": {
        "amenity": "telephone",
        "operator": "Telefónica O2"
      }
    },
    {
      "type": "Feature",
      "geometry": {
        "type": "Point",
        "coordinates": [
          14.6039197,
          50.1137817
        ]
      },
      "properties": {
        "amenity": "telephone",
        "check_date": "2021-08-24",
        "operator": "Telefónica O2"
      }
    },
    {
      "type": "Feature",
      "geometry": {
        "type": "Point",
        "coordinates": [
          14.4738699,
          50.1051119
        ]
      },
      "properties": {
        "amenity": "telephone",
        "operator": "Telefónica O2"
      }
    },
    {
      "type": "Feature",
      "geometry": {
        "type": "Point",
        "coordinates": [
          14.4898948,
          50.1076316
        ]
      },
      "properties": {
        "note": "2 budky vedle sebe",
        "amenity": "telephone",
        "operator": "Telefónica O2"
      }
    },
    {
      "type": "Feature",
      "geometry": {
        "type": "Point",
        "coordinates": [
          14.4498087,
          50.0868094
        ]
      },
      "properties": {
        "note": "dvě telefonní budky vedle sebe",
        "amenity": "telephone",
        "operator": "Telefónica O2"
      }
    },
    {
      "type": "Feature",
      "geometry": {
        "type": "Point",
        "coordinates": [
          14.4386083,
          50.0993571
        ]
      },
      "properties": {
        "note": "dole v podchodu",
        "amenity": "telephone",
        "operator": "Telefónica O2"
      }
    },
    {
      "type": "Feature",
      "geometry": {
        "type": "Point",
        "coordinates": [
          14.4777098,
          50.0372151
        ]
      },
      "properties": {
        "amenity": "telephone",
        "operator": "Telefónica O2"
      }
    },
    {
      "type": "Feature",
      "geometry": {
        "type": "Point",
        "coordinates": [
          14.4186474,
          50.0741621
        ]
      },
      "properties": {
        "amenity": "telephone",
        "operator": "Telefónica O2"
      }
    },
    {
      "type": "Feature",
      "geometry": {
        "type": "Point",
        "coordinates": [
          14.8193302,
          50.8594321
        ]
      },
      "properties": {
        "amenity": "telephone",
        "shelter": "no",
        "operator": "Deutsche Telekom AG",
        "payment:coins": "no",
        "payment:notes": "no",
        "telephone:type": "Basistelefon",
        "payment:credit_cards": "yes",
        "payment:telephone_cards": "no"
      }
    },
    {
      "type": "Feature",
      "geometry": {
        "type": "Point",
        "coordinates": [
          14.4337971,
          50.1031361
        ]
      },
      "properties": {
        "amenity": "telephone",
        "operator": "Telefónica O2"
      }
    },
    {
      "type": "Feature",
      "geometry": {
        "type": "Point",
        "coordinates": [
          14.4431469,
          50.0724254
        ]
      },
      "properties": {
        "amenity": "telephone",
        "operator": "Telefónica O2"
      }
    },
    {
      "type": "Feature",
      "geometry": {
        "type": "Point",
        "coordinates": [
          14.4272573,
          50.1000217
        ]
      },
      "properties": {
        "amenity": "telephone",
        "operator": "Telefónica O2"
      }
    },
    {
      "type": "Feature",
      "geometry": {
        "type": "Point",
        "coordinates": [
          14.4134592,
          50.046533
        ]
      },
      "properties": {
        "amenity": "telephone",
        "operator": "Telefónica O2"
      }
    },
    {
      "type": "Feature",
      "geometry": {
        "type": "Point",
        "coordinates": [
          14.3665051,
          50.0695457
        ]
      },
      "properties": {
        "amenity": "telephone",
        "operator": "Telefónica O2"
      }
    },
    {
      "type": "Feature",
      "geometry": {
        "type": "Point",
        "coordinates": [
          14.5574671,
          50.0461942
        ]
      },
      "properties": {
        "amenity": "telephone",
        "operator": "Telefónica O2"
      }
    },
    {
      "type": "Feature",
      "geometry": {
        "type": "Point",
        "coordinates": [
          14.5426079,
          50.0487853
        ]
      },
      "properties": {
        "amenity": "telephone",
        "operator": "Telefónica O2"
      }
    },
    {
      "type": "Feature",
      "geometry": {
        "type": "Point",
        "coordinates": [
          14.5657829,
          50.0408746
        ]
      },
      "properties": {
        "amenity": "telephone",
        "operator": "Telefónica O2"
      }
    },
    {
      "type": "Feature",
      "geometry": {
        "type": "Point",
        "coordinates": [
          14.4989964,
          50.0929048
        ]
      },
      "properties": {
        "amenity": "telephone",
        "operator": "Telefónica O2"
      }
    },
    {
      "type": "Feature",
      "geometry": {
        "type": "Point",
        "coordinates": [
          14.4445296,
          50.0174253
        ]
      },
      "properties": {
        "amenity": "telephone",
        "operator": "Telefónica O2",
        "payment:telephone_cards": "yes"
      }
    },
    {
      "type": "Feature",
      "geometry": {
        "type": "Point",
        "coordinates": [
          14.578624,
          50.1074527
        ]
      },
      "properties": {
        "amenity": "telephone",
        "operator": "Telefónica O2"
      }
    },
    {
      "type": "Feature",
      "geometry": {
        "type": "Point",
        "coordinates": [
          13.2571922,
          49.6948924
        ]
      },
      "properties": {
        "amenity": "telephone",
        "operator": "O2"
      }
    },
    {
      "type": "Feature",
      "geometry": {
        "type": "Point",
        "coordinates": [
          14.6173468,
          50.081072
        ]
      },
      "properties": {
        "amenity": "telephone",
        "operator": "Telefónica O2"
      }
    },
    {
      "type": "Feature",
      "geometry": {
        "type": "Point",
        "coordinates": [
          14.5634403,
          50.0545326
        ]
      },
      "properties": {
        "amenity": "telephone",
        "operator": "Telefónica O2"
      }
    },
    {
      "type": "Feature",
      "geometry": {
        "type": "Point",
        "coordinates": [
          14.6196331,
          48.933527
        ]
      },
      "properties": {
        "amenity": "telephone",
        "operator": "Telefónica O2",
        "payment:coins": "yes"
      }
    },
    {
      "type": "Feature",
      "geometry": {
        "type": "Point",
        "coordinates": [
          14.6221288,
          48.9326236
        ]
      },
      "properties": {
        "amenity": "telephone",
        "operator": "Telefónica O2"
      }
    },
    {
      "type": "Feature",
      "geometry": {
        "type": "Point",
        "coordinates": [
          14.3249291,
          50.0753041
        ]
      },
      "properties": {
        "amenity": "telephone",
        "operator": "Telefónica O2"
      }
    },
    {
      "type": "Feature",
      "geometry": {
        "type": "Point",
        "coordinates": [
          14.4426072,
          50.0921364
        ]
      },
      "properties": {
        "amenity": "telephone",
        "operator": "Telefónica O2",
        "payment:coins": "yes",
        "payment:telephone_cards": "yes"
      }
    },
    {
      "type": "Feature",
      "geometry": {
        "type": "Point",
        "coordinates": [
          14.5188288,
          50.0455303
        ]
      },
      "properties": {
        "amenity": "telephone",
        "operator": "Telefónica O2"
      }
    },
    {
      "type": "Feature",
      "geometry": {
        "type": "Point",
        "coordinates": [
          14.5151359,
          50.0470038
        ]
      },
      "properties": {
        "amenity": "telephone",
        "operator": "Telefónica O2",
        "payment:coins": "yes"
      }
    },
    {
      "type": "Feature",
      "geometry": {
        "type": "Point",
        "coordinates": [
          14.0780354,
          50.5579842
        ]
      },
      "properties": {
        "amenity": "telephone",
        "operator": "Telefónica O2"
      }
    },
    {
      "type": "Feature",
      "geometry": {
        "type": "Point",
        "coordinates": [
          14.4185792,
          50.0717597
        ]
      },
      "properties": {
        "amenity": "telephone",
        "operator": "Telefónica O2"
      }
    },
    {
      "type": "Feature",
      "geometry": {
        "type": "Point",
        "coordinates": [
          14.4035613,
          50.0735616
        ]
      },
      "properties": {
        "amenity": "telephone",
        "operator": "Telefónica O2",
        "payment:coins": "yes"
      }
    },
    {
      "type": "Feature",
      "geometry": {
        "type": "Point",
        "coordinates": [
          14.4358049,
          50.1006149
        ]
      },
      "properties": {
        "amenity": "telephone",
        "operator": "Telefónica O2"
      }
    },
    {
      "type": "Feature",
      "geometry": {
        "type": "Point",
        "coordinates": [
          14.4434038,
          50.1022938
        ]
      },
      "properties": {
        "amenity": "telephone",
        "operator": "Telefónica O2"
      }
    },
    {
      "type": "Feature",
      "geometry": {
        "type": "Point",
        "coordinates": [
          14.4366095,
          50.0954321
        ]
      },
      "properties": {
        "amenity": "telephone",
        "operator": "Telefónica O2"
      }
    },
    {
      "type": "Feature",
      "geometry": {
        "type": "Point",
        "coordinates": [
          14.4071278,
          50.073756
        ]
      },
      "properties": {
        "amenity": "telephone",
        "operator": "Telefónica O2"
      }
    },
    {
      "type": "Feature",
      "geometry": {
        "type": "Point",
        "coordinates": [
          14.509061,
          50.0320662
        ]
      },
      "properties": {
        "amenity": "telephone",
        "operator": "Telefónica O2"
      }
    },
    {
      "type": "Feature",
      "geometry": {
        "type": "Point",
        "coordinates": [
          14.3437668,
          50.0540205
        ]
      },
      "properties": {
        "amenity": "telephone",
        "operator": "Telefónica O2"
      }
    },
    {
      "type": "Feature",
      "geometry": {
        "type": "Point",
        "coordinates": [
          14.4299706,
          50.0920983
        ]
      },
      "properties": {
        "amenity": "telephone",
        "operator": "Telefónica O2"
      }
    },
    {
      "type": "Feature",
      "geometry": {
        "type": "Point",
        "coordinates": [
          15.2440838,
          49.398134
        ]
      },
      "properties": {
        "amenity": "telephone",
        "operator": "O2"
      }
    },
    {
      "type": "Feature",
      "geometry": {
        "type": "Point",
        "coordinates": [
          15.0030191,
          49.1440862
        ]
      },
      "properties": {
        "amenity": "telephone",
        "operator": "Telefónica O2"
      }
    },
    {
      "type": "Feature",
      "geometry": {
        "type": "Point",
        "coordinates": [
          14.47665,
          50.1027358
        ]
      },
      "properties": {
        "amenity": "telephone",
        "operator": "Telefónica O2"
      }
    },
    {
      "type": "Feature",
      "geometry": {
        "type": "Point",
        "coordinates": [
          14.4729464,
          50.1047195
        ]
      },
      "properties": {
        "amenity": "telephone",
        "operator": "Telefónica O2"
      }
    },
    {
      "type": "Feature",
      "geometry": {
        "type": "Point",
        "coordinates": [
          14.4288091,
          50.077111
        ]
      },
      "properties": {
        "amenity": "telephone",
        "operator": "Telefónica O2"
      }
    },
    {
      "type": "Feature",
      "geometry": {
        "type": "Point",
        "coordinates": [
          14.4098626,
          50.0509666
        ]
      },
      "properties": {
        "amenity": "telephone",
        "operator": "Telefónica O2"
      }
    },
    {
      "type": "Feature",
      "geometry": {
        "type": "Point",
        "coordinates": [
          14.6583769,
          49.5099986
        ]
      },
      "properties": {
        "amenity": "telephone",
        "operator": "Telefónica O2"
      }
    },
    {
      "type": "Feature",
      "geometry": {
        "type": "Point",
        "coordinates": [
          14.4295577,
          50.070407
        ]
      },
      "properties": {
        "amenity": "telephone",
        "operator": "Telefónica O2"
      }
    },
    {
      "type": "Feature",
      "geometry": {
        "type": "Point",
        "coordinates": [
          14.618225,
          50.0278009
        ]
      },
      "properties": {
        "amenity": "telephone",
        "fixme": "resurvey",
        "operator": "Telefónica O2"
      }
    },
    {
      "type": "Feature",
      "geometry": {
        "type": "Point",
        "coordinates": [
          15.095908,
          49.1416861
        ]
      },
      "properties": {
        "amenity": "telephone",
        "operator": "Telefónica O2",
        "payment:telephone_cards": "yes"
      }
    },
    {
      "type": "Feature",
      "geometry": {
        "type": "Point",
        "coordinates": [
          14.4535366,
          50.0508356
        ]
      },
      "properties": {
        "amenity": "telephone",
        "operator": "Telefónica O2"
      }
    },
    {
      "type": "Feature",
      "geometry": {
        "type": "Point",
        "coordinates": [
          14.593275,
          50.0352803
        ]
      },
      "properties": {
        "amenity": "telephone",
        "operator": "Telefónica O2",
        "payment:coins": "yes"
      }
    },
    {
      "type": "Feature",
      "geometry": {
        "type": "Point",
        "coordinates": [
          14.4353838,
          50.1034578
        ]
      },
      "properties": {
        "amenity": "telephone",
        "operator": "Telefónica O2"
      }
    },
    {
      "type": "Feature",
      "geometry": {
        "type": "Point",
        "coordinates": [
          14.7727391,
          49.0043954
        ]
      },
      "properties": {
        "amenity": "telephone",
        "operator": "Telefónica O2"
      }
    },
    {
      "type": "Feature",
      "geometry": {
        "type": "Point",
        "coordinates": [
          14.7578784,
          49.0072728
        ]
      },
      "properties": {
        "amenity": "telephone",
        "operator": "Telefónica O2"
      }
    },
    {
      "type": "Feature",
      "geometry": {
        "type": "Point",
        "coordinates": [
          14.449672,
          50.0719013
        ]
      },
      "properties": {
        "amenity": "telephone",
        "operator": "Telefónica O2"
      }
    },
    {
      "type": "Feature",
      "geometry": {
        "type": "Point",
        "coordinates": [
          14.4441889,
          50.0726649
        ]
      },
      "properties": {
        "amenity": "telephone",
        "operator": "Telefónica O2"
      }
    },
    {
      "type": "Feature",
      "geometry": {
        "type": "Point",
        "coordinates": [
          14.7182013,
          49.0817397
        ]
      },
      "properties": {
        "phone": "+420384792489",
        "source": "knowledge",
        "amenity": "telephone",
        "operator": "O2"
      }
    },
    {
      "type": "Feature",
      "geometry": {
        "type": "Point",
        "coordinates": [
          14.6942688,
          49.3756471
        ]
      },
      "properties": {
        "amenity": "telephone",
        "operator": "Telefónica O2"
      }
    },
    {
      "type": "Feature",
      "geometry": {
        "type": "Point",
        "coordinates": [
          12.1852417,
          50.1776599
        ]
      },
      "properties": {
        "amenity": "telephone"
      }
    },
    {
      "type": "Feature",
      "geometry": {
        "type": "Point",
        "coordinates": [
          14.4880631,
          50.0471812
        ]
      },
      "properties": {
        "amenity": "telephone",
        "operator": "Telefónica O2"
      }
    },
    {
      "type": "Feature",
      "geometry": {
        "type": "Point",
        "coordinates": [
          14.4893197,
          50.0474282
        ]
      },
      "properties": {
        "amenity": "telephone",
        "operator": "Telefónica O2"
      }
    },
    {
      "type": "Feature",
      "geometry": {
        "type": "Point",
        "coordinates": [
          14.4415794,
          50.0433091
        ]
      },
      "properties": {
        "amenity": "telephone"
      }
    },
    {
      "type": "Feature",
      "geometry": {
        "type": "Point",
        "coordinates": [
          13.5734555,
          49.5497055
        ]
      },
      "properties": {
        "phone": "+420 371 522 964",
        "source": "survey",
        "amenity": "telephone",
        "operator": "O2"
      }
    },
    {
      "type": "Feature",
      "geometry": {
        "type": "Point",
        "coordinates": [
          13.5763643,
          49.5016244
        ]
      },
      "properties": {
        "phone": "+420 371 592 691",
        "source": "survey",
        "amenity": "telephone",
        "operator": "O2"
      }
    },
    {
      "type": "Feature",
      "geometry": {
        "type": "Point",
        "coordinates": [
          13.3513679,
          49.6948008
        ]
      },
      "properties": {
        "amenity": "telephone",
        "operator": "Telefonica O2",
        "payment:coins": "yes",
        "source": "survey"
      }
    },
    {
      "type": "Feature",
      "geometry": {
        "type": "Point",
        "coordinates": [
          14.4712981,
          50.064121
        ]
      },
      "properties": {
        "amenity": "telephone"
      }
    },
    {
      "type": "Feature",
      "geometry": {
        "type": "Point",
        "coordinates": [
          14.5151841,
          50.0026787
        ]
      },
      "properties": {
        "amenity": "telephone"
      }
    },
    {
      "type": "Feature",
      "geometry": {
        "type": "Point",
        "coordinates": [
          15.705396,
          49.4598441
        ]
      },
      "properties": {
        "source": "survey",
        "amenity": "telephone"
      }
    },
    {
      "type": "Feature",
      "geometry": {
        "type": "Point",
        "coordinates": [
          14.3835663,
          50.0085708
        ]
      },
      "properties": {
        "amenity": "telephone"
      }
    },
    {
      "type": "Feature",
      "geometry": {
        "type": "Point",
        "coordinates": [
          14.3808115,
          50.0122858
        ]
      },
      "properties": {
        "amenity": "telephone"
      }
    },
    {
      "type": "Feature",
      "geometry": {
        "type": "Point",
        "coordinates": [
          13.3169739,
          49.5306751
        ]
      },
      "properties": {
        "source": "survey",
        "amenity": "telephone",
        "operator": "O2",
        "payment:telephone_cards": "yes"
      }
    },
    {
      "type": "Feature",
      "geometry": {
        "type": "Point",
        "coordinates": [
          13.3680533,
          49.5476958
        ]
      },
      "properties": {
        "source": "survey",
        "amenity": "telephone",
        "operator": "Telefonica O2",
        "payment:telephone_cards": "yes"
      }
    },
    {
      "type": "Feature",
      "geometry": {
        "type": "Point",
        "coordinates": [
          13.617842,
          49.3472187
        ]
      },
      "properties": {
        "source": "survey;uhul:ortofoto",
        "amenity": "telephone"
      }
    },
    {
      "type": "Feature",
      "geometry": {
        "type": "Point",
        "coordinates": [
          14.3920428,
          49.3430779
        ]
      },
      "properties": {
        "amenity": "telephone"
      }
    },
    {
      "type": "Feature",
      "geometry": {
        "type": "Point",
        "coordinates": [
          14.4549994,
          50.1058222
        ]
      },
      "properties": {
        "amenity": "telephone"
      }
    },
    {
      "type": "Feature",
      "geometry": {
        "type": "Point",
        "coordinates": [
          14.3417538,
          50.0677389
        ]
      },
      "properties": {
        "amenity": "telephone"
      }
    },
    {
      "type": "Feature",
      "geometry": {
        "type": "Point",
        "coordinates": [
          14.3940057,
          50.0722234
        ]
      },
      "properties": {
        "amenity": "telephone"
      }
    },
    {
      "type": "Feature",
      "geometry": {
        "type": "Point",
        "coordinates": [
          14.4019243,
          50.0759225
        ]
      },
      "properties": {
        "amenity": "telephone"
      }
    },
    {
      "type": "Feature",
      "geometry": {
        "type": "Point",
        "coordinates": [
          15.4903268,
          49.3761611
        ]
      },
      "properties": {
        "source": "survey",
        "amenity": "telephone"
      }
    },
    {
      "type": "Feature",
      "geometry": {
        "type": "Point",
        "coordinates": [
          14.3332355,
          50.0572832
        ]
      },
      "properties": {
        "amenity": "telephone"
      }
    },
    {
      "type": "Feature",
      "geometry": {
        "type": "Point",
        "coordinates": [
          14.4265223,
          50.0245052
        ]
      },
      "properties": {
        "source": "survey",
        "amenity": "telephone"
      }
    },
    {
      "type": "Feature",
      "geometry": {
        "type": "Point",
        "coordinates": [
          13.4700204,
          49.5842639
        ]
      },
      "properties": {
        "amenity": "telephone"
      }
    },
    {
      "type": "Feature",
      "geometry": {
        "type": "Point",
        "coordinates": [
          14.4550508,
          50.0946717
        ]
      },
      "properties": {
        "amenity": "telephone"
      }
    },
    {
      "type": "Feature",
      "geometry": {
        "type": "Point",
        "coordinates": [
          15.2710913,
          49.7707442
        ]
      },
      "properties": {
        "amenity": "telephone"
      }
    },
    {
      "type": "Feature",
      "geometry": {
        "type": "Point",
        "coordinates": [
          12.971168,
          50.419384
        ]
      },
      "properties": {
        "ref": "+49373480008490",
        "amenity": "telephone",
        "operator": "T-Com",
        "payment:coins": "yes",
        "payment:credit_cards": "yes",
        "payment:telephone_cards": "yes"
      }
    },
    {
      "type": "Feature",
      "geometry": {
        "type": "Point",
        "coordinates": [
          12.968403,
          50.421693
        ]
      },
      "properties": {
        "ref": "373480023272",
        "amenity": "telephone",
        "operator": "T-Com",
        "payment:coins": "yes"
      }
    },
    {
      "type": "Feature",
      "geometry": {
        "type": "Point",
        "coordinates": [
          14.2577831,
          50.1626564
        ]
      },
      "properties": {
        "amenity": "telephone"
      }
    },
    {
      "type": "Feature",
      "geometry": {
        "type": "Point",
        "coordinates": [
          14.48625,
          50.1062047
        ]
      },
      "properties": {
        "source": "survey",
        "amenity": "telephone"
      }
    },
    {
      "type": "Feature",
      "geometry": {
        "type": "Point",
        "coordinates": [
          14.6823798,
          49.3905734
        ]
      },
      "properties": {
        "amenity": "telephone"
      }
    },
    {
      "type": "Feature",
      "geometry": {
        "type": "Point",
        "coordinates": [
          14.4689189,
          50.1146002
        ]
      },
      "properties": {
        "amenity": "telephone"
      }
    },
    {
      "type": "Feature",
      "geometry": {
        "type": "Point",
        "coordinates": [
          13.3733968,
          49.7475105
        ]
      },
      "properties": {
        "source": "survey",
        "amenity": "telephone"
      }
    },
    {
      "type": "Feature",
      "geometry": {
        "type": "Point",
        "coordinates": [
          14.4051079,
          50.0054282
        ]
      },
      "properties": {
        "amenity": "telephone"
      }
    },
    {
      "type": "Feature",
      "geometry": {
        "type": "Point",
        "coordinates": [
          13.3871869,
          49.7444711
        ]
      },
      "properties": {
        "source": "survey",
        "amenity": "telephone",
        "operator": "O2"
      }
    },
    {
      "type": "Feature",
      "geometry": {
        "type": "Point",
        "coordinates": [
          13.5277134,
          49.6306073
        ]
      },
      "properties": {
        "source": "survey",
        "amenity": "telephone"
      }
    },
    {
      "type": "Feature",
      "geometry": {
        "type": "Point",
        "coordinates": [
          13.1353066,
          49.6307539
        ]
      },
      "properties": {
        "source": "survey",
        "amenity": "telephone"
      }
    },
    {
      "type": "Feature",
      "geometry": {
        "type": "Point",
        "coordinates": [
          14.4262396,
          50.0723744
        ]
      },
      "properties": {
        "amenity": "telephone"
      }
    },
    {
      "type": "Feature",
      "geometry": {
        "type": "Point",
        "coordinates": [
          14.4570317,
          50.0709842
        ]
      },
      "properties": {
        "amenity": "telephone",
        "operator": "Telefónica O2"
      }
    },
    {
      "type": "Feature",
      "geometry": {
        "type": "Point",
        "coordinates": [
          13.3928,
          49.73295
        ]
      },
      "properties": {
        "amenity": "telephone",
        "operator": "O2",
        "payment:coins": "yes",
        "payment:telephone_cards": "yes"
      }
    },
    {
      "type": "Feature",
      "geometry": {
        "type": "Point",
        "coordinates": [
          13.4126667,
          49.7427667
        ]
      },
      "properties": {
        "amenity": "telephone",
        "operator": "O2",
        "payment:coins": "yes",
        "payment:telephone_cards": "yes"
      }
    },
    {
      "type": "Feature",
      "geometry": {
        "type": "Point",
        "coordinates": [
          13.3829491,
          49.7829924
        ]
      },
      "properties": {
        "source": "survey",
        "amenity": "telephone"
      }
    },
    {
      "type": "Feature",
      "geometry": {
        "type": "Point",
        "coordinates": [
          13.3604076,
          49.7578736
        ]
      },
      "properties": {
        "source": "survey",
        "amenity": "telephone"
      }
    },
    {
      "type": "Feature",
      "geometry": {
        "type": "Point",
        "coordinates": [
          13.3552986,
          49.7775659
        ]
      },
      "properties": {
        "source": "survey",
        "amenity": "telephone"
      }
    },
    {
      "type": "Feature",
      "geometry": {
        "type": "Point",
        "coordinates": [
          13.3121374,
          49.7324994
        ]
      },
      "properties": {
        "source": "survey",
        "amenity": "telephone"
      }
    },
    {
      "type": "Feature",
      "geometry": {
        "type": "Point",
        "coordinates": [
          13.248514,
          49.6441369
        ]
      },
      "properties": {
        "phone": "+420377972842",
        "source": "survey",
        "amenity": "telephone",
        "operator": "O2"
      }
    },
    {
      "type": "Feature",
      "geometry": {
        "type": "Point",
        "coordinates": [
          13.3474535,
          49.742591
        ]
      },
      "properties": {
        "source": "survey",
        "amenity": "telephone"
      }
    },
    {
      "type": "Feature",
      "geometry": {
        "type": "Point",
        "coordinates": [
          13.3228681,
          49.7457468
        ]
      },
      "properties": {
        "source": "survey",
        "amenity": "telephone"
      }
    },
    {
      "type": "Feature",
      "geometry": {
        "type": "Point",
        "coordinates": [
          13.3211265,
          49.7458051
        ]
      },
      "properties": {
        "source": "survey",
        "amenity": "telephone"
      }
    },
    {
      "type": "Feature",
      "geometry": {
        "type": "Point",
        "coordinates": [
          13.3444356,
          49.745876
        ]
      },
      "properties": {
        "source": "survey",
        "amenity": "telephone"
      }
    },
    {
      "type": "Feature",
      "geometry": {
        "type": "Point",
        "coordinates": [
          13.3730682,
          49.7801427
        ]
      },
      "properties": {
        "source": "survey",
        "amenity": "telephone"
      }
    },
    {
      "type": "Feature",
      "geometry": {
        "type": "Point",
        "coordinates": [
          13.3724228,
          49.7821133
        ]
      },
      "properties": {
        "source": "survey",
        "amenity": "telephone"
      }
    },
    {
      "type": "Feature",
      "geometry": {
        "type": "Point",
        "coordinates": [
          14.3523594,
          48.9505797
        ]
      },
      "properties": {
        "amenity": "telephone"
      }
    },
    {
      "type": "Feature",
      "geometry": {
        "type": "Point",
        "coordinates": [
          14.3339704,
          48.9477071
        ]
      },
      "properties": {
        "fee": "yes",
        "sms": "yes",
        "phone": "+420387992192",
        "video": "no",
        "indoor": "no",
        "amenity": "telephone",
        "covered": "yes",
        "wheelchair": "yes",
        "source:date": "2020-05-03",
        "payment:telephone_cards": "yes"
      }
    },
    {
      "type": "Feature",
      "geometry": {
        "type": "Point",
        "coordinates": [
          14.3313599,
          48.9571294
        ]
      },
      "properties": {
        "fee": "yes",
        "sms": "yes",
        "phone": "+420387222489",
        "video": "no",
        "indoor": "no",
        "amenity": "telephone",
        "covered": "yes",
        "wheelchair": "yes",
        "source:date": "2020-05-03",
        "payment:telephone_cards": "yes"
      }
    },
    {
      "type": "Feature",
      "geometry": {
        "type": "Point",
        "coordinates": [
          14.3045872,
          48.9047352
        ]
      },
      "properties": {
        "amenity": "telephone"
      }
    },
    {
      "type": "Feature",
      "geometry": {
        "type": "Point",
        "coordinates": [
          15.9196852,
          49.932377
        ]
      },
      "properties": {
        "source": "gps",
        "amenity": "telephone",
        "operator": "Telefonica O2"
      }
    },
    {
      "type": "Feature",
      "geometry": {
        "type": "Point",
        "coordinates": [
          13.5080496,
          49.5210025
        ]
      },
      "properties": {
        "source": "survey",
        "amenity": "telephone"
      }
    },
    {
      "type": "Feature",
      "geometry": {
        "type": "Point",
        "coordinates": [
          14.7642851,
          49.0035711
        ]
      },
      "properties": {
        "amenity": "telephone"
      }
    },
    {
      "type": "Feature",
      "geometry": {
        "type": "Point",
        "coordinates": [
          15.7293253,
          48.9373481
        ]
      },
      "properties": {
        "amenity": "telephone",
        "operator": "O2"
      }
    },
    {
      "type": "Feature",
      "geometry": {
        "type": "Point",
        "coordinates": [
          13.4041613,
          49.7566891
        ]
      },
      "properties": {
        "source": "survey",
        "amenity": "telephone"
      }
    },
    {
      "type": "Feature",
      "geometry": {
        "type": "Point",
        "coordinates": [
          15.0032141,
          49.1386795
        ]
      },
      "properties": {
        "amenity": "telephone",
        "operator": "Telefonica O2",
        "payment:coins": "yes",
        "payment:notes": "no",
        "payment:telephone_cards": "yes"
      }
    },
    {
      "type": "Feature",
      "geometry": {
        "type": "Point",
        "coordinates": [
          14.9245014,
          49.2654094
        ]
      },
      "properties": {
        "phone": "+420384384298",
        "amenity": "telephone",
        "operator": "O2",
        "payment:coins": "yes",
        "payment:telephone_cards": "yes"
      }
    },
    {
      "type": "Feature",
      "geometry": {
        "type": "Point",
        "coordinates": [
          13.3783042,
          49.7431583
        ]
      },
      "properties": {
        "source": "survey",
        "amenity": "telephone"
      }
    },
    {
      "type": "Feature",
      "geometry": {
        "type": "Point",
        "coordinates": [
          13.3776278,
          49.7449077
        ]
      },
      "properties": {
        "amenity": "telephone",
        "check_date": "2021-02-22",
        "source": "survey"
      }
    },
    {
      "type": "Feature",
      "geometry": {
        "type": "Point",
        "coordinates": [
          13.379676,
          49.746299
        ]
      },
      "properties": {
        "source": "survey",
        "amenity": "telephone"
      }
    },
    {
      "type": "Feature",
      "geometry": {
        "type": "Point",
        "coordinates": [
          13.373704,
          49.7463628
        ]
      },
      "properties": {
        "source": "survey",
        "amenity": "telephone"
      }
    },
    {
      "type": "Feature",
      "geometry": {
        "type": "Point",
        "coordinates": [
          13.3756052,
          49.7484888
        ]
      },
      "properties": {
        "source": "survey",
        "amenity": "telephone"
      }
    },
    {
      "type": "Feature",
      "geometry": {
        "type": "Point",
        "coordinates": [
          13.353674,
          49.7616553
        ]
      },
      "properties": {
        "source": "survey",
        "amenity": "telephone"
      }
    },
    {
      "type": "Feature",
      "geometry": {
        "type": "Point",
        "coordinates": [
          13.3635313,
          49.7675199
        ]
      },
      "properties": {
        "source": "survey",
        "amenity": "telephone"
      }
    },
    {
      "type": "Feature",
      "geometry": {
        "type": "Point",
        "coordinates": [
          13.4021171,
          49.7254737
        ]
      },
      "properties": {
        "source": "survey",
        "amenity": "telephone"
      }
    },
    {
      "type": "Feature",
      "geometry": {
        "type": "Point",
        "coordinates": [
          13.3439641,
          49.7272191
        ]
      },
      "properties": {
        "source": "survey",
        "amenity": "telephone"
      }
    },
    {
      "type": "Feature",
      "geometry": {
        "type": "Point",
        "coordinates": [
          13.4010986,
          49.7329421
        ]
      },
      "properties": {
        "source": "survey",
        "amenity": "telephone"
      }
    },
    {
      "type": "Feature",
      "geometry": {
        "type": "Point",
        "coordinates": [
          13.3982021,
          49.735066
        ]
      },
      "properties": {
        "source": "survey",
        "amenity": "telephone"
      }
    },
    {
      "type": "Feature",
      "geometry": {
        "type": "Point",
        "coordinates": [
          13.3967873,
          49.7365224
        ]
      },
      "properties": {
        "source": "survey",
        "amenity": "telephone"
      }
    },
    {
      "type": "Feature",
      "geometry": {
        "type": "Point",
        "coordinates": [
          13.3846408,
          49.7439702
        ]
      },
      "properties": {
        "source": "survey",
        "amenity": "telephone"
      }
    },
    {
      "type": "Feature",
      "geometry": {
        "type": "Point",
        "coordinates": [
          13.3772397,
          49.7466193
        ]
      },
      "properties": {
        "source": "survey",
        "amenity": "telephone"
      }
    },
    {
      "type": "Feature",
      "geometry": {
        "type": "Point",
        "coordinates": [
          14.472239,
          50.1093923
        ]
      },
      "properties": {
        "amenity": "telephone"
      }
    },
    {
      "type": "Feature",
      "geometry": {
        "type": "Point",
        "coordinates": [
          14.4518258,
          50.0824234
        ]
      },
      "properties": {
        "amenity": "telephone"
      }
    },
    {
      "type": "Feature",
      "geometry": {
        "type": "Point",
        "coordinates": [
          14.7337385,
          48.7610467
        ]
      },
      "properties": {
        "phone": "+420386327109",
        "source": "survey",
        "amenity": "telephone",
        "operator": "O2",
        "payment:coins": "yes",
        "payment:notes": "no",
        "payment:debit_cards": "no",
        "payment:credit_cards": "no",
        "payment:telephone_cards": "no",
        "payment:electronic_purses": "no"
      }
    },
    {
      "type": "Feature",
      "geometry": {
        "type": "Point",
        "coordinates": [
          12.9776987,
          50.419839
        ]
      },
      "properties": {
        "amenity": "telephone"
      }
    },
    {
      "type": "Feature",
      "geometry": {
        "type": "Point",
        "coordinates": [
          13.3299013,
          49.7428914
        ]
      },
      "properties": {
        "source": "survey",
        "amenity": "telephone"
      }
    },
    {
      "type": "Feature",
      "geometry": {
        "type": "Point",
        "coordinates": [
          13.3639948,
          49.7480324
        ]
      },
      "properties": {
        "source": "survey",
        "amenity": "telephone"
      }
    },
    {
      "type": "Feature",
      "geometry": {
        "type": "Point",
        "coordinates": [
          15.0392344,
          49.3060001
        ]
      },
      "properties": {
        "phone": "+420 565 432 864",
        "source": "survey",
        "amenity": "telephone",
        "operator": "O2",
        "payment:coins": "yes"
      }
    },
    {
      "type": "Feature",
      "geometry": {
        "type": "Point",
        "coordinates": [
          15.076232,
          49.299918
        ]
      },
      "properties": {
        "phone": "+420 565 433 241",
        "source": "survey",
        "amenity": "telephone",
        "operator": "O2"
      }
    },
    {
      "type": "Feature",
      "geometry": {
        "type": "Point",
        "coordinates": [
          15.0781268,
          49.3025104
        ]
      },
      "properties": {
        "phone": "+420 565 433 244",
        "source": "survey",
        "amenity": "telephone",
        "operator": "O2"
      }
    },
    {
      "type": "Feature",
      "geometry": {
        "type": "Point",
        "coordinates": [
          14.9700463,
          49.3260256
        ]
      },
      "properties": {
        "phone": "+420 565 492 435",
        "source": "survey",
        "amenity": "telephone",
        "operator": "O2"
      }
    },
    {
      "type": "Feature",
      "geometry": {
        "type": "Point",
        "coordinates": [
          14.3632809,
          50.0897536
        ]
      },
      "properties": {
        "amenity": "telephone"
      }
    },
    {
      "type": "Feature",
      "geometry": {
        "type": "Point",
        "coordinates": [
          13.4001022,
          49.7238362
        ]
      },
      "properties": {
        "source": "survey",
        "amenity": "telephone"
      }
    },
    {
      "type": "Feature",
      "geometry": {
        "type": "Point",
        "coordinates": [
          15.5648409,
          49.894739
        ]
      },
      "properties": {
        "source": "gps",
        "amenity": "telephone",
        "operator": "O2"
      }
    },
    {
      "type": "Feature",
      "geometry": {
        "type": "Point",
        "coordinates": [
          15.5883671,
          48.9678347
        ]
      },
      "properties": {
        "amenity": "telephone"
      }
    },
    {
      "type": "Feature",
      "geometry": {
        "type": "Point",
        "coordinates": [
          13.4128108,
          49.7279558
        ]
      },
      "properties": {
        "source": "survey",
        "amenity": "telephone"
      }
    },
    {
      "type": "Feature",
      "geometry": {
        "type": "Point",
        "coordinates": [
          13.3448153,
          49.7301336
        ]
      },
      "properties": {
        "source": "survey",
        "amenity": "telephone"
      }
    },
    {
      "type": "Feature",
      "geometry": {
        "type": "Point",
        "coordinates": [
          13.4064825,
          49.7304307
        ]
      },
      "properties": {
        "source": "survey",
        "amenity": "telephone"
      }
    },
    {
      "type": "Feature",
      "geometry": {
        "type": "Point",
        "coordinates": [
          13.4067794,
          49.7319039
        ]
      },
      "properties": {
        "source": "survey",
        "amenity": "telephone"
      }
    },
    {
      "type": "Feature",
      "geometry": {
        "type": "Point",
        "coordinates": [
          13.4086322,
          49.7336649
        ]
      },
      "properties": {
        "source": "survey",
        "amenity": "telephone"
      }
    },
    {
      "type": "Feature",
      "geometry": {
        "type": "Point",
        "coordinates": [
          14.4103668,
          50.0398044
        ]
      },
      "properties": {
        "amenity": "telephone"
      }
    },
    {
      "type": "Feature",
      "geometry": {
        "type": "Point",
        "coordinates": [
          14.4115992,
          50.0367663
        ]
      },
      "properties": {
        "amenity": "telephone"
      }
    },
    {
      "type": "Feature",
      "geometry": {
        "type": "Point",
        "coordinates": [
          12.9699798,
          49.6599821
        ]
      },
      "properties": {
        "phone": "+420374695115",
        "source": "survey",
        "amenity": "telephone",
        "operator": "O2"
      }
    },
    {
      "type": "Feature",
      "geometry": {
        "type": "Point",
        "coordinates": [
          13.405015,
          49.7354226
        ]
      },
      "properties": {
        "source": "survey",
        "amenity": "telephone"
      }
    },
    {
      "type": "Feature",
      "geometry": {
        "type": "Point",
        "coordinates": [
          14.440195,
          50.0899202
        ]
      },
      "properties": {
        "amenity": "telephone"
      }
    },
    {
      "type": "Feature",
      "geometry": {
        "type": "Point",
        "coordinates": [
          13.3771423,
          49.7543194
        ]
      },
      "properties": {
        "source": "survey",
        "amenity": "telephone"
      }
    },
    {
      "type": "Feature",
      "geometry": {
        "type": "Point",
        "coordinates": [
          14.4205292,
          49.2224933
        ]
      },
      "properties": {
        "amenity": "telephone"
      }
    },
    {
      "type": "Feature",
      "geometry": {
        "type": "Point",
        "coordinates": [
          13.3637067,
          49.7764186
        ]
      },
      "properties": {
        "source": "survey",
        "amenity": "telephone"
      }
    },
    {
      "type": "Feature",
      "geometry": {
        "type": "Point",
        "coordinates": [
          13.3632014,
          49.7770254
        ]
      },
      "properties": {
        "source": "survey",
        "amenity": "telephone"
      }
    },
    {
      "type": "Feature",
      "geometry": {
        "type": "Point",
        "coordinates": [
          13.367586,
          49.7779617
        ]
      },
      "properties": {
        "source": "survey",
        "amenity": "telephone"
      }
    },
    {
      "type": "Feature",
      "geometry": {
        "type": "Point",
        "coordinates": [
          13.3690094,
          49.7800073
        ]
      },
      "properties": {
        "source": "survey",
        "amenity": "telephone"
      }
    },
    {
      "type": "Feature",
      "geometry": {
        "type": "Point",
        "coordinates": [
          13.3658261,
          49.780442
        ]
      },
      "properties": {
        "source": "survey",
        "amenity": "telephone"
      }
    },
    {
      "type": "Feature",
      "geometry": {
        "type": "Point",
        "coordinates": [
          13.3960742,
          49.7326398
        ]
      },
      "properties": {
        "source": "survey",
        "amenity": "telephone"
      }
    },
    {
      "type": "Feature",
      "geometry": {
        "type": "Point",
        "coordinates": [
          13.5217785,
          49.2378617
        ]
      },
      "properties": {
        "amenity": "telephone",
        "operator": "O2",
        "payment:coins": "yes"
      }
    },
    {
      "type": "Feature",
      "geometry": {
        "type": "Point",
        "coordinates": [
          13.4070445,
          49.7171499
        ]
      },
      "properties": {
        "amenity": "telephone"
      }
    },
    {
      "type": "Feature",
      "geometry": {
        "type": "Point",
        "coordinates": [
          13.4188814,
          49.7490716
        ]
      },
      "properties": {
        "amenity": "telephone"
      }
    },
    {
      "type": "Feature",
      "geometry": {
        "type": "Point",
        "coordinates": [
          13.4228782,
          49.7534716
        ]
      },
      "properties": {
        "amenity": "telephone"
      }
    },
    {
      "type": "Feature",
      "geometry": {
        "type": "Point",
        "coordinates": [
          13.4210203,
          49.7570019
        ]
      },
      "properties": {
        "amenity": "telephone"
      }
    },
    {
      "type": "Feature",
      "geometry": {
        "type": "Point",
        "coordinates": [
          13.4237883,
          49.7584343
        ]
      },
      "properties": {
        "source": "survey",
        "amenity": "telephone"
      }
    },
    {
      "type": "Feature",
      "geometry": {
        "type": "Point",
        "coordinates": [
          13.3719756,
          49.7674188
        ]
      },
      "properties": {
        "amenity": "telephone"
      }
    },
    {
      "type": "Feature",
      "geometry": {
        "type": "Point",
        "coordinates": [
          13.3669285,
          49.7707242
        ]
      },
      "properties": {
        "amenity": "telephone"
      }
    },
    {
      "type": "Feature",
      "geometry": {
        "type": "Point",
        "coordinates": [
          13.3665603,
          49.7499784
        ]
      },
      "properties": {
        "source": "survey",
        "amenity": "telephone"
      }
    },
    {
      "type": "Feature",
      "geometry": {
        "type": "Point",
        "coordinates": [
          13.2942595,
          49.6860147
        ]
      },
      "properties": {
        "source": "survey",
        "amenity": "telephone"
      }
    },
    {
      "type": "Feature",
      "geometry": {
        "type": "Point",
        "coordinates": [
          13.291823,
          49.655113
        ]
      },
      "properties": {
        "source": "survey",
        "amenity": "telephone"
      }
    },
    {
      "type": "Feature",
      "geometry": {
        "type": "Point",
        "coordinates": [
          14.7551268,
          49.061799
        ]
      },
      "properties": {
        "phone": "+420 384 792 500",
        "source": "survey",
        "amenity": "telephone",
        "operator": "O2"
      }
    },
    {
      "type": "Feature",
      "geometry": {
        "type": "Point",
        "coordinates": [
          13.3705506,
          49.7312959
        ]
      },
      "properties": {
        "amenity": "telephone"
      }
    },
    {
      "type": "Feature",
      "geometry": {
        "type": "Point",
        "coordinates": [
          13.420889,
          49.7311019
        ]
      },
      "properties": {
        "amenity": "telephone"
      }
    },
    {
      "type": "Feature",
      "geometry": {
        "type": "Point",
        "coordinates": [
          13.3069106,
          49.7558519
        ]
      },
      "properties": {
        "amenity": "telephone"
      }
    },
    {
      "type": "Feature",
      "geometry": {
        "type": "Point",
        "coordinates": [
          13.3780491,
          49.7362229
        ]
      },
      "properties": {
        "source": "survey",
        "amenity": "telephone"
      }
    },
    {
      "type": "Feature",
      "geometry": {
        "type": "Point",
        "coordinates": [
          13.3795763,
          49.7373001
        ]
      },
      "properties": {
        "source": "survey",
        "amenity": "telephone"
      }
    },
    {
      "type": "Feature",
      "geometry": {
        "type": "Point",
        "coordinates": [
          13.3754824,
          49.7427737
        ]
      },
      "properties": {
        "source": "survey",
        "amenity": "telephone"
      }
    },
    {
      "type": "Feature",
      "geometry": {
        "type": "Point",
        "coordinates": [
          13.3676935,
          49.7363962
        ]
      },
      "properties": {
        "source": "survey",
        "amenity": "telephone"
      }
    },
    {
      "type": "Feature",
      "geometry": {
        "type": "Point",
        "coordinates": [
          13.3721292,
          49.7421044
        ]
      },
      "properties": {
        "source": "survey",
        "amenity": "telephone"
      }
    },
    {
      "type": "Feature",
      "geometry": {
        "type": "Point",
        "coordinates": [
          13.4087189,
          49.7483331
        ]
      },
      "properties": {
        "source": "survey",
        "amenity": "telephone"
      }
    },
    {
      "type": "Feature",
      "geometry": {
        "type": "Point",
        "coordinates": [
          13.4155653,
          49.75467
        ]
      },
      "properties": {
        "source": "survey",
        "amenity": "telephone"
      }
    },
    {
      "type": "Feature",
      "geometry": {
        "type": "Point",
        "coordinates": [
          13.373797,
          49.7691466
        ]
      },
      "properties": {
        "source": "survey",
        "amenity": "telephone"
      }
    },
    {
      "type": "Feature",
      "geometry": {
        "type": "Point",
        "coordinates": [
          13.3733142,
          49.7703932
        ]
      },
      "properties": {
        "source": "survey",
        "amenity": "telephone"
      }
    },
    {
      "type": "Feature",
      "geometry": {
        "type": "Point",
        "coordinates": [
          13.3656086,
          49.7474429
        ]
      },
      "properties": {
        "source": "survey",
        "amenity": "telephone"
      }
    },
    {
      "type": "Feature",
      "geometry": {
        "type": "Point",
        "coordinates": [
          14.4212748,
          50.0732372
        ]
      },
      "properties": {
        "amenity": "telephone"
      }
    },
    {
      "type": "Feature",
      "geometry": {
        "type": "Point",
        "coordinates": [
          14.4103608,
          50.0707529
        ]
      },
      "properties": {
        "amenity": "telephone"
      }
    },
    {
      "type": "Feature",
      "geometry": {
        "type": "Point",
        "coordinates": [
          15.4171924,
          49.1340746
        ]
      },
      "properties": {
        "amenity": "telephone"
      }
    },
    {
      "type": "Feature",
      "geometry": {
        "type": "Point",
        "coordinates": [
          15.4289865,
          49.1480107
        ]
      },
      "properties": {
        "amenity": "telephone",
        "payment:telephone_cards": "yes"
      }
    },
    {
      "type": "Feature",
      "geometry": {
        "type": "Point",
        "coordinates": [
          13.3816338,
          49.7194174
        ]
      },
      "properties": {
        "source": "survey",
        "amenity": "telephone"
      }
    },
    {
      "type": "Feature",
      "geometry": {
        "type": "Point",
        "coordinates": [
          13.3843001,
          49.7221144
        ]
      },
      "properties": {
        "amenity": "telephone"
      }
    },
    {
      "type": "Feature",
      "geometry": {
        "type": "Point",
        "coordinates": [
          13.3870087,
          49.7266745
        ]
      },
      "properties": {
        "source": "survey",
        "amenity": "telephone"
      }
    },
    {
      "type": "Feature",
      "geometry": {
        "type": "Point",
        "coordinates": [
          17.4490143,
          50.2389622
        ]
      },
      "properties": {
        "amenity": "telephone"
      }
    },
    {
      "type": "Feature",
      "geometry": {
        "type": "Point",
        "coordinates": [
          14.4161091,
          50.0884138
        ]
      },
      "properties": {
        "amenity": "telephone",
        "operator": "O2"
      }
    },
    {
      "type": "Feature",
      "geometry": {
        "type": "Point",
        "coordinates": [
          13.5468752,
          49.3314551
        ]
      },
      "properties": {
        "source": "survey",
        "amenity": "telephone"
      }
    },
    {
      "type": "Feature",
      "geometry": {
        "type": "Point",
        "coordinates": [
          13.5201962,
          49.2315388
        ]
      },
      "properties": {
        "amenity": "telephone",
        "operator": "O2",
        "payment:coins": "yes"
      }
    },
    {
      "type": "Feature",
      "geometry": {
        "type": "Point",
        "coordinates": [
          14.4298555,
          50.0793156
        ]
      },
      "properties": {
        "layer": "-1",
        "amenity": "telephone"
      }
    },
    {
      "type": "Feature",
      "geometry": {
        "type": "Point",
        "coordinates": [
          15.0421202,
          49.4162972
        ]
      },
      "properties": {
        "amenity": "telephone",
        "operator": "O2"
      }
    },
    {
      "type": "Feature",
      "geometry": {
        "type": "Point",
        "coordinates": [
          14.559455,
          50.0479461
        ]
      },
      "properties": {
        "amenity": "telephone"
      }
    },
    {
      "type": "Feature",
      "geometry": {
        "type": "Point",
        "coordinates": [
          13.3628371,
          49.7266086
        ]
      },
      "properties": {
        "source": "survey",
        "amenity": "telephone"
      }
    },
    {
      "type": "Feature",
      "geometry": {
        "type": "Point",
        "coordinates": [
          13.4985395,
          49.0238182
        ]
      },
      "properties": {
        "amenity": "telephone"
      }
    },
    {
      "type": "Feature",
      "geometry": {
        "type": "Point",
        "coordinates": [
          13.65971,
          48.9899745
        ]
      },
      "properties": {
        "phone": "+420 388434101",
        "amenity": "telephone"
      }
    },
    {
      "type": "Feature",
      "geometry": {
        "type": "Point",
        "coordinates": [
          13.4344097,
          49.2687572
        ]
      },
      "properties": {
        "phone": "376594901",
        "amenity": "telephone"
      }
    },
    {
      "type": "Feature",
      "geometry": {
        "type": "Point",
        "coordinates": [
          14.7001197,
          49.3770321
        ]
      },
      "properties": {
        "amenity": "telephone"
      }
    },
    {
      "type": "Feature",
      "geometry": {
        "type": "Point",
        "coordinates": [
          14.6755636,
          49.4140971
        ]
      },
      "properties": {
        "source": "local knowledge",
        "amenity": "telephone"
      }
    },
    {
      "type": "Feature",
      "geometry": {
        "type": "Point",
        "coordinates": [
          14.0018485,
          49.0126087
        ]
      },
      "properties": {
        "amenity": "telephone"
      }
    },
    {
      "type": "Feature",
      "geometry": {
        "type": "Point",
        "coordinates": [
          14.4202719,
          50.0677086
        ]
      },
      "properties": {
        "amenity": "telephone"
      }
    },
    {
      "type": "Feature",
      "geometry": {
        "type": "Point",
        "coordinates": [
          14.417264,
          50.0673943
        ]
      },
      "properties": {
        "amenity": "telephone"
      }
    },
    {
      "type": "Feature",
      "geometry": {
        "type": "Point",
        "coordinates": [
          13.965109,
          50.5850836
        ]
      },
      "properties": {
        "phone": "+420417872023",
        "amenity": "telephone",
        "operator": "O2"
      }
    },
    {
      "type": "Feature",
      "geometry": {
        "type": "Point",
        "coordinates": [
          14.1337289,
          50.6146757
        ]
      },
      "properties": {
        "phone": "+420472743042",
        "amenity": "telephone",
        "operator": "O2"
      }
    },
    {
      "type": "Feature",
      "geometry": {
        "type": "Point",
        "coordinates": [
          13.5571722,
          50.6350306
        ]
      },
      "properties": {
        "phone": "+420476116017",
        "amenity": "telephone",
        "operator": "O2"
      }
    },
    {
      "type": "Feature",
      "geometry": {
        "type": "Point",
        "coordinates": [
          14.0915648,
          50.6859115
        ]
      },
      "properties": {
        "phone": "+420475507045",
        "amenity": "telephone",
        "operator": "O2"
      }
    },
    {
      "type": "Feature",
      "geometry": {
        "type": "Point",
        "coordinates": [
          13.6879469,
          50.7190603
        ]
      },
      "properties": {
        "phone": "+420417878060",
        "amenity": "telephone",
        "operator": "O2"
      }
    },
    {
      "type": "Feature",
      "geometry": {
        "type": "Point",
        "coordinates": [
          14.0479781,
          50.8059108
        ]
      },
      "properties": {
        "phone": "+420475222611",
        "amenity": "telephone",
        "operator": "O2"
      }
    },
    {
      "type": "Feature",
      "geometry": {
        "type": "Point",
        "coordinates": [
          14.3390258,
          49.4025541
        ]
      },
      "properties": {
        "phone": "+420382589127",
        "amenity": "telephone",
        "operator": "O2"
      }
    },
    {
      "type": "Feature",
      "geometry": {
        "type": "Point",
        "coordinates": [
          14.3234053,
          49.3933358
        ]
      },
      "properties": {
        "phone": "+420382589145",
        "amenity": "telephone",
        "operator": "O2"
      }
    },
    {
      "type": "Feature",
      "geometry": {
        "type": "Point",
        "coordinates": [
          12.8629323,
          50.0694961
        ]
      },
      "properties": {
        "phone": "+420353999628",
        "amenity": "telephone",
        "operator": "O2"
      }
    },
    {
      "type": "Feature",
      "geometry": {
        "type": "Point",
        "coordinates": [
          12.5218053,
          50.083633
        ]
      },
      "properties": {
        "phone": "+420354595138",
        "amenity": "telephone",
        "operator": "O2"
      }
    },
    {
      "type": "Feature",
      "geometry": {
        "type": "Point",
        "coordinates": [
          12.852307,
          50.1487083
        ]
      },
      "properties": {
        "phone": "+420353972392",
        "amenity": "telephone",
        "operator": "O2"
      }
    },
    {
      "type": "Feature",
      "geometry": {
        "type": "Point",
        "coordinates": [
          12.3715323,
          50.1962128
        ]
      },
      "properties": {
        "phone": "+420354596099",
        "amenity": "telephone",
        "operator": "O2"
      }
    },
    {
      "type": "Feature",
      "geometry": {
        "type": "Point",
        "coordinates": [
          12.2015287,
          50.2552133
        ]
      },
      "properties": {
        "phone": "+420354527340",
        "amenity": "telephone",
        "operator": "O2"
      }
    },
    {
      "type": "Feature",
      "geometry": {
        "type": "Point",
        "coordinates": [
          12.6971611,
          50.2766594
        ]
      },
      "properties": {
        "phone": "+420352675733",
        "amenity": "telephone",
        "operator": "O2"
      }
    },
    {
      "type": "Feature",
      "geometry": {
        "type": "Point",
        "coordinates": [
          12.9944499,
          49.5861257
        ]
      },
      "properties": {
        "phone": "+420379493192",
        "amenity": "telephone",
        "operator": "O2"
      }
    },
    {
      "type": "Feature",
      "geometry": {
        "type": "Point",
        "coordinates": [
          12.8356413,
          49.6139282
        ]
      },
      "properties": {
        "phone": "+420379496550",
        "amenity": "telephone",
        "operator": "O2"
      }
    },
    {
      "type": "Feature",
      "geometry": {
        "type": "Point",
        "coordinates": [
          12.9961585,
          49.6473202
        ]
      },
      "properties": {
        "phone": "+420374695174",
        "amenity": "telephone",
        "operator": "O2"
      }
    },
    {
      "type": "Feature",
      "geometry": {
        "type": "Point",
        "coordinates": [
          13.0412749,
          49.7642636
        ]
      },
      "properties": {
        "phone": "+420374624583",
        "amenity": "telephone",
        "operator": "O2"
      }
    },
    {
      "type": "Feature",
      "geometry": {
        "type": "Point",
        "coordinates": [
          12.85585,
          49.7722283
        ]
      },
      "properties": {
        "phone": "+420374693203",
        "amenity": "telephone",
        "operator": "O2"
      }
    },
    {
      "type": "Feature",
      "geometry": {
        "type": "Point",
        "coordinates": [
          13.0149211,
          49.7917175
        ]
      },
      "properties": {
        "phone": "+420374624500",
        "amenity": "telephone",
        "operator": "O2"
      }
    },
    {
      "type": "Feature",
      "geometry": {
        "type": "Point",
        "coordinates": [
          13.2371727,
          49.8618697
        ]
      },
      "properties": {
        "phone": "+420377915333",
        "amenity": "telephone",
        "operator": "O2"
      }
    },
    {
      "type": "Feature",
      "geometry": {
        "type": "Point",
        "coordinates": [
          12.6039781,
          49.8891215
        ]
      },
      "properties": {
        "phone": "+420374782462",
        "amenity": "telephone",
        "operator": "O2"
      }
    },
    {
      "type": "Feature",
      "geometry": {
        "type": "Point",
        "coordinates": [
          12.7798921,
          49.9529253
        ]
      },
      "properties": {
        "phone": "+420354627055",
        "amenity": "telephone",
        "operator": "O2"
      }
    },
    {
      "type": "Feature",
      "geometry": {
        "type": "Point",
        "coordinates": [
          14.4396146,
          49.0511584
        ]
      },
      "properties": {
        "amenity": "telephone"
      }
    },
    {
      "type": "Feature",
      "geometry": {
        "type": "Point",
        "coordinates": [
          13.5223998,
          49.6399353
        ]
      },
      "properties": {
        "phone": "+420377891102",
        "amenity": "telephone",
        "operator": "O2"
      }
    },
    {
      "type": "Feature",
      "geometry": {
        "type": "Point",
        "coordinates": [
          14.3669603,
          48.6549525
        ]
      },
      "properties": {
        "phone": "+420380749848",
        "amenity": "telephone",
        "operator": "O2"
      }
    },
    {
      "type": "Feature",
      "geometry": {
        "type": "Point",
        "coordinates": [
          14.3889532,
          48.7009287
        ]
      },
      "properties": {
        "phone": "+420380327165",
        "amenity": "telephone",
        "operator": "O2"
      }
    },
    {
      "type": "Feature",
      "geometry": {
        "type": "Point",
        "coordinates": [
          14.1077686,
          48.7379156
        ]
      },
      "properties": {
        "phone": "+420380744220",
        "amenity": "telephone",
        "operator": "O2"
      }
    },
    {
      "type": "Feature",
      "geometry": {
        "type": "Point",
        "coordinates": [
          14.4674192,
          48.774855
        ]
      },
      "properties": {
        "phone": "+420380321156",
        "amenity": "telephone",
        "operator": "O2"
      }
    },
    {
      "type": "Feature",
      "geometry": {
        "type": "Point",
        "coordinates": [
          14.4106046,
          48.8543353
        ]
      },
      "properties": {
        "phone": "+420380743792",
        "amenity": "telephone",
        "operator": "O2"
      }
    },
    {
      "type": "Feature",
      "geometry": {
        "type": "Point",
        "coordinates": [
          14.948282,
          49.3099411
        ]
      },
      "properties": {
        "phone": "+420565436803",
        "amenity": "telephone",
        "operator": "O2"
      }
    },
    {
      "type": "Feature",
      "geometry": {
        "type": "Point",
        "coordinates": [
          14.9069905,
          49.0692069
        ]
      },
      "properties": {
        "phone": "+420384389180",
        "amenity": "telephone",
        "operator": "O2"
      }
    },
    {
      "type": "Feature",
      "geometry": {
        "type": "Point",
        "coordinates": [
          14.9700404,
          49.0743139
        ]
      },
      "properties": {
        "phone": "+420384380178",
        "amenity": "telephone",
        "operator": "O2"
      }
    },
    {
      "type": "Feature",
      "geometry": {
        "type": "Point",
        "coordinates": [
          15.0572117,
          49.1712461
        ]
      },
      "properties": {
        "phone": "+420384396481",
        "amenity": "telephone",
        "operator": "O2"
      }
    },
    {
      "type": "Feature",
      "geometry": {
        "type": "Point",
        "coordinates": [
          15.0662412,
          49.1896786
        ]
      },
      "properties": {
        "phone": "+420384396397",
        "amenity": "telephone",
        "operator": "O2"
      }
    },
    {
      "type": "Feature",
      "geometry": {
        "type": "Point",
        "coordinates": [
          14.6842144,
          48.9698718
        ]
      },
      "properties": {
        "amenity": "telephone"
      }
    },
    {
      "type": "Feature",
      "geometry": {
        "type": "Point",
        "coordinates": [
          14.0373716,
          49.4300409
        ]
      },
      "properties": {
        "phone": "+420382229390",
        "amenity": "telephone",
        "operator": "O2"
      }
    },
    {
      "type": "Feature",
      "geometry": {
        "type": "Point",
        "coordinates": [
          17.7658825,
          49.7091164
        ]
      },
      "properties": {
        "phone": "+420556748292",
        "amenity": "telephone",
        "operator": "O2"
      }
    },
    {
      "type": "Feature",
      "geometry": {
        "type": "Point",
        "coordinates": [
          13.6460118,
          49.0387982
        ]
      },
      "properties": {
        "amenity": "telephone"
      }
    },
    {
      "type": "Feature",
      "geometry": {
        "type": "Point",
        "coordinates": [
          13.393722,
          49.7408923
        ]
      },
      "properties": {
        "source": "survey",
        "amenity": "telephone"
      }
    },
    {
      "type": "Feature",
      "geometry": {
        "type": "Point",
        "coordinates": [
          14.4729877,
          50.1142231
        ]
      },
      "properties": {
        "amenity": "telephone"
      }
    },
    {
      "type": "Feature",
      "geometry": {
        "type": "Point",
        "coordinates": [
          13.3648937,
          49.7681102
        ]
      },
      "properties": {
        "source": "survey",
        "amenity": "telephone"
      }
    },
    {
      "type": "Feature",
      "geometry": {
        "type": "Point",
        "coordinates": [
          14.1335899,
          49.9688706
        ]
      },
      "properties": {
        "amenity": "telephone"
      }
    },
    {
      "type": "Feature",
      "geometry": {
        "type": "Point",
        "coordinates": [
          14.419501,
          49.2237121
        ]
      },
      "properties": {
        "amenity": "telephone",
        "payment:coins": "yes",
        "payment:telephone_cards": "yes"
      }
    },
    {
      "type": "Feature",
      "geometry": {
        "type": "Point",
        "coordinates": [
          17.8800912,
          48.9800273
        ]
      },
      "properties": {
        "phone": "572696202",
        "amenity": "telephone"
      }
    },
    {
      "type": "Feature",
      "geometry": {
        "type": "Point",
        "coordinates": [
          14.4062266,
          48.834626
        ]
      },
      "properties": {
        "amenity": "telephone",
        "operator": "O2 a.s.",
        "payment:coins": "yes",
        "payment:telephone_cards": "yes"
      }
    },
    {
      "type": "Feature",
      "geometry": {
        "type": "Point",
        "coordinates": [
          14.9374899,
          49.0513472
        ]
      },
      "properties": {
        "phone": "+420 384 389 488",
        "amenity": "telephone",
        "covered": "yes",
        "operator": "O2",
        "payment:coins": "no",
        "payment:telephone_cards": "yes"
      }
    },
    {
      "type": "Feature",
      "geometry": {
        "type": "Point",
        "coordinates": [
          14.9335191,
          48.8787405
        ]
      },
      "properties": {
        "amenity": "telephone",
        "operator": "O2"
      }
    },
    {
      "type": "Feature",
      "geometry": {
        "type": "Point",
        "coordinates": [
          14.2674566,
          48.9910571
        ]
      },
      "properties": {
        "amenity": "telephone",
        "payment:coins": "yes"
      }
    },
    {
      "type": "Feature",
      "geometry": {
        "type": "Point",
        "coordinates": [
          17.4391066,
          49.6694684
        ]
      },
      "properties": {
        "amenity": "telephone",
        "operator": "O2"
      }
    },
    {
      "type": "Feature",
      "geometry": {
        "type": "Point",
        "coordinates": [
          14.3502012,
          50.093542
        ]
      },
      "properties": {
        "amenity": "telephone"
      }
    },
    {
      "type": "Feature",
      "geometry": {
        "type": "Point",
        "coordinates": [
          14.445054,
          50.0914524
        ]
      },
      "properties": {
        "phone": "224816959",
        "amenity": "telephone",
        "operator": "O2"
      }
    },
    {
      "type": "Feature",
      "geometry": {
        "type": "Point",
        "coordinates": [
          13.4811403,
          49.0870995
        ]
      },
      "properties": {
        "amenity": "telephone"
      }
    },
    {
      "type": "Feature",
      "geometry": {
        "type": "Point",
        "coordinates": [
          14.2637173,
          49.0682204
        ]
      },
      "properties": {
        "amenity": "telephone"
      }
    },
    {
      "type": "Feature",
      "geometry": {
        "type": "Point",
        "coordinates": [
          14.3349142,
          49.0031977
        ]
      },
      "properties": {
        "source": "survey",
        "amenity": "telephone"
      }
    },
    {
      "type": "Feature",
      "geometry": {
        "type": "Point",
        "coordinates": [
          14.4865235,
          50.0225273
        ]
      },
      "properties": {
        "amenity": "telephone"
      }
    },
    {
      "type": "Feature",
      "geometry": {
        "type": "Point",
        "coordinates": [
          14.4343679,
          50.0873047
        ]
      },
      "properties": {
        "level": "0",
        "amenity": "telephone"
      }
    },
    {
      "type": "Feature",
      "geometry": {
        "type": "Point",
        "coordinates": [
          14.4086218,
          50.0617564
        ]
      },
      "properties": {
        "level": "0",
        "amenity": "telephone"
      }
    },
    {
      "type": "Feature",
      "geometry": {
        "type": "Point",
        "coordinates": [
          14.4086211,
          50.0617604
        ]
      },
      "properties": {
        "level": "0",
        "amenity": "telephone"
      }
    },
    {
      "type": "Feature",
      "geometry": {
        "type": "Point",
        "coordinates": [
          13.1602846,
          49.2150369
        ]
      },
      "properties": {
        "amenity": "telephone",
        "operator": "Telefónica O2"
      }
    },
    {
      "type": "Feature",
      "geometry": {
        "type": "Point",
        "coordinates": [
          13.9832899,
          49.5380426
        ]
      },
      "properties": {
        "amenity": "telephone"
      }
    },
    {
      "type": "Feature",
      "geometry": {
        "type": "Point",
        "coordinates": [
          14.5941695,
          49.2503012
        ]
      },
      "properties": {
        "amenity": "telephone"
      }
    },
    {
      "type": "Feature",
      "geometry": {
        "type": "Point",
        "coordinates": [
          14.4299326,
          50.079927
        ]
      },
      "properties": {
        "amenity": "telephone",
        "operator": "Telefónica O2"
      }
    },
    {
      "type": "Feature",
      "geometry": {
        "type": "Point",
        "coordinates": [
          14.4301544,
          50.0794937
        ]
      },
      "properties": {
        "amenity": "telephone",
        "operator": "Telefónica O2"
      }
    },
    {
      "type": "Feature",
      "geometry": {
        "type": "Point",
        "coordinates": [
          14.6706624,
          48.7796604
        ]
      },
      "properties": {
        "amenity": "telephone",
        "operator": "O2",
        "payment:coins": "yes",
        "payment:telephone_cards": "yes"
      }
    },
    {
      "type": "Feature",
      "geometry": {
        "type": "Point",
        "coordinates": [
          13.3897328,
          49.7357967
        ]
      },
      "properties": {
        "source": "survey",
        "amenity": "telephone",
        "payment:coins": "yes"
      }
    },
    {
      "type": "Feature",
      "geometry": {
        "type": "Point",
        "coordinates": [
          14.4552069,
          50.0937477
        ]
      },
      "properties": {
        "source": "survey",
        "amenity": "telephone",
        "operator": "O2",
        "payment:coins": "yes",
        "payment:telephone_cards": "yes"
      }
    },
    {
      "type": "Feature",
      "geometry": {
        "type": "Point",
        "coordinates": [
          13.1979959,
          49.1195947
        ]
      },
      "properties": {
        "amenity": "telephone"
      }
    },
    {
      "type": "Feature",
      "geometry": {
        "type": "Point",
        "coordinates": [
          14.4793414,
          49.5026865
        ]
      },
      "properties": {
        "phone": "+420381272125",
        "amenity": "telephone",
        "operator": "O2"
      }
    },
    {
      "type": "Feature",
      "geometry": {
        "type": "Point",
        "coordinates": [
          14.2299248,
          49.1536486
        ]
      },
      "properties": {
        "phone": "+420383381109",
        "amenity": "telephone",
        "operator": "O2"
      }
    },
    {
      "type": "Feature",
      "geometry": {
        "type": "Point",
        "coordinates": [
          13.4908756,
          49.3366186
        ]
      },
      "properties": {
        "phone": "+420376396901",
        "amenity": "telephone",
        "operator": "O2"
      }
    },
    {
      "type": "Feature",
      "geometry": {
        "type": "Point",
        "coordinates": [
          15.2950607,
          50.4123402
        ]
      },
      "properties": {
        "phone": "+420493522153",
        "amenity": "telephone",
        "operator": "O2"
      }
    },
    {
      "type": "Feature",
      "geometry": {
        "type": "Point",
        "coordinates": [
          15.4711183,
          50.3959336
        ]
      },
      "properties": {
        "phone": "+420493597001",
        "amenity": "telephone",
        "operator": "O2"
      }
    },
    {
      "type": "Feature",
      "geometry": {
        "type": "Point",
        "coordinates": [
          14.2245855,
          49.0919016
        ]
      },
      "properties": {
        "amenity": "telephone"
      }
    },
    {
      "type": "Feature",
      "geometry": {
        "type": "Point",
        "coordinates": [
          13.5640429,
          49.0541454
        ]
      },
      "properties": {
        "amenity": "telephone"
      }
    },
    {
      "type": "Feature",
      "geometry": {
        "type": "Point",
        "coordinates": [
          14.0541932,
          49.3644891
        ]
      },
      "properties": {
        "amenity": "telephone",
        "covered": "yes"
      }
    },
    {
      "type": "Feature",
      "geometry": {
        "type": "Point",
        "coordinates": [
          14.6176107,
          49.1036859
        ]
      },
      "properties": {
        "amenity": "telephone"
      }
    },
    {
      "type": "Feature",
      "geometry": {
        "type": "Point",
        "coordinates": [
          15.5311091,
          49.2000301
        ]
      },
      "properties": {
        "indoor": "yes",
        "amenity": "telephone"
      }
    },
    {
      "type": "Feature",
      "geometry": {
        "type": "Point",
        "coordinates": [
          15.6120143,
          49.2139667
        ]
      },
      "properties": {
        "amenity": "telephone"
      }
    },
    {
      "type": "Feature",
      "geometry": {
        "type": "Point",
        "coordinates": [
          17.6942486,
          49.8175948
        ]
      },
      "properties": {
        "amenity": "telephone"
      }
    },
    {
      "type": "Feature",
      "geometry": {
        "type": "Point",
        "coordinates": [
          13.3272049,
          49.5730101
        ]
      },
      "properties": {
        "source": "survey",
        "amenity": "telephone"
      }
    },
    {
      "type": "Feature",
      "geometry": {
        "type": "Point",
        "coordinates": [
          14.6853648,
          49.3908284
        ]
      },
      "properties": {
        "amenity": "telephone"
      }
    },
    {
      "type": "Feature",
      "geometry": {
        "type": "Point",
        "coordinates": [
          13.8098265,
          49.4371727
        ]
      },
      "properties": {
        "amenity": "telephone",
        "covered": "booth"
      }
    },
    {
      "type": "Feature",
      "geometry": {
        "type": "Point",
        "coordinates": [
          15.7652675,
          49.5495422
        ]
      },
      "properties": {
        "amenity": "telephone",
        "operator": "O2"
      }
    },
    {
      "type": "Feature",
      "geometry": {
        "type": "Point",
        "coordinates": [
          14.2658588,
          49.0118037
        ]
      },
      "properties": {
        "fee": "yes",
        "sms": "yes",
        "phone": "+420387982012",
        "video": "no",
        "indoor": "no",
        "amenity": "telephone",
        "covered": "yes",
        "operator": "O2",
        "wheelchair": "yes",
        "source:date": "2020-05-03",
        "payment:telephone_cards": "yes"
      }
    },
    {
      "type": "Feature",
      "geometry": {
        "type": "Point",
        "coordinates": [
          17.6892033,
          49.9322824
        ]
      },
      "properties": {
        "amenity": "telephone"
      }
    },
    {
      "type": "Feature",
      "geometry": {
        "type": "Point",
        "coordinates": [
          16.2199737,
          49.1097465
        ]
      },
      "properties": {
        "amenity": "telephone",
        "covered": "booth"
      }
    },
    {
      "type": "Feature",
      "geometry": {
        "type": "Point",
        "coordinates": [
          15.5283454,
          49.8601268
        ]
      },
      "properties": {
        "amenity": "telephone"
      }
    },
    {
      "type": "Feature",
      "geometry": {
        "type": "Point",
        "coordinates": [
          13.4565756,
          49.2749694
        ]
      },
      "properties": {
        "amenity": "telephone",
        "covered": "booth"
      }
    },
    {
      "type": "Feature",
      "geometry": {
        "type": "Point",
        "coordinates": [
          13.7065628,
          49.2486833
        ]
      },
      "properties": {
        "amenity": "telephone",
        "covered": "booth"
      }
    },
    {
      "type": "Feature",
      "geometry": {
        "type": "Point",
        "coordinates": [
          13.612369,
          49.1731643
        ]
      },
      "properties": {
        "amenity": "telephone",
        "covered": "booth"
      }
    },
    {
      "type": "Feature",
      "geometry": {
        "type": "Point",
        "coordinates": [
          13.7176283,
          49.271164
        ]
      },
      "properties": {
        "amenity": "telephone",
        "covered": "booth"
      }
    },
    {
      "type": "Feature",
      "geometry": {
        "type": "Point",
        "coordinates": [
          13.6744219,
          49.2892124
        ]
      },
      "properties": {
        "amenity": "telephone",
        "covered": "booth"
      }
    },
    {
      "type": "Feature",
      "geometry": {
        "type": "Point",
        "coordinates": [
          13.6194406,
          49.1244387
        ]
      },
      "properties": {
        "amenity": "telephone",
        "covered": "booth"
      }
    },
    {
      "type": "Feature",
      "geometry": {
        "type": "Point",
        "coordinates": [
          13.5850279,
          49.283532
        ]
      },
      "properties": {
        "amenity": "telephone",
        "covered": "booth"
      }
    },
    {
      "type": "Feature",
      "geometry": {
        "type": "Point",
        "coordinates": [
          13.7633083,
          49.2686711
        ]
      },
      "properties": {
        "amenity": "telephone",
        "covered": "booth"
      }
    },
    {
      "type": "Feature",
      "geometry": {
        "type": "Point",
        "coordinates": [
          13.5967211,
          49.3229636
        ]
      },
      "properties": {
        "amenity": "telephone",
        "covered": "booth"
      }
    },
    {
      "type": "Feature",
      "geometry": {
        "type": "Point",
        "coordinates": [
          13.3538269,
          49.3603531
        ]
      },
      "properties": {
        "amenity": "telephone",
        "covered": "booth"
      }
    },
    {
      "type": "Feature",
      "geometry": {
        "type": "Point",
        "coordinates": [
          13.7027594,
          49.3639118
        ]
      },
      "properties": {
        "amenity": "telephone",
        "covered": "booth"
      }
    },
    {
      "type": "Feature",
      "geometry": {
        "type": "Point",
        "coordinates": [
          14.3118899,
          48.8048583
        ]
      },
      "properties": {
        "amenity": "telephone"
      }
    },
    {
      "type": "Feature",
      "geometry": {
        "type": "Point",
        "coordinates": [
          14.3293417,
          48.8238651
        ]
      },
      "properties": {
        "level": "0",
        "indoor": "no",
        "amenity": "telephone",
        "covered": "yes",
        "operator": "O2",
        "wheelchair": "yes"
      }
    },
    {
      "type": "Feature",
      "geometry": {
        "type": "Point",
        "coordinates": [
          14.915421,
          49.8715342
        ]
      },
      "properties": {
        "phone": "+420 327 321 846",
        "amenity": "telephone",
        "operator": "O2"
      }
    },
    {
      "type": "Feature",
      "geometry": {
        "type": "Point",
        "coordinates": [
          15.9813242,
          48.7885413
        ]
      },
      "properties": {
        "amenity": "telephone"
      }
    },
    {
      "type": "Feature",
      "geometry": {
        "type": "Point",
        "coordinates": [
          13.9460827,
          49.799915
        ]
      },
      "properties": {
        "phone": "+420 318 692 113",
        "amenity": "telephone",
        "operator": "O2"
      }
    },
    {
      "type": "Feature",
      "geometry": {
        "type": "Point",
        "coordinates": [
          13.7159983,
          49.1412765
        ]
      },
      "properties": {
        "amenity": "telephone",
        "covered": "booth",
        "operator": "O2"
      }
    },
    {
      "type": "Feature",
      "geometry": {
        "type": "Point",
        "coordinates": [
          14.503993,
          48.9113581
        ]
      },
      "properties": {
        "fee": "yes",
        "lit": "yes",
        "sms": "yes",
        "phone": "+420387988596",
        "video": "no",
        "indoor": "no",
        "amenity": "telephone",
        "covered": "yes",
        "operator": "O2",
        "wheelchair": "yes",
        "source:date": "2020-05-03",
        "payment:telephone_cards": "yes"
      }
    },
    {
      "type": "Feature",
      "geometry": {
        "type": "Point",
        "coordinates": [
          14.6002477,
          48.880747
        ]
      },
      "properties": {
        "fee": "yes",
        "sms": "yes",
        "phone": "+420386321490",
        "video": "no",
        "indoor": "no",
        "amenity": "telephone",
        "covered": "yes",
        "operator": "O2",
        "wheelchair": "yes",
        "source:date": "2020-05-03",
        "payment:telephone_cards": "yes"
      }
    },
    {
      "type": "Feature",
      "geometry": {
        "type": "Point",
        "coordinates": [
          14.2336328,
          49.0100921
        ]
      },
      "properties": {
        "fee": "yes",
        "sms": "yes",
        "phone": "+420388324943",
        "video": "no",
        "indoor": "no",
        "amenity": "telephone",
        "covered": "yes",
        "operator": "O2",
        "wheelchair": "yes",
        "source:date": "2020-05-03",
        "currency:EUR": "yes",
        "payment:coins": "yes"
      }
    },
    {
      "type": "Feature",
      "geometry": {
        "type": "Point",
        "coordinates": [
          14.4681438,
          49.2955663
        ]
      },
      "properties": {
        "amenity": "telephone"
      }
    },
    {
      "type": "Feature",
      "geometry": {
        "type": "Point",
        "coordinates": [
          15.6879163,
          48.9320285
        ]
      },
      "properties": {
        "amenity": "telephone"
      }
    },
    {
      "type": "Feature",
      "geometry": {
        "type": "Point",
        "coordinates": [
          15.6898882,
          48.9408681
        ]
      },
      "properties": {
        "amenity": "telephone"
      }
    },
    {
      "type": "Feature",
      "geometry": {
        "type": "Point",
        "coordinates": [
          15.3237404,
          49.7255872
        ]
      },
      "properties": {
        "amenity": "telephone",
        "covered": "booth"
      }
    },
    {
      "type": "Feature",
      "geometry": {
        "type": "LineString",
        "coordinates": [
          [
            13.9832815,
            49.5380388
          ],
          [
            13.9832703,
            49.5380491
          ],
          [
            13.983288,
            49.5380572
          ],
          [
            13.9832992,
            49.5380469
          ],
          [
            13.9832815,
            49.5380388
          ]
        ]
      },
      "properties": {
        "amenity": "telephone"
      }
    },
    {
      "type": "Feature",
      "geometry": {
        "type": "MultiPolygon",
        "coordinates": [
          [
            [
              [
                13.9832703,
                49.5380491
              ],
              [
                13.9832815,
                49.5380388
              ],
              [
                13.9832992,
                49.5380469
              ],
              [
                13.983288,
                49.5380572
              ],
              [
                13.9832703,
                49.5380491
              ]
            ]
          ]
        ]
      },
      "properties": {
        "amenity": "telephone"
      }
    }
  ]
}
