{"type":"FeatureCollection","features":[
{"type":"Feature","geometry":{"type":"Point","coordinates":[15.8762472,49.2148031]},"properties":{"disused:amenity":"telephone","operator":"Telefónica O2"}},
{"type":"Feature","geometry":{"type":"Point","coordinates":[14.5003848,50.2770796]},"properties":{"disused:amenity":"telephone","operator":"Telefónica O2"}},
{"type":"Feature","geometry":{"type":"Point","coordinates":[14.5161381,50.2584482]},"properties":{"disused:amenity":"telephone","operator":"Telefónica O2"}},
{"type":"Feature","geometry":{"type":"Point","coordinates":[14.520526,50.2546144]},"properties":{"disused:amenity":"telephone"}},
{"type":"Feature","geometry":{"type":"Point","coordinates":[14.514257,50.2520094]},"properties":{"disused:amenity":"telephone","operator":"Telefónica O2"}},
{"type":"Feature","geometry":{"type":"Point","coordinates":[14.4864261,50.1310952]},"properties":{"disused:amenity":"telephone","operator":"Telefónica O2"}},
{"type":"Feature","geometry":{"type":"Point","coordinates":[14.5861595,50.1492673]},"properties":{"disused:amenity":"telephone","operator":"Telefónica O2"}},
{"type":"Feature","geometry":{"type":"Point","coordinates":[14.5058779,50.1402112]},"properties":{"disused:amenity":"telephone","operator":"Telefónica O2"}},
{"type":"Feature","geometry":{"type":"Point","coordinates":[16.6545213,48.8871977]},"properties":{"disused:amenity":"telephone","operator":"Telefónica O2"}},
{"type":"Feature","geometry":{"type":"Point","coordinates":[15.8838738,49.7484399]},"properties":{"disused:amenity":"telephone","operator":"Telefónica O2"}},
{"type":"Feature","geometry":{"type":"Point","coordinates":[14.5775158,51.0038983]},"properties":{"amenity":"telephone"}},
{"type":"Feature","geometry":{"type":"Point","coordinates":[14.5031084,48.6153501]},"properties":{"amenity":"telephone","created_by":"Potlatch 0.9c"}},
{"type":"Feature","geometry":{"type":"Point","coordinates":[13.6249951,49.067797]},"properties":{"amenity":"telephone","operator":"Telefónica O2"}},
{"type":"Feature","geometry":{"type":"Point","coordinates":[16.063309,49.6888826]},"properties":{"disused:amenity":"telephone","operator":"Telefónica O2","phone":"566662515"}},
{"type":"Feature","geometry":{"type":"Point","coordinates":[13.8031441,48.7811509]},"properties":{"amenity":"telephone","operator":"Deutsche Telekom AG"}},
{"type":"Feature","geometry":{"type":"Point","coordinates":[14.4605975,50.0421384]},"properties":{"note":"dva telefonní automaty","amenity":"telephone","operator":"Telefónica O2"}},
{"type":"Feature","geometry":{"type":"Point","coordinates":[14.7580356,50.8317626]},"properties":{"amenity":"telephone","operator":"Deutsche Telekom AG"}},
{"type":"Feature","geometry":{"type":"Point","coordinates":[15.8011521,49.9940258]},"properties":{"disused:amenity":"telephone","operator":"Telefónica O2"}},
{"type":"Feature","geometry":{"type":"Point","coordinates":[14.8653516,49.565257]},"properties":{"amenity":"telephone","operator":"Telefónica O2"}},
{"type":"Feature","geometry":{"type":"Point","coordinates":[14.8083098,49.5332532]},"properties":{"disused:amenity":"telephone","operator":"Telefónica O2"}},
{"type":"Feature","geometry":{"type":"Point","coordinates":[14.3908564,50.1004921]},"properties":{"note":"dvě telefonní budky vedle sebe","amenity":"telephone","operator":"Telefónica O2"}},
{"type":"Feature","geometry":{"type":"Point","coordinates":[14.4041472,50.0878155]},"properties":{"amenity":"telephone","note":"2 automaty vedle sebe","operator":"O2"}},
{"type":"Feature","geometry":{"type":"Point","coordinates":[14.4341103,50.0842537]},"properties":{"operator":"Telefónica O2","was:amenity":"telephone"}},
{"type":"Feature","geometry":{"type":"Point","coordinates":[14.525966,50.0304831]},"properties":{"note":"4 telefonní automaty vedle sebe","amenity":"telephone","operator":"Telefónica O2"}},
{"type":"Feature","geometry":{"type":"Point","coordinates":[14.4261933,50.0754765]},"properties":{"amenity":"telephone","operator":"Telefónica O2"}},
{"type":"Feature","geometry":{"type":"Point","coordinates":[14.446215,50.0847114]},"properties":{"note":"2 telefonní budky vedle sebe","amenity":"telephone","operator":"Telefónica O2"}},
{"type":"Feature","geometry":{"type":"Point","coordinates":[14.4689283,50.0887399]},"properties":{"amenity":"telephone","operator":"Telefónica O2"}},
{"type":"Feature","geometry":{"type":"Point","coordinates":[14.46998,50.0872414]},"properties":{"source":"CZ:IPRPraha:ortofoto","amenity":"telephone","operator":"Telefónica O2"}},
{"type":"Feature","geometry":{"type":"Point","coordinates":[14.5118547,50.0922665]},"properties":{"amenity":"telephone","operator":"Telefónica O2"}},
{"type":"Feature","geometry":{"type":"Point","coordinates":[14.4957845,50.0948215]},"properties":{"phone":"+420266310920","amenity":"telephone","operator":"Telefónica O2"}},
{"type":"Feature","geometry":{"type":"Point","coordinates":[14.4731739,50.1032603]},"properties":{"note":"2 automady dole v podchodu","level":"-1","amenity":"telephone","operator":"Telefónica O2"}},
{"type":"Feature","geometry":{"type":"Point","coordinates":[14.4095392,50.0909727]},"properties":{"note":"automat dole v podchodu","phone":"+420257530376","amenity":"telephone","operator":"Telefónica O2"}},
{"type":"Feature","geometry":{"type":"Point","coordinates":[14.396819,50.0999324]},"properties":{"phone":"+420224312792","amenity":"telephone","operator":"Telefónica O2"}},
{"type":"Feature","geometry":{"type":"Point","coordinates":[14.4499596,50.0842309]},"properties":{"note":"2 telefonní budky vedle sebe","amenity":"telephone","operator":"Telefónica O2"}},
{"type":"Feature","geometry":{"type":"Point","coordinates":[14.3639206,50.0987337]},"properties":{"amenity":"telephone","operator":"Telefónica O2"}},
{"type":"Feature","geometry":{"type":"Point","coordinates":[14.3702212,50.0989114]},"properties":{"amenity":"telephone","operator":"Telefónica O2"}},
{"type":"Feature","geometry":{"type":"Point","coordinates":[14.3903631,50.1031352]},"properties":{"amenity":"telephone","operator":"Telefónica O2"}},
{"type":"Feature","geometry":{"type":"Point","coordinates":[15.9915954,49.6894389]},"properties":{"disused:amenity":"telephone","operator":"Telefónica O2"}},
{"type":"Feature","geometry":{"type":"Point","coordinates":[15.9914048,49.6906323]},"properties":{"disused:amenity":"telephone","operator":"Telefónica O2"}},
{"type":"Feature","geometry":{"type":"Point","coordinates":[14.4176503,50.0818045]},"properties":{"note":"2 tel. budky vedle sebe","operator":"Telefónica O2","historic:amenity":"telephone"}},
{"type":"Feature","geometry":{"type":"Point","coordinates":[14.5286731,50.0310652]},"properties":{"amenity":"telephone","operator":"Telefónica O2"}},
{"type":"Feature","geometry":{"type":"Point","coordinates":[14.4335958,50.0987436]},"properties":{"note":"2 budky vedle sebe","amenity":"telephone","operator":"Telefónica O2"}},
{"type":"Feature","geometry":{"type":"Point","coordinates":[14.4961191,50.0993526]},"properties":{"disused:amenity":"telephone","operator":"Telefónica O2"}},
{"type":"Feature","geometry":{"type":"Point","coordinates":[14.4256012,50.0812322]},"properties":{"amenity":"telephone","operator":"Telefónica O2"}},
{"type":"Feature","geometry":{"type":"Point","coordinates":[14.4923626,50.106678]},"properties":{"phone":"+420266310530","amenity":"telephone","operator":"Telefónica O2"}},
{"type":"Feature","geometry":{"type":"Point","coordinates":[13.7617622,50.7365157]},"properties":{"amenity":"telephone"}},
{"type":"Feature","geometry":{"type":"Point","coordinates":[14.4912843,50.1060236]},"properties":{"amenity":"telephone","operator":"Telefónica O2"}},
{"type":"Feature","geometry":{"type":"Point","coordinates":[14.4041951,50.0226318]},"properties":{"amenity":"telephone","operator":"Telefónica O2"}},
{"type":"Feature","geometry":{"type":"Point","coordinates":[14.5085006,50.083258]},"properties":{"disused:amenity":"telephone","operator":"Telefónica O2"}},
{"type":"Feature","geometry":{"type":"Point","coordinates":[14.4737257,50.1021123]},"properties":{"note":"2 telefonní budky vedle sebe","amenity":"telephone","operator":"Telefónica O2"}},
{"type":"Feature","geometry":{"type":"Point","coordinates":[14.5081931,50.0280028]},"properties":{"note":"dole v podchodu","layer":"-1","operator":"O2","disused:amenity":"telephone"}},
{"type":"Feature","geometry":{"type":"Point","coordinates":[14.4501174,50.1027765]},"properties":{"note":"2 telefonní budky vedle sebe","amenity":"telephone","operator":"Telefónica O2"}},
{"type":"Feature","geometry":{"type":"Point","coordinates":[14.4430636,50.0988702]},"properties":{"amenity":"telephone","operator":"Telefónica O2"}},
{"type":"Feature","geometry":{"type":"Point","coordinates":[14.4331244,50.0578248]},"properties":{"amenity":"telephone","operator":"Telefónica O2"}},
{"type":"Feature","geometry":{"type":"Point","coordinates":[14.3940943,50.1006148]},"properties":{"note":"Telefonní automat, v podchodu pod zemí","layer":"-1","amenity":"telephone","operator":"Telefónica O2"}},
{"type":"Feature","geometry":{"type":"Point","coordinates":[14.444375,50.0770642]},"properties":{"amenity":"telephone","operator":"Telefónica O2"}},
{"type":"Feature","geometry":{"type":"Point","coordinates":[14.4586493,50.0827584]},"properties":{"operator":"Telefónica O2","historic:amenity":"telephone"}},
{"type":"Feature","geometry":{"type":"Point","coordinates":[14.3615513,50.0974718]},"properties":{"amenity":"telephone","operator":"Telefónica O2"}},
{"type":"Feature","geometry":{"type":"Point","coordinates":[14.429939,50.0799226]},"properties":{"amenity":"telephone","operator":"Telefónica O2"}},
{"type":"Feature","geometry":{"type":"Point","coordinates":[14.55703,50.0431416]},"properties":{"disused:amenity":"telephone","operator":"Telefónica O2"}},
{"type":"Feature","geometry":{"type":"Point","coordinates":[14.5580372,50.0452583]},"properties":{"amenity":"telephone","operator":"Telefónica O2"}},
{"type":"Feature","geometry":{"type":"Point","coordinates":[14.4559073,50.1245882]},"properties":{"disused:amenity":"telephone","layer":"-1","operator":"Telefónica O2"}},
{"type":"Feature","geometry":{"type":"Point","coordinates":[16.7357209,48.9382565]},"properties":{"disused:amenity":"telephone","operator":"Telefónica O2"}},
{"type":"Feature","geometry":{"type":"Point","coordinates":[16.8581156,48.9947986]},"properties":{"disused:amenity":"telephone","operator":"Telefónica O2"}},
{"type":"Feature","geometry":{"type":"Point","coordinates":[16.8712477,49.0315849]},"properties":{"disused:amenity":"telephone","operator":"Telefónica O2"}},
{"type":"Feature","geometry":{"type":"Point","coordinates":[16.8371953,49.0528611]},"properties":{"disused:amenity":"telephone","operator":"Telefónica O2"}},
{"type":"Feature","geometry":{"type":"Point","coordinates":[14.4476378,50.0760654]},"properties":{"amenity":"telephone","operator":"Telefónica O2"}},
{"type":"Feature","geometry":{"type":"Point","coordinates":[14.4491885,50.0753128]},"properties":{"note":"dvě telefonní budky vedle sebe","amenity":"telephone","operator":"Telefónica O2"}},
{"type":"Feature","geometry":{"type":"Point","coordinates":[14.4674952,49.9937267]},"properties":{"note":"dvě telefonní budky vedle sebe","amenity":"telephone","operator":"Telefónica O2"}},
{"type":"Feature","geometry":{"type":"Point","coordinates":[14.5602743,50.0398423]},"properties":{"amenity":"telephone","operator":"Telefónica O2","payment:coins":"yes"}},
{"type":"Feature","geometry":{"type":"Point","coordinates":[14.4615682,50.0784823]},"properties":{"note":"dva telefonní automaty vedle sebe","level":"3","operator":"Telefónica O2","disused:amenity":"telephone"}},
{"type":"Feature","geometry":{"type":"Point","coordinates":[13.5752807,49.8764466]},"properties":{"amenity":"telephone","operator":"Telefónica O2","payment:coins":"yes"}},
{"type":"Feature","geometry":{"type":"Point","coordinates":[14.5468391,50.0981511]},"properties":{"amenity":"telephone","operator":"Telefónica O2"}},
{"type":"Feature","geometry":{"type":"Point","coordinates":[14.34506,50.0987758]},"properties":{"operator":"Telefónica O2","historic:amenity":"telephone"}},
{"type":"Feature","geometry":{"type":"Point","coordinates":[14.4688113,49.9909907]},"properties":{"amenity":"telephone","operator":"Telefónica O2"}},
{"type":"Feature","geometry":{"type":"Point","coordinates":[14.3955122,50.1017917]},"properties":{"source":"survey","amenity":"telephone","operator":"Telefónica O2"}},
{"type":"Feature","geometry":{"type":"Point","coordinates":[14.396448,50.1012775]},"properties":{"source":"survey","amenity":"telephone","operator":"Telefónica O2"}},
{"type":"Feature","geometry":{"type":"Point","coordinates":[14.4044769,50.0766575]},"properties":{"source":"CZ:IPRPraha:ortofoto","amenity":"telephone","operator":"Telefónica O2"}},
{"type":"Feature","geometry":{"type":"Point","coordinates":[14.3769007,50.0959098]},"properties":{"amenity":"telephone","operator":"Telefónica O2"}},
{"type":"Feature","geometry":{"type":"Point","coordinates":[13.3961334,49.739152]},"properties":{"amenity":"telephone","operator":"Telefónica O2"}},
{"type":"Feature","geometry":{"type":"Point","coordinates":[13.3932409,49.7389079]},"properties":{"amenity":"telephone","operator":"Telefónica O2"}},
{"type":"Feature","geometry":{"type":"Point","coordinates":[13.3933165,49.7374828]},"properties":{"amenity":"telephone","operator":"Telefónica O2"}},
{"type":"Feature","geometry":{"type":"Point","coordinates":[14.3541294,50.0969266]},"properties":{"disused:amenity":"telephone","operator":"Telefónica O2"}},
{"type":"Feature","geometry":{"type":"Point","coordinates":[14.3929737,50.1045632]},"properties":{"amenity":"telephone","operator":"Telefónica O2","payment:coins":"yes","payment:telephone_cards":"yes"}},
{"type":"Feature","geometry":{"type":"Point","coordinates":[14.3981767,50.1035899]},"properties":{"amenity":"telephone","operator":"Telefónica O2"}},
{"type":"Feature","geometry":{"type":"Point","coordinates":[14.4005724,50.1027237]},"properties":{"amenity":"telephone","operator":"Telefónica O2"}},
{"type":"Feature","geometry":{"type":"Point","coordinates":[14.4182888,50.1012733]},"properties":{"amenity":"telephone","operator":"Telefónica O2"}},
{"type":"Feature","geometry":{"type":"Point","coordinates":[14.4159992,50.0784931]},"properties":{"amenity":"telephone","operator":"Telefónica O2"}},
{"type":"Feature","geometry":{"type":"Point","coordinates":[14.4917281,50.0312327]},"properties":{"note":"automat v podchodu metra","layer":"-1","amenity":"telephone","operator":"Telefónica O2"}},
{"type":"Feature","geometry":{"type":"Point","coordinates":[14.3849158,50.1006298]},"properties":{"amenity":"telephone","operator":"Telefónica O2"}},
{"type":"Feature","geometry":{"type":"Point","coordinates":[14.3832122,50.085908]},"properties":{"disused:amenity":"telephone","operator":"Telefónica O2"}},
{"type":"Feature","geometry":{"type":"Point","coordinates":[14.3744508,50.0888775]},"properties":{"amenity":"telephone","operator":"Telefónica O2"}},
{"type":"Feature","geometry":{"type":"Point","coordinates":[14.5035191,49.8628577]},"properties":{"disused:amenity":"telephone","operator":"Telefónica O2"}},
{"type":"Feature","geometry":{"type":"Point","coordinates":[14.4818591,50.0327198]},"properties":{"note":"dva telefonní automaty vedle sebe","amenity":"telephone","operator":"Telefónica O2"}},
{"type":"Feature","geometry":{"type":"Point","coordinates":[14.5067844,50.0877015]},"properties":{"amenity":"telephone","operator":"Telefónica O2"}},
{"type":"Feature","geometry":{"type":"Point","coordinates":[14.3785837,50.1105443]},"properties":{"amenity":"telephone","operator":"Telefónica O2"}},
{"type":"Feature","geometry":{"type":"Point","coordinates":[14.4043503,50.0718019]},"properties":{"disused:amenity":"telephone","operator":"Telefónica O2"}},
{"type":"Feature","geometry":{"type":"Point","coordinates":[14.4340543,50.0872061]},"properties":{"amenity":"telephone","operator":"Telefónica O2"}},
{"type":"Feature","geometry":{"type":"Point","coordinates":[14.5110206,50.0849541]},"properties":{"amenity":"telephone","operator":"Telefónica O2"}},
{"type":"Feature","geometry":{"type":"Point","coordinates":[14.4208191,50.0758969]},"properties":{"note":"dvě telefonní budky vedle sebe","amenity":"telephone","operator":"Telefónica O2"}},
{"type":"Feature","geometry":{"type":"Point","coordinates":[16.8127355,48.9676939]},"properties":{"disused:amenity":"telephone","operator":"Telefónica O2"}},
{"type":"Feature","geometry":{"type":"Point","coordinates":[16.799953,48.9489603]},"properties":{"disused:amenity":"telephone","operator":"Telefónica O2"}},
{"type":"Feature","geometry":{"type":"Point","coordinates":[14.4540425,50.028692]},"properties":{"amenity":"telephone","operator":"Telefónica O2"}},
{"type":"Feature","geometry":{"type":"Point","coordinates":[14.4605391,50.042098]},"properties":{"note":"dva telefonní automaty","amenity":"telephone","operator":"Telefónica O2"}},
{"type":"Feature","geometry":{"type":"Point","coordinates":[14.319925,50.2464394]},"properties":{"disused:amenity":"telephone","operator":"Telefónica O2"}},
{"type":"Feature","geometry":{"type":"Point","coordinates":[14.3244504,50.092785]},"properties":{"amenity":"telephone","operator":"O2","source":"uhul:ortofoto"}},
{"type":"Feature","geometry":{"type":"Point","coordinates":[14.3105895,50.0822432]},"properties":{"amenity":"telephone","operator":"Telefónica O2","payment:coins":"yes","payment:telephone_cards":"yes"}},
{"type":"Feature","geometry":{"type":"Point","coordinates":[14.2791113,50.0454939]},"properties":{"disused:amenity":"telephone","operator":"Telefónica O2"}},
{"type":"Feature","geometry":{"type":"Point","coordinates":[14.4693129,50.1260825]},"properties":{"operator":"Telefónica O2","historic:amenity":"telephone"}},
{"type":"Feature","geometry":{"type":"Point","coordinates":[14.4082633,50.0466555]},"properties":{"disused:amenity":"telephone","operator":"Telefónica O2"}},
{"type":"Feature","geometry":{"type":"Point","coordinates":[14.4013329,50.0441352]},"properties":{"amenity":"telephone","operator":"Telefónica O2"}},
{"type":"Feature","geometry":{"type":"Point","coordinates":[16.426789,49.1143587]},"properties":{"disused:amenity":"telephone","ele":"430","operator":"Telefónica O2"}},
{"type":"Feature","geometry":{"type":"Point","coordinates":[16.4677654,49.1060365]},"properties":{"disused:amenity":"telephone","operator":"Telefónica O2"}},
{"type":"Feature","geometry":{"type":"Point","coordinates":[12.8937893,50.3550233]},"properties":{"disused:amenity":"telephone","operator":"Telefónica O2"}},
{"type":"Feature","geometry":{"type":"Point","coordinates":[14.4328973,50.117181]},"properties":{"amenity":"telephone","operator":"Telefónica O2"}},
{"type":"Feature","geometry":{"type":"Point","coordinates":[16.0650855,49.5463076]},"properties":{"disused:amenity":"telephone","operator":"Telefónica O2"}},
{"type":"Feature","geometry":{"type":"Point","coordinates":[17.1994462,49.5077389]},"properties":{"disused:amenity":"telephone","operator":"Telefónica O2","payment:coins":"no"}},
{"type":"Feature","geometry":{"type":"Point","coordinates":[17.9642488,49.4771791]},"properties":{"disused:amenity":"telephone","operator":"Telefónica O2"}},
{"type":"Feature","geometry":{"type":"Point","coordinates":[17.9611375,49.4741533]},"properties":{"disused:amenity":"telephone","operator":"Telefónica O2"}},
{"type":"Feature","geometry":{"type":"Point","coordinates":[16.471434,49.1167476]},"properties":{"disused:amenity":"telephone","operator":"Telefónica O2"}},
{"type":"Feature","geometry":{"type":"Point","coordinates":[14.4872627,50.0830324]},"properties":{"amenity":"telephone","operator":"Telefónica O2"}},
{"type":"Feature","geometry":{"type":"Point","coordinates":[14.4345415,50.0900232]},"properties":{"amenity":"telephone","operator":"Telefónica O2"}},
{"type":"Feature","geometry":{"type":"Point","coordinates":[14.5286854,50.0305075]},"properties":{"note":"dvě telefonní budky vedle sebe","amenity":"telephone","operator":"Telefónica O2"}},
{"type":"Feature","geometry":{"type":"Point","coordinates":[14.3949072,50.0982098]},"properties":{"amenity":"telephone","operator":"Telefónica O2"}},
{"type":"Feature","geometry":{"type":"Point","coordinates":[14.3755958,50.0983468]},"properties":{"amenity":"telephone","operator":"Telefónica O2"}},
{"type":"Feature","geometry":{"type":"Point","coordinates":[14.4299338,50.0720254]},"properties":{"note":"dvě telefonní budky vedle sebe","amenity":"telephone","operator":"Telefónica O2"}},
{"type":"Feature","geometry":{"type":"Point","coordinates":[14.4280207,50.0735732]},"properties":{"amenity":"telephone","operator":"Telefónica O2"}},
{"type":"Feature","geometry":{"type":"Point","coordinates":[14.4021233,50.1014558]},"properties":{"amenity":"telephone","operator":"Telefónica O2"}},
{"type":"Feature","geometry":{"type":"Point","coordinates":[14.4231775,50.1024317]},"properties":{"amenity":"telephone","operator":"Telefónica O2"}},
{"type":"Feature","geometry":{"type":"Point","coordinates":[14.3608526,50.0821652]},"properties":{"source":"norc.cz","amenity":"telephone","operator":"Telefónica O2"}},
{"type":"Feature","geometry":{"type":"Point","coordinates":[14.3239468,50.0860619]},"properties":{"source":"norc.cz","amenity":"telephone","operator":"Telefónica O2"}},
{"type":"Feature","geometry":{"type":"Point","coordinates":[14.4864217,50.1001181]},"properties":{"disused:amenity":"telephone","operator":"Telefónica O2"}},
{"type":"Feature","geometry":{"type":"Point","coordinates":[14.4896635,50.1005894]},"properties":{"disused:amenity":"telephone","operator":"Telefónica O2"}},
{"type":"Feature","geometry":{"type":"Point","coordinates":[18.2247393,49.7808475]},"properties":{"disused:amenity":"telephone","operator":"O2","payment:coins":"yes"}},
{"type":"Feature","geometry":{"type":"Point","coordinates":[14.492943,50.1064677]},"properties":{"note":"tři telefonní automaty vedle sebe","amenity":"telephone","operator":"Telefónica O2"}},
{"type":"Feature","geometry":{"type":"Point","coordinates":[14.4305183,50.0836089]},"properties":{"amenity":"telephone","operator":"Telefónica O2"}},
{"type":"Feature","geometry":{"type":"Point","coordinates":[14.453422,50.0720811]},"properties":{"amenity":"telephone","operator":"Telefónica O2"}},
{"type":"Feature","geometry":{"type":"Point","coordinates":[14.44791,50.0454537]},"properties":{"phone":"+420241734069","amenity":"telephone","operator":"Telefónica O2"}},
{"type":"Feature","geometry":{"type":"Point","coordinates":[15.9686723,49.5262802]},"properties":{"disused:amenity":"telephone","operator":"O2","phone":"+420566620489"}},
{"type":"Feature","geometry":{"type":"Point","coordinates":[14.4393996,50.0902667]},"properties":{"note":"dvě telefonní budky vedle sebe","amenity":"telephone","operator":"Telefónica O2"}},
{"type":"Feature","geometry":{"type":"Point","coordinates":[18.2353116,49.94485]},"properties":{"disused:amenity":"telephone","note":"Telefonní budka","operator":"Telefónica O2","payment:coins":"yes"}},
{"type":"Feature","geometry":{"type":"Point","coordinates":[18.2644766,49.9438501]},"properties":{"disused:amenity":"telephone","operator":"Telefónica O2"}},
{"type":"Feature","geometry":{"type":"Point","coordinates":[18.2339385,49.9473632]},"properties":{"disused:amenity":"telephone","operator":"Telefónica O2"}},
{"type":"Feature","geometry":{"type":"Point","coordinates":[14.4418489,50.0731636]},"properties":{"amenity":"telephone","operator":"Telefónica O2"}},
{"type":"Feature","geometry":{"type":"Point","coordinates":[18.2751726,49.7816548]},"properties":{"disused:amenity":"telephone","operator":"Telefónica O2","payment:coins":"no"}},
{"type":"Feature","geometry":{"type":"Point","coordinates":[15.4153287,49.1823415]},"properties":{"disused:amenity":"telephone","operator":"Telefónica O2","payment:coins":"no","payment:telephone_cards":"yes"}},
{"type":"Feature","geometry":{"type":"Point","coordinates":[14.4157257,50.0343381]},"properties":{"amenity":"telephone","operator":"Telefónica O2"}},
{"type":"Feature","geometry":{"type":"Point","coordinates":[14.4882238,50.1064952]},"properties":{"note":"dvě telefonní budky vedle sebe","amenity":"telephone","operator":"Telefónica O2"}},
{"type":"Feature","geometry":{"type":"Point","coordinates":[14.4308107,50.0738417]},"properties":{"amenity":"telephone","operator":"Telefónica O2"}},
{"type":"Feature","geometry":{"type":"Point","coordinates":[14.3794957,50.1393796]},"properties":{"disused:amenity":"telephone","operator":"Telefónica O2"}},
{"type":"Feature","geometry":{"type":"Point","coordinates":[14.422965,50.068528]},"properties":{"amenity":"telephone","operator":"Telefónica O2"}},
{"type":"Feature","geometry":{"type":"Point","coordinates":[14.3552473,50.0287091]},"properties":{"amenity":"telephone","operator":"Telefónica O2"}},
{"type":"Feature","geometry":{"type":"Point","coordinates":[14.4831297,50.1049633]},"properties":{"note":"dvě telefonní budky vedle sebe","amenity":"telephone","operator":"Telefónica O2"}},
{"type":"Feature","geometry":{"type":"Point","coordinates":[14.4533806,50.0876292]},"properties":{"amenity":"telephone","operator":"Telefónica O2"}},
{"type":"Feature","geometry":{"type":"Point","coordinates":[14.4684281,50.1274241]},"properties":{"disused:amenity":"telephone","operator":"Telefónica"}},
{"type":"Feature","geometry":{"type":"Point","coordinates":[14.467885,50.1268784]},"properties":{"disused:amenity":"telephone"}},
{"type":"Feature","geometry":{"type":"Point","coordinates":[14.4197467,50.0786788]},"properties":{"amenity":"telephone","operator":"Telefónica O2"}},
{"type":"Feature","geometry":{"type":"Point","coordinates":[14.6131664,50.1153538]},"properties":{"amenity":"telephone","operator":"Telefónica O2"}},
{"type":"Feature","geometry":{"type":"Point","coordinates":[14.4409168,50.1084708]},"properties":{"disused:amenity":"telephone","note":"dva telefonní automaty vedle sebe","operator":"O2"}},
{"type":"Feature","geometry":{"type":"Point","coordinates":[15.9078888,49.5203512]},"properties":{"disused:amenity":"telephone","operator":"Telefónica O2"}},
{"type":"Feature","geometry":{"type":"Point","coordinates":[15.9096102,49.5192793]},"properties":{"disused:amenity":"telephone","operator":"O2","phone":"+420566667394"}},
{"type":"Feature","geometry":{"type":"Point","coordinates":[14.4238918,50.075366]},"properties":{"amenity":"telephone","operator":"Telefónica O2"}},
{"type":"Feature","geometry":{"type":"Point","coordinates":[14.4221691,50.0757152]},"properties":{"note":"dvě telefonní budky vedle sebe","amenity":"telephone","operator":"Telefónica O2"}},
{"type":"Feature","geometry":{"type":"Point","coordinates":[14.445534,50.086876]},"properties":{"amenity":"telephone","operator":"Telefónica O2"}},
{"type":"Feature","geometry":{"type":"Point","coordinates":[15.6994339,49.4124548]},"properties":{"disused:amenity":"telephone","operator":"Telefónica O2"}},
{"type":"Feature","geometry":{"type":"Point","coordinates":[12.7293189,50.4286715]},"properties":{"fixme":"didn't find this","amenity":"telephone","operator":"Deutsche Telekom AG"}},
{"type":"Feature","geometry":{"type":"Point","coordinates":[15.5923805,49.4136904]},"properties":{"disused:amenity":"telephone","operator":"Telefónica O2","source":"survey"}},
{"type":"Feature","geometry":{"type":"Point","coordinates":[17.0823204,49.7014348]},"properties":{"disused:amenity":"telephone","operator":"Telefónica O2"}},
{"type":"Feature","geometry":{"type":"Point","coordinates":[14.8067832,49.9425917]},"properties":{"disused:amenity":"telephone","operator":"O2","phone":"+420 321 697 849"}},
{"type":"Feature","geometry":{"type":"Point","coordinates":[16.1235699,49.5703345]},"properties":{"disused:amenity":"telephone","operator":"Telefónica O2"}},
{"type":"Feature","geometry":{"type":"Point","coordinates":[14.4703499,50.0724904]},"properties":{"note":"dvě telefonní budky vedle sebe","amenity":"telephone","operator":"Telefónica O2"}},
{"type":"Feature","geometry":{"type":"Point","coordinates":[14.4381127,50.0209709]},"properties":{"disused:amenity":"telephone","operator":"Telefónica O2"}},
{"type":"Feature","geometry":{"type":"Point","coordinates":[14.8256868,50.1618516]},"properties":{"disused:amenity":"telephone","operator":"Telefónica O2"}},
{"type":"Feature","geometry":{"type":"Point","coordinates":[14.3015715,50.2401099]},"properties":{"disused:amenity":"telephone","operator":"O2"}},
{"type":"Feature","geometry":{"type":"Point","coordinates":[14.3178543,50.2482563]},"properties":{"disused:amenity":"telephone","operator":"Telefónica O2"}},
{"type":"Feature","geometry":{"type":"Point","coordinates":[16.481016,49.1534986]},"properties":{"disused:amenity":"telephone","operator":"Telefónica O2","payment:coins":"yes"}},
{"type":"Feature","geometry":{"type":"Point","coordinates":[14.4615271,50.0886523]},"properties":{"note":"dvě telefonní budky vedle sebe","amenity":"telephone","operator":"Telefónica O2"}},
{"type":"Feature","geometry":{"type":"Point","coordinates":[14.3647284,50.0965151]},"properties":{"amenity":"telephone","operator":"Telefónica O2"}},
{"type":"Feature","geometry":{"type":"Point","coordinates":[16.4780377,49.1319315]},"properties":{"disused:amenity":"telephone","operator":"Telefónica O2","payment:coins":"yes","source":"gps"}},
{"type":"Feature","geometry":{"type":"Point","coordinates":[14.4620666,49.8696636]},"properties":{"disused:amenity":"telephone","operator":"Telefónica O2"}},
{"type":"Feature","geometry":{"type":"Point","coordinates":[15.9756766,50.484679]},"properties":{"disused:amenity":"telephone","operator":"O2"}},
{"type":"Feature","geometry":{"type":"Point","coordinates":[14.8626573,50.0729503]},"properties":{"disused:amenity":"telephone","operator":"Telefónica O2"}},
{"type":"Feature","geometry":{"type":"Point","coordinates":[14.4314766,50.0893277]},"properties":{"note":"2 telefonní budky vedle sebe","amenity":"telephone","operator":"Telefónica O2"}},
{"type":"Feature","geometry":{"type":"Point","coordinates":[14.3702595,49.9584032]},"properties":{"disused:amenity":"telephone","operator":"Telefónica O2"}},
{"type":"Feature","geometry":{"type":"Point","coordinates":[14.3879366,49.2957122]},"properties":{"amenity":"telephone","operator":"Telefónica O2"}},
{"type":"Feature","geometry":{"type":"Point","coordinates":[17.5183994,49.1641348]},"properties":{"disused:amenity":"telephone","operator":"Telefónica O2","source":"survey"}},
{"type":"Feature","geometry":{"type":"Point","coordinates":[16.8923342,48.7538837]},"properties":{"disused:amenity":"telephone","note":"FIXME: Position not exact. Please resurvey","operator":"Telefónica O2"}},
{"type":"Feature","geometry":{"type":"Point","coordinates":[16.2646768,49.305983]},"properties":{"disused:amenity":"telephone","operator":"Telefónica O2","payment:coins":"yes","source":"gps"}},
{"type":"Feature","geometry":{"type":"Point","coordinates":[16.2583407,49.3418576]},"properties":{"disused:amenity":"telephone","operator":"Telefónica O2","payment:telephone_cards":"yes","source":"gps"}},
{"type":"Feature","geometry":{"type":"Point","coordinates":[15.8596204,48.8526005]},"properties":{"amenity":"telephone"}},
{"type":"Feature","geometry":{"type":"Point","coordinates":[14.836815,49.5435317]},"properties":{"disused:amenity":"telephone","operator":"Telefónica O2"}},
{"type":"Feature","geometry":{"type":"Point","coordinates":[14.9904244,49.5656952]},"properties":{"disused:amenity":"telephone","operator":"O2"}},
{"type":"Feature","geometry":{"type":"Point","coordinates":[14.8783508,49.537665]},"properties":{"disused:amenity":"telephone","operator":"Telefónica O2"}},
{"type":"Feature","geometry":{"type":"Point","coordinates":[14.777703,49.7280652]},"properties":{"disused:amenity":"telephone","operator":"Telefónica O2"}},
{"type":"Feature","geometry":{"type":"Point","coordinates":[14.4410798,50.0639639]},"properties":{"source":"norc.cz","amenity":"telephone","operator":"Telefónica O2"}},
{"type":"Feature","geometry":{"type":"Point","coordinates":[15.0252684,49.9813183]},"properties":{"operator":"O2","disused:amenity":"telephone"}},
{"type":"Feature","geometry":{"type":"Point","coordinates":[14.4467625,50.0267674]},"properties":{"note":"dvě telefonní budky vedle sebe","amenity":"telephone","operator":"Telefónica O2"}},
{"type":"Feature","geometry":{"type":"Point","coordinates":[14.4584211,50.0509285]},"properties":{"amenity":"telephone","operator":"Telefónica O2"}},
{"type":"Feature","geometry":{"type":"Point","coordinates":[14.4287965,50.0879565]},"properties":{"amenity":"telephone","note":"dvě telefonní budky vedle sebe","operator":"Telefónica O2"}},
{"type":"Feature","geometry":{"type":"Point","coordinates":[14.4491112,50.1149734]},"properties":{"disused:amenity":"telephone"}},
{"type":"Feature","geometry":{"type":"Point","coordinates":[14.4526369,50.0873006]},"properties":{"amenity":"telephone","operator":"Telefónica O2"}},
{"type":"Feature","geometry":{"type":"Point","coordinates":[14.4391773,50.0650071]},"properties":{"amenity":"telephone","operator":"Telefónica O2"}},
{"type":"Feature","geometry":{"type":"Point","coordinates":[14.4302489,50.0658046]},"properties":{"note":"dvě telefonní budky vedle sebe","amenity":"telephone","operator":"Telefónica O2"}},
{"type":"Feature","geometry":{"type":"Point","coordinates":[13.3635708,49.7461679]},"properties":{"amenity":"telephone","operator":"Telefónica O2"}},
{"type":"Feature","geometry":{"type":"Point","coordinates":[14.6039197,50.1137817]},"properties":{"amenity":"telephone","check_date":"2021-08-24","operator":"Telefónica O2"}},
{"type":"Feature","geometry":{"type":"Point","coordinates":[17.4546058,49.0647206]},"properties":{"disused:amenity":"telephone","operator":"Telefónica O2"}},
{"type":"Feature","geometry":{"type":"Point","coordinates":[14.4738699,50.1051119]},"properties":{"amenity":"telephone","operator":"Telefónica O2"}},
{"type":"Feature","geometry":{"type":"Point","coordinates":[18.1454822,49.597406]},"properties":{"disused:amenity":"telephone","operator":"O2"}},
{"type":"Feature","geometry":{"type":"Point","coordinates":[14.8965968,49.4974705]},"properties":{"disused:amenity":"telephone","operator":"Telefónica O2"}},
{"type":"Feature","geometry":{"type":"Point","coordinates":[14.2009309,50.7735169]},"properties":{"disused:amenity":"telephone","operator":"O2"}},
{"type":"Feature","geometry":{"type":"Point","coordinates":[15.8950845,49.218548]},"properties":{"disused:amenity":"telephone","operator":"Telefónica O2","source":"survey"}},
{"type":"Feature","geometry":{"type":"Point","coordinates":[14.1035868,50.1351949]},"properties":{"disused:amenity":"telephone","operator":"Telefónica O2"}},
{"type":"Feature","geometry":{"type":"Point","coordinates":[14.4898948,50.1076316]},"properties":{"note":"2 budky vedle sebe","amenity":"telephone","operator":"Telefónica O2"}},
{"type":"Feature","geometry":{"type":"Point","coordinates":[17.2015078,49.821091]},"properties":{"disused:amenity":"telephone","operator":"Telefónica O2"}},
{"type":"Feature","geometry":{"type":"Point","coordinates":[17.5921001,49.425149]},"properties":{"disused:amenity":"telephone","operator":"O2"}},
{"type":"Feature","geometry":{"type":"Point","coordinates":[14.4498087,50.0868094]},"properties":{"note":"dvě telefonní budky vedle sebe","amenity":"telephone","operator":"Telefónica O2"}},
{"type":"Feature","geometry":{"type":"Point","coordinates":[14.4386083,50.0993571]},"properties":{"note":"dole v podchodu","amenity":"telephone","operator":"Telefónica O2"}},
{"type":"Feature","geometry":{"type":"Point","coordinates":[14.4777098,50.0372151]},"properties":{"amenity":"telephone","operator":"Telefónica O2"}},
{"type":"Feature","geometry":{"type":"Point","coordinates":[17.7433267,49.5539189]},"properties":{"disused:amenity":"telephone","operator":"Telefónica O2","payment:coins":"yes","payment:telephone_cards":"yes"}},
{"type":"Feature","geometry":{"type":"Point","coordinates":[14.4698418,50.1266095]},"properties":{"disused:amenity":"telephone","layer":"-1","note":"telefonní automaty v podchodu","operator":"O2"}},
{"type":"Feature","geometry":{"type":"Point","coordinates":[14.4186474,50.0741621]},"properties":{"amenity":"telephone","operator":"Telefónica O2"}},
{"type":"Feature","geometry":{"type":"Point","coordinates":[14.395834,50.2724303]},"properties":{"disused:amenity":"telephone","operator":"O2","phone":"+420315782179"}},
{"type":"Feature","geometry":{"type":"Point","coordinates":[14.3331261,50.0935324]},"properties":{"operator":"Telefónica O2","historic:amenity":"telephone"}},
{"type":"Feature","geometry":{"type":"Point","coordinates":[14.8193302,50.8594321]},"properties":{"amenity":"telephone","shelter":"no","operator":"Deutsche Telekom AG","payment:coins":"no","payment:notes":"no","telephone:type":"Basistelefon","payment:credit_cards":"yes","payment:telephone_cards":"no"}},
{"type":"Feature","geometry":{"type":"Point","coordinates":[12.3263366,50.2433348]},"properties":{"operator":"Deutsche Telekom AG","abandoned:amenity":"telephone","payment:telephone_cards":"yes"}},
{"type":"Feature","geometry":{"type":"Point","coordinates":[14.4337971,50.1031361]},"properties":{"amenity":"telephone","operator":"Telefónica O2"}},
{"type":"Feature","geometry":{"type":"Point","coordinates":[14.4431469,50.0724254]},"properties":{"amenity":"telephone","operator":"Telefónica O2"}},
{"type":"Feature","geometry":{"type":"Point","coordinates":[14.4272573,50.1000217]},"properties":{"amenity":"telephone","operator":"Telefónica O2"}},
{"type":"Feature","geometry":{"type":"Point","coordinates":[14.3550975,50.0970628]},"properties":{"disused:amenity":"telephone","operator":"Telefónica O2"}},
{"type":"Feature","geometry":{"type":"Point","coordinates":[14.4134592,50.046533]},"properties":{"amenity":"telephone","operator":"Telefónica O2"}},
{"type":"Feature","geometry":{"type":"Point","coordinates":[14.3665051,50.0695457]},"properties":{"amenity":"telephone","operator":"Telefónica O2"}},
{"type":"Feature","geometry":{"type":"Point","coordinates":[14.5574671,50.0461942]},"properties":{"amenity":"telephone","operator":"Telefónica O2"}},
{"type":"Feature","geometry":{"type":"Point","coordinates":[14.5426079,50.0487853]},"properties":{"amenity":"telephone","operator":"Telefónica O2"}},
{"type":"Feature","geometry":{"type":"Point","coordinates":[14.5382003,50.0863598]},"properties":{"operator":"Telefónica O2","disused:amenity":"telephone"}},
{"type":"Feature","geometry":{"type":"Point","coordinates":[14.5657829,50.0408746]},"properties":{"amenity":"telephone","operator":"Telefónica O2"}},
{"type":"Feature","geometry":{"type":"Point","coordinates":[18.3170428,49.7675492]},"properties":{"contact:phone":"+4205956732485","covered":"booth","disused:amenity":"telephone","operator":"Telefónica O2","payment:coins":"yes","payment:credit_cards":"no","payment:debit_cards":"no","payment:electronic_purses":"no","payment:notes":"no","payment:telephone_cards":"no"}},
{"type":"Feature","geometry":{"type":"Point","coordinates":[17.404598,49.1092677]},"properties":{"disused:amenity":"telephone","operator":"Telefónica O2","source":"gps;survey"}},
{"type":"Feature","geometry":{"type":"Point","coordinates":[14.4989964,50.0929048]},"properties":{"amenity":"telephone","operator":"Telefónica O2"}},
{"type":"Feature","geometry":{"type":"Point","coordinates":[14.5638113,50.0342487]},"properties":{"operator":"Telefónica O2","disused:amenity":"telephone"}},
{"type":"Feature","geometry":{"type":"Point","coordinates":[16.4060355,49.9727658]},"properties":{"disused:amenity":"telephone","operator":"Telefónica O2"}},
{"type":"Feature","geometry":{"type":"Point","coordinates":[16.4046702,49.9733619]},"properties":{"disused:amenity":"telephone","operator":"Telefónica O2"}},
{"type":"Feature","geometry":{"type":"Point","coordinates":[16.9838884,49.9671724]},"properties":{"disused:amenity":"telephone","operator":"Telefónica O2","payment:telephone_cards":"yes"}},
{"type":"Feature","geometry":{"type":"Point","coordinates":[14.4445296,50.0174253]},"properties":{"amenity":"telephone","operator":"Telefónica O2","payment:telephone_cards":"yes"}},
{"type":"Feature","geometry":{"type":"Point","coordinates":[14.5595062,50.1062233]},"properties":{"disused:amenity":"telephone","operator":"Telefónica O2"}},
{"type":"Feature","geometry":{"type":"Point","coordinates":[14.578624,50.1074527]},"properties":{"amenity":"telephone","operator":"Telefónica O2"}},
{"type":"Feature","geometry":{"type":"Point","coordinates":[13.2571922,49.6948924]},"properties":{"amenity":"telephone","operator":"O2"}},
{"type":"Feature","geometry":{"type":"Point","coordinates":[16.1999753,48.78142]},"properties":{"disused:amenity":"telephone","operator":"Telefónica O2","payment:coins":"yes"}},
{"type":"Feature","geometry":{"type":"Point","coordinates":[16.2332923,48.7572848]},"properties":{"disused:amenity":"telephone","operator":"O2","payment:coins":"yes","payment:telephone_cards":"yes"}},
{"type":"Feature","geometry":{"type":"Point","coordinates":[16.0493727,48.854943]},"properties":{"disused:amenity":"telephone","operator":"Telefónica O2","payment:coins":"yes","payment:telephone_cards":"yes"}},
{"type":"Feature","geometry":{"type":"Point","coordinates":[16.0522923,48.8528683]},"properties":{"disused:amenity":"telephone","operator":"Telefónica O2","payment:coins":"yes","payment:telephone_cards":"yes"}},
{"type":"Feature","geometry":{"type":"Point","coordinates":[14.7029489,49.8516448]},"properties":{"disused:amenity":"telephone","operator":"Telefónica O2"}},
{"type":"Feature","geometry":{"type":"Point","coordinates":[16.0153984,48.7919316]},"properties":{"disused:amenity":"telephone","operator":"Telefónica O2","payment:coins":"yes"}},
{"type":"Feature","geometry":{"type":"Point","coordinates":[16.9583244,49.9731236]},"properties":{"disused:amenity":"telephone","operator":"Telefónica O2"}},
{"type":"Feature","geometry":{"type":"Point","coordinates":[16.0895274,48.8663492]},"properties":{"disused:amenity":"telephone","operator":"Telefónica O2"}},
{"type":"Feature","geometry":{"type":"Point","coordinates":[15.7549951,49.9984958]},"properties":{"disused:amenity":"telephone","operator":"Telefónica O2"}},
{"type":"Feature","geometry":{"type":"Point","coordinates":[14.6562987,50.2425146]},"properties":{"disused:amenity":"telephone","operator":"Telefónica O2"}},
{"type":"Feature","geometry":{"type":"Point","coordinates":[14.6173468,50.081072]},"properties":{"amenity":"telephone","operator":"Telefónica O2"}},
{"type":"Feature","geometry":{"type":"Point","coordinates":[14.4107683,50.1317432]},"properties":{"disused:amenity":"telephone","operator":"Telefónica O2"}},
{"type":"Feature","geometry":{"type":"Point","coordinates":[17.272948,49.5992523]},"properties":{"disused:amenity":"telephone","operator":"Telefónica O2"}},
{"type":"Feature","geometry":{"type":"Point","coordinates":[14.2538746,49.6392884]},"properties":{"disused:amenity":"telephone","operator":"Telefónica O2"}},
{"type":"Feature","geometry":{"type":"Point","coordinates":[17.5139808,49.21403]},"properties":{"disused:amenity":"telephone","operator":"O2"}},
{"type":"Feature","geometry":{"type":"Point","coordinates":[14.3816937,49.9561693]},"properties":{"disused:amenity":"telephone","operator":"Telefónica O2"}},
{"type":"Feature","geometry":{"type":"Point","coordinates":[17.2100469,49.63929]},"properties":{"disused:amenity":"telephone","operator":"Telefónica O2"}},
{"type":"Feature","geometry":{"type":"Point","coordinates":[14.5634403,50.0545326]},"properties":{"amenity":"telephone","operator":"Telefónica O2"}},
{"type":"Feature","geometry":{"type":"Point","coordinates":[14.3812246,49.9387288]},"properties":{"disused:amenity":"telephone","operator":"Telefónica O2"}},
{"type":"Feature","geometry":{"type":"Point","coordinates":[14.4191182,49.9345024]},"properties":{"disused:amenity":"telephone","operator":"Telefónica O2"}},
{"type":"Feature","geometry":{"type":"Point","coordinates":[14.3727461,49.9327488]},"properties":{"disused:amenity":"telephone","operator":"Telefónica O2"}},
{"type":"Feature","geometry":{"type":"Point","coordinates":[14.460298,50.1280225]},"properties":{"disused:amenity":"telephone"}},
{"type":"Feature","geometry":{"type":"Point","coordinates":[14.6196331,48.933527]},"properties":{"amenity":"telephone","operator":"Telefónica O2","payment:coins":"yes"}},
{"type":"Feature","geometry":{"type":"Point","coordinates":[14.6221288,48.9326236]},"properties":{"amenity":"telephone","operator":"Telefónica O2"}},
{"type":"Feature","geometry":{"type":"Point","coordinates":[14.3129218,49.9503364]},"properties":{"disused:amenity":"telephone","operator":"O2"}},
{"type":"Feature","geometry":{"type":"Point","coordinates":[14.106163,49.8730654]},"properties":{"disused:amenity":"telephone","operator":"Telefónica O2"}},
{"type":"Feature","geometry":{"type":"Point","coordinates":[17.1784866,49.5854514]},"properties":{"disused:amenity":"telephone","operator":"Telefónica O2"}},
{"type":"Feature","geometry":{"type":"Point","coordinates":[12.7017909,49.967234]},"properties":{"disused:amenity":"telephone","operator":"Telefónica O2"}},
{"type":"Feature","geometry":{"type":"Point","coordinates":[12.7012759,49.9642013]},"properties":{"disused:amenity":"telephone","operator":"Telefónica O2"}},
{"type":"Feature","geometry":{"type":"Point","coordinates":[14.2188414,49.8504615]},"properties":{"operator":"Telefónica O2","disused:amenity":"telephone"}},
{"type":"Feature","geometry":{"type":"Point","coordinates":[17.531816,49.2030603]},"properties":{"disused:amenity":"telephone","operator":"Telefónica O2","source":"survey"}},
{"type":"Feature","geometry":{"type":"Point","coordinates":[16.5419973,49.9287533]},"properties":{"disused:amenity":"telephone","operator":"Telefónica O2"}},
{"type":"Feature","geometry":{"type":"Point","coordinates":[16.6032662,49.9049141]},"properties":{"disused:amenity":"telephone","operator":"Telefónica O2"}},
{"type":"Feature","geometry":{"type":"Point","coordinates":[15.5683009,49.3951981]},"properties":{"disused:amenity":"telephone","operator":"Telefónica O2","source":"survey"}},
{"type":"Feature","geometry":{"type":"Point","coordinates":[14.3249291,50.0753041]},"properties":{"amenity":"telephone","operator":"Telefónica O2"}},
{"type":"Feature","geometry":{"type":"Point","coordinates":[14.4426072,50.0921364]},"properties":{"amenity":"telephone","operator":"Telefónica O2","payment:coins":"yes","payment:telephone_cards":"yes"}},
{"type":"Feature","geometry":{"type":"Point","coordinates":[16.9724447,49.9667607]},"properties":{"disused:amenity":"telephone","operator":"Telefónica O2"}},
{"type":"Feature","geometry":{"type":"Point","coordinates":[14.5188288,50.0455303]},"properties":{"amenity":"telephone","operator":"Telefónica O2"}},
{"type":"Feature","geometry":{"type":"Point","coordinates":[14.5151359,50.0470038]},"properties":{"amenity":"telephone","operator":"Telefónica O2","payment:coins":"yes"}},
{"type":"Feature","geometry":{"type":"Point","coordinates":[16.2555609,49.190974]},"properties":{"disused:amenity":"telephone","operator":"O2","phone":"+420568643298","source":"survey"}},
{"type":"Feature","geometry":{"type":"Point","coordinates":[14.0780354,50.5579842]},"properties":{"amenity":"telephone","operator":"Telefónica O2"}},
{"type":"Feature","geometry":{"type":"Point","coordinates":[14.1834624,49.9344936]},"properties":{"disused:amenity":"telephone","operator":"Telefónica O2","payment:coins":"yes"}},
{"type":"Feature","geometry":{"type":"Point","coordinates":[14.4185792,50.0717597]},"properties":{"amenity":"telephone","operator":"Telefónica O2"}},
{"type":"Feature","geometry":{"type":"Point","coordinates":[17.3951844,49.1050228]},"properties":{"disused:amenity":"telephone","operator":"Telefónica O2"}},
{"type":"Feature","geometry":{"type":"Point","coordinates":[16.1239156,49.4325571]},"properties":{"disused:amenity":"telephone","operator":"Telefónica O2","payment:coins":"yes"}},
{"type":"Feature","geometry":{"type":"Point","coordinates":[14.4032231,50.072088]},"properties":{"disused:amenity":"telephone","operator":"Telefónica O2"}},
{"type":"Feature","geometry":{"type":"Point","coordinates":[14.648169,50.1456284]},"properties":{"disused:amenity":"telephone","operator":"Telefónica O2"}},
{"type":"Feature","geometry":{"type":"Point","coordinates":[14.4035613,50.0735616]},"properties":{"amenity":"telephone","operator":"Telefónica O2","payment:coins":"yes"}},
{"type":"Feature","geometry":{"type":"Point","coordinates":[14.5885805,50.2302764]},"properties":{"disused:amenity":"telephone","operator":"O2"}},
{"type":"Feature","geometry":{"type":"Point","coordinates":[14.4358049,50.1006149]},"properties":{"amenity":"telephone","operator":"Telefónica O2"}},
{"type":"Feature","geometry":{"type":"Point","coordinates":[17.5814911,49.047723]},"properties":{"disused:amenity":"telephone","operator":"Telefónica O2"}},
{"type":"Feature","geometry":{"type":"Point","coordinates":[14.4434038,50.1022938]},"properties":{"amenity":"telephone","operator":"Telefónica O2"}},
{"type":"Feature","geometry":{"type":"Point","coordinates":[14.4366095,50.0954321]},"properties":{"amenity":"telephone","operator":"Telefónica O2"}},
{"type":"Feature","geometry":{"type":"Point","coordinates":[16.6782263,49.7961219]},"properties":{"disused:amenity":"telephone","operator":"Telefónica O2"}},
{"type":"Feature","geometry":{"type":"Point","coordinates":[14.4071278,50.073756]},"properties":{"amenity":"telephone","operator":"Telefónica O2"}},
{"type":"Feature","geometry":{"type":"Point","coordinates":[14.509061,50.0320662]},"properties":{"amenity":"telephone","operator":"Telefónica O2"}},
{"type":"Feature","geometry":{"type":"Point","coordinates":[14.3437668,50.0540205]},"properties":{"amenity":"telephone","operator":"Telefónica O2"}},
{"type":"Feature","geometry":{"type":"Point","coordinates":[14.4299706,50.0920983]},"properties":{"amenity":"telephone","operator":"Telefónica O2"}},
{"type":"Feature","geometry":{"type":"Point","coordinates":[17.9356364,49.88529]},"properties":{"disused:amenity":"telephone","operator":"Telefónica O2"}},
{"type":"Feature","geometry":{"type":"Point","coordinates":[16.1241334,50.3536597]},"properties":{"disused:amenity":"telephone","operator":"O2"}},
{"type":"Feature","geometry":{"type":"Point","coordinates":[17.8955072,49.9438936]},"properties":{"disused:amenity":"telephone","operator":"Telefónica O2"}},
{"type":"Feature","geometry":{"type":"Point","coordinates":[14.3979536,50.0612991]},"properties":{"disused:amenity":"telephone"}},
{"type":"Feature","geometry":{"type":"Point","coordinates":[15.2440838,49.398134]},"properties":{"amenity":"telephone","operator":"O2"}},
{"type":"Feature","geometry":{"type":"Point","coordinates":[15.2663692,49.4156075]},"properties":{"disused:amenity":"telephone","operator":"Telefónica O2"}},
{"type":"Feature","geometry":{"type":"Point","coordinates":[15.0030191,49.1440862]},"properties":{"amenity":"telephone","operator":"Telefónica O2"}},
{"type":"Feature","geometry":{"type":"Point","coordinates":[14.47665,50.1027358]},"properties":{"amenity":"telephone","operator":"Telefónica O2"}},
{"type":"Feature","geometry":{"type":"Point","coordinates":[14.4729464,50.1047195]},"properties":{"amenity":"telephone","operator":"Telefónica O2"}},
{"type":"Feature","geometry":{"type":"Point","coordinates":[18.3563845,49.6907819]},"properties":{"disused:amenity":"telephone","operator":"Telefónica O2"}},
{"type":"Feature","geometry":{"type":"Point","coordinates":[16.0454022,48.8710114]},"properties":{"disused:amenity":"telephone","operator":"Telefónica O2"}},
{"type":"Feature","geometry":{"type":"Point","coordinates":[16.0555442,48.8600436]},"properties":{"disused:amenity":"telephone","operator":"Telefónica O2"}},
{"type":"Feature","geometry":{"type":"Point","coordinates":[16.3472902,49.0729693]},"properties":{"disused:amenity":"telephone","operator":"Telefónica O2"}},
{"type":"Feature","geometry":{"type":"Point","coordinates":[14.3314439,50.0443857]},"properties":{"operator":"Telefónica O2","disused:amenity":"telephone"}},
{"type":"Feature","geometry":{"type":"Point","coordinates":[14.3320033,50.0444367]},"properties":{"operator":"Telefónica O2","disused:amenity":"telephone"}},
{"type":"Feature","geometry":{"type":"Point","coordinates":[16.8129668,49.4324132]},"properties":{"disused:amenity":"telephone","operator":"Telefónica O2"}},
{"type":"Feature","geometry":{"type":"Point","coordinates":[14.4288091,50.077111]},"properties":{"amenity":"telephone","operator":"Telefónica O2"}},
{"type":"Feature","geometry":{"type":"Point","coordinates":[15.8890479,49.5676107]},"properties":{"disused:amenity":"telephone","operator":"Telefónica O2"}},
{"type":"Feature","geometry":{"type":"Point","coordinates":[14.4098626,50.0509666]},"properties":{"amenity":"telephone","operator":"Telefónica O2"}},
{"type":"Feature","geometry":{"type":"Point","coordinates":[16.1299802,49.1671708]},"properties":{"disused:amenity":"telephone","operator":"Telefónica O2","source":"knowledge"}},
{"type":"Feature","geometry":{"type":"Point","coordinates":[16.9799269,49.1207366]},"properties":{"disused:amenity":"telephone","operator":"Telefónica O2","source":"survey"}},
{"type":"Feature","geometry":{"type":"Point","coordinates":[14.6583769,49.5099986]},"properties":{"amenity":"telephone","operator":"Telefónica O2"}},
{"type":"Feature","geometry":{"type":"Point","coordinates":[16.9407381,49.9838223]},"properties":{"disused:amenity":"telephone","operator":"Telefónica O2","payment:coins":"yes"}},
{"type":"Feature","geometry":{"type":"Point","coordinates":[16.1438971,49.8522323]},"properties":{"disused:amenity":"telephone","operator":"Telefónica O2"}},
{"type":"Feature","geometry":{"type":"Point","coordinates":[16.9776974,49.9659153]},"properties":{"disused:amenity":"telephone","operator":"Telefónica O2"}},
{"type":"Feature","geometry":{"type":"Point","coordinates":[14.4295577,50.070407]},"properties":{"amenity":"telephone","operator":"Telefónica O2"}},
{"type":"Feature","geometry":{"type":"Point","coordinates":[14.618225,50.0278009]},"properties":{"amenity":"telephone","fixme":"resurvey","operator":"Telefónica O2"}},
{"type":"Feature","geometry":{"type":"Point","coordinates":[15.881695,49.2162162]},"properties":{"disused:amenity":"telephone","operator":"Telefónica O2","source":"survey;bing"}},
{"type":"Feature","geometry":{"type":"Point","coordinates":[15.095908,49.1416861]},"properties":{"amenity":"telephone","operator":"Telefónica O2","payment:telephone_cards":"yes"}},
{"type":"Feature","geometry":{"type":"Point","coordinates":[14.4535366,50.0508356]},"properties":{"amenity":"telephone","operator":"Telefónica O2"}},
{"type":"Feature","geometry":{"type":"Point","coordinates":[14.0724038,49.963761]},"properties":{"disused:amenity":"telephone","operator":"Telefónica O2","source":"survey"}},
{"type":"Feature","geometry":{"type":"Point","coordinates":[14.593275,50.0352803]},"properties":{"amenity":"telephone","operator":"Telefónica O2","payment:coins":"yes"}},
{"type":"Feature","geometry":{"type":"Point","coordinates":[14.4353838,50.1034578]},"properties":{"amenity":"telephone","operator":"Telefónica O2"}},
{"type":"Feature","geometry":{"type":"Point","coordinates":[15.1204044,50.1448205]},"properties":{"disused:amenity":"telephone","operator":"Telefónica O2"}},
{"type":"Feature","geometry":{"type":"Point","coordinates":[14.7727391,49.0043954]},"properties":{"amenity":"telephone","operator":"Telefónica O2"}},
{"type":"Feature","geometry":{"type":"Point","coordinates":[14.7578784,49.0072728]},"properties":{"amenity":"telephone","operator":"Telefónica O2"}},
{"type":"Feature","geometry":{"type":"Point","coordinates":[14.449672,50.0719013]},"properties":{"amenity":"telephone","operator":"Telefónica O2"}},
{"type":"Feature","geometry":{"type":"Point","coordinates":[14.4441889,50.0726649]},"properties":{"amenity":"telephone","operator":"Telefónica O2"}},
{"type":"Feature","geometry":{"type":"Point","coordinates":[14.7182013,49.0817397]},"properties":{"phone":"+420384792489","source":"knowledge","amenity":"telephone","operator":"O2"}},
{"type":"Feature","geometry":{"type":"Point","coordinates":[14.734339,50.1317741]},"properties":{"disused:amenity":"telephone","operator":"Telefónica O2"}},
{"type":"Feature","geometry":{"type":"Point","coordinates":[14.3799531,50.1360261]},"properties":{"disused:amenity":"telephone","operator":"O2"}},
{"type":"Feature","geometry":{"type":"Point","coordinates":[14.6942688,49.3756471]},"properties":{"amenity":"telephone","operator":"Telefónica O2"}},
{"type":"Feature","geometry":{"type":"Point","coordinates":[14.3786302,50.1323202]},"properties":{"disused:amenity":"telephone","operator":"Telefónica O2"}},
{"type":"Feature","geometry":{"type":"Point","coordinates":[12.1852417,50.1776599]},"properties":{"amenity":"telephone"}},
{"type":"Feature","geometry":{"type":"Point","coordinates":[13.9998227,49.0141443]},"properties":{"operator":"Telefónica O2","disused:amenity":"telephone"}},
{"type":"Feature","geometry":{"type":"Point","coordinates":[13.9969624,49.0110791]},"properties":{"operator":"Telefónica O2","disused:amenity":"telephone"}},
{"type":"Feature","geometry":{"type":"Point","coordinates":[18.2586352,49.7830583]},"properties":{"disused:amenity":"telephone","operator":"Telefónica O2"}},
{"type":"Feature","geometry":{"type":"Point","coordinates":[17.6030465,49.1694471]},"properties":{"disused:amenity":"telephone","operator":"Telefónica O2","payment:telephone_cards":"yes","source":"survey"}},
{"type":"Feature","geometry":{"type":"Point","coordinates":[17.7493322,49.1307229]},"properties":{"disused:amenity":"telephone","operator":"O2","payment:telephone_cards":"yes","source":"survey"}},
{"type":"Feature","geometry":{"type":"Point","coordinates":[17.8037919,49.1547302]},"properties":{"disused:amenity":"telephone","operator":"Telefónica O2","payment:coins":"yes","source":"survey"}},
{"type":"Feature","geometry":{"type":"Point","coordinates":[17.7712977,49.2150114]},"properties":{"disused:amenity":"telephone","operator":"Telefónica O2","payment:coins":"yes","source":"survey"}},
{"type":"Feature","geometry":{"type":"Point","coordinates":[17.7838677,49.3178577]},"properties":{"disused:amenity":"telephone","operator":"Telefónica O2"}},
{"type":"Feature","geometry":{"type":"Point","coordinates":[18.73692,49.6150555]},"properties":{"disused:amenity":"telephone","operator":"Telefónica O2"}},
{"type":"Feature","geometry":{"type":"Point","coordinates":[12.7833736,50.2704544]},"properties":{"disused:amenity":"telephone","operator":"Telefónica O2"}},
{"type":"Feature","geometry":{"type":"Point","coordinates":[14.4880631,50.0471812]},"properties":{"amenity":"telephone","operator":"Telefónica O2"}},
{"type":"Feature","geometry":{"type":"Point","coordinates":[14.4893197,50.0474282]},"properties":{"amenity":"telephone","operator":"Telefónica O2"}},
{"type":"Feature","geometry":{"type":"Point","coordinates":[15.5692633,49.4074285]},"properties":{"disused:amenity":"telephone","operator":"Telefónica O2","source":"survey"}},
{"type":"Feature","geometry":{"type":"Point","coordinates":[17.7357108,49.5591434]},"properties":{"disused:amenity":"telephone","operator":"Telefónica O2","source":"gps"}},
{"type":"Feature","geometry":{"type":"Point","coordinates":[15.5370482,49.4710563]},"properties":{"disused:amenity":"telephone","operator":"Telefónica O2","source":"survey"}},
{"type":"Feature","geometry":{"type":"Point","coordinates":[13.7703483,49.8595974]},"properties":{"disused:amenity":"telephone","operator":"Telefónica O2","payment:coins":"yes","payment:telephone_cards":"yes"}},
{"type":"Feature","geometry":{"type":"Point","coordinates":[17.5419215,49.1208343]},"properties":{"disused:amenity":"telephone","operator":"Telefónica O2","payment:coins":"yes","source":"survey"}},
{"type":"Feature","geometry":{"type":"Point","coordinates":[17.5613166,49.1820085]},"properties":{"disused:amenity":"telephone","operator":"Telefónica O2","payment:telephone_cards":"yes"}},
{"type":"Feature","geometry":{"type":"Point","coordinates":[14.4415794,50.0433091]},"properties":{"amenity":"telephone"}},
{"type":"Feature","geometry":{"type":"Point","coordinates":[17.114709,49.7707258]},"properties":{"disused:amenity":"telephone"}},
{"type":"Feature","geometry":{"type":"Point","coordinates":[17.1176629,49.768237]},"properties":{"disused:amenity":"telephone"}},
{"type":"Feature","geometry":{"type":"Point","coordinates":[16.4011,49.9751222]},"properties":{"disused:amenity":"telephone","operator":"Telefónica O2"}},
{"type":"Feature","geometry":{"type":"Point","coordinates":[16.401914,49.9764868]},"properties":{"disused:amenity":"telephone","operator":"Telefónica O2"}},
{"type":"Feature","geometry":{"type":"Point","coordinates":[13.5734555,49.5497055]},"properties":{"phone":"+420 371 522 964","source":"survey","amenity":"telephone","operator":"O2"}},
{"type":"Feature","geometry":{"type":"Point","coordinates":[13.5763643,49.5016244]},"properties":{"phone":"+420 371 592 691","source":"survey","amenity":"telephone","operator":"O2"}},
{"type":"Feature","geometry":{"type":"Point","coordinates":[14.5399713,49.8916537]},"properties":{"disused:amenity":"telephone","operator":"O2","payment:telephone_cards":"yes","phone":"+420 241 950 971"}},
{"type":"Feature","geometry":{"type":"Point","coordinates":[17.1124077,49.7672509]},"properties":{"disused:amenity":"telephone"}},
{"type":"Feature","geometry":{"type":"Point","coordinates":[17.1130385,49.7729833]},"properties":{"disused:amenity":"telephone"}},
{"type":"Feature","geometry":{"type":"Point","coordinates":[17.1177413,49.7734517]},"properties":{"disused:amenity":"telephone"}},
{"type":"Feature","geometry":{"type":"Point","coordinates":[17.1160098,49.7787651]},"properties":{"disused:amenity":"telephone"}},
{"type":"Feature","geometry":{"type":"Point","coordinates":[14.5066639,50.1508375]},"properties":{"disused:amenity":"telephone"}},
{"type":"Feature","geometry":{"type":"Point","coordinates":[14.4318693,50.1358742]},"properties":{"disused:amenity":"telephone"}},
{"type":"Feature","geometry":{"type":"Point","coordinates":[17.4662191,49.0416284]},"properties":{"disused:amenity":"telephone","operator":"O2"}},
{"type":"Feature","geometry":{"type":"Point","coordinates":[14.4124119,50.175333]},"properties":{"disused:amenity":"telephone"}},
{"type":"Feature","geometry":{"type":"Point","coordinates":[13.3513679,49.6948008]},"properties":{"amenity":"telephone","operator":"Telefonica O2","payment:coins":"yes","source":"survey"}},
{"type":"Feature","geometry":{"type":"Point","coordinates":[14.5198304,50.1987761]},"properties":{"disused:amenity":"telephone"}},
{"type":"Feature","geometry":{"type":"Point","coordinates":[14.4724141,50.1241922]},"properties":{"disused:amenity":"telephone"}},
{"type":"Feature","geometry":{"type":"Point","coordinates":[14.4901441,50.1287239]},"properties":{"disused:amenity":"telephone"}},
{"type":"Feature","geometry":{"type":"Point","coordinates":[16.6064104,49.1897931]},"properties":{"disused:amenity":"telephone"}},
{"type":"Feature","geometry":{"type":"Point","coordinates":[14.4712981,50.064121]},"properties":{"amenity":"telephone"}},
{"type":"Feature","geometry":{"type":"Point","coordinates":[14.5151841,50.0026787]},"properties":{"amenity":"telephone"}},
{"type":"Feature","geometry":{"type":"Point","coordinates":[15.705396,49.4598441]},"properties":{"source":"survey","amenity":"telephone"}},
{"type":"Feature","geometry":{"type":"Point","coordinates":[14.0744686,49.9639113]},"properties":{"disused:amenity":"telephone"}},
{"type":"Feature","geometry":{"type":"Point","coordinates":[14.4319862,50.1271115]},"properties":{"disused:amenity":"telephone"}},
{"type":"Feature","geometry":{"type":"Point","coordinates":[14.3835663,50.0085708]},"properties":{"amenity":"telephone"}},
{"type":"Feature","geometry":{"type":"Point","coordinates":[14.3808115,50.0122858]},"properties":{"amenity":"telephone"}},
{"type":"Feature","geometry":{"type":"Point","coordinates":[14.430715,50.1317819]},"properties":{"disused:amenity":"telephone"}},
{"type":"Feature","geometry":{"type":"Point","coordinates":[13.3169739,49.5306751]},"properties":{"source":"survey","amenity":"telephone","operator":"O2","payment:telephone_cards":"yes"}},
{"type":"Feature","geometry":{"type":"Point","coordinates":[17.7408303,49.5637806]},"properties":{"disused:amenity":"telephone","operator":"Telefónica O2","source":"gps"}},
{"type":"Feature","geometry":{"type":"Point","coordinates":[14.465973,50.115705]},"properties":{"disused:amenity":"telephone"}},
{"type":"Feature","geometry":{"type":"Point","coordinates":[15.8537674,49.5590534]},"properties":{"disused:amenity":"telephone"}},
{"type":"Feature","geometry":{"type":"Point","coordinates":[14.4885037,50.0543788]},"properties":{"disused:amenity":"telephone"}},
{"type":"Feature","geometry":{"type":"Point","coordinates":[13.3680533,49.5476958]},"properties":{"source":"survey","amenity":"telephone","operator":"Telefonica O2","payment:telephone_cards":"yes"}},
{"type":"Feature","geometry":{"type":"Point","coordinates":[13.617842,49.3472187]},"properties":{"source":"survey;uhul:ortofoto","amenity":"telephone"}},
{"type":"Feature","geometry":{"type":"Point","coordinates":[12.7324708,50.3243077]},"properties":{"disused:amenity":"telephone"}},
{"type":"Feature","geometry":{"type":"Point","coordinates":[12.7294717,50.3186698]},"properties":{"disused:amenity":"telephone"}},
{"type":"Feature","geometry":{"type":"Point","coordinates":[15.7237293,49.4314451]},"properties":{"disused:amenity":"telephone","source":"survey"}},
{"type":"Feature","geometry":{"type":"Point","coordinates":[16.4470176,49.3115464]},"properties":{"check_date":"2021-07-10","disused:amenity":"telephone"}},
{"type":"Feature","geometry":{"type":"Point","coordinates":[12.3488413,50.1208886]},"properties":{"disused:amenity":"telephone"}},
{"type":"Feature","geometry":{"type":"Point","coordinates":[12.3537207,50.1179468]},"properties":{"disused:amenity":"telephone"}},
{"type":"Feature","geometry":{"type":"Point","coordinates":[14.7384444,49.9097284]},"properties":{"disused:amenity":"telephone"}},
{"type":"Feature","geometry":{"type":"Point","coordinates":[12.934939,50.4103476]},"properties":{"disused:amenity":"telephone"}},
{"type":"Feature","geometry":{"type":"Point","coordinates":[14.3113873,50.0663729]},"properties":{"disused:amenity":"telephone"}},
{"type":"Feature","geometry":{"type":"Point","coordinates":[14.4542687,50.1252058]},"properties":{"disused:amenity":"telephone"}},
{"type":"Feature","geometry":{"type":"Point","coordinates":[14.4688573,50.1157489]},"properties":{"disused:amenity":"telephone"}},
{"type":"Feature","geometry":{"type":"Point","coordinates":[14.3572344,49.9608363]},"properties":{"disused:amenity":"telephone"}},
{"type":"Feature","geometry":{"type":"Point","coordinates":[17.1201192,49.4715261]},"properties":{"disused:amenity":"telephone"}},
{"type":"Feature","geometry":{"type":"Point","coordinates":[16.5536557,49.1111827]},"properties":{"disused:amenity":"telephone","payment:coins":"yes","source":"survey"}},
{"type":"Feature","geometry":{"type":"Point","coordinates":[14.3920428,49.3430779]},"properties":{"amenity":"telephone"}},
{"type":"Feature","geometry":{"type":"Point","coordinates":[14.4549994,50.1058222]},"properties":{"amenity":"telephone"}},
{"type":"Feature","geometry":{"type":"Point","coordinates":[15.7619153,49.2822037]},"properties":{"disused:amenity":"telephone","source":"survey"}},
{"type":"Feature","geometry":{"type":"Point","coordinates":[15.4838198,49.2923116]},"properties":{"disused:amenity":"telephone","source":"survey"}},
{"type":"Feature","geometry":{"type":"Point","coordinates":[15.5875162,49.3600802]},"properties":{"disused:amenity":"telephone","source":"survey"}},
{"type":"Feature","geometry":{"type":"Point","coordinates":[17.6838509,49.0361515]},"properties":{"disused:amenity":"telephone","operator":"O2"}},
{"type":"Feature","geometry":{"type":"Point","coordinates":[14.3417538,50.0677389]},"properties":{"amenity":"telephone"}},
{"type":"Feature","geometry":{"type":"Point","coordinates":[14.3940057,50.0722234]},"properties":{"amenity":"telephone"}},
{"type":"Feature","geometry":{"type":"Point","coordinates":[15.4839365,49.888935]},"properties":{"disused:amenity":"telephone"}},
{"type":"Feature","geometry":{"type":"Point","coordinates":[16.9922149,48.7611194]},"properties":{"disused:amenity":"telephone"}},
{"type":"Feature","geometry":{"type":"Point","coordinates":[14.4019243,50.0759225]},"properties":{"amenity":"telephone"}},
{"type":"Feature","geometry":{"type":"Point","coordinates":[14.3445819,50.2336075]},"properties":{"disused:amenity":"telephone"}},
{"type":"Feature","geometry":{"type":"Point","coordinates":[14.4158504,50.1334809]},"properties":{"disused:amenity":"telephone"}},
{"type":"Feature","geometry":{"type":"Point","coordinates":[15.1875822,50.0584747]},"properties":{"disused:amenity":"telephone","operator":"O2","payment:coins":"yes","payment:telephone_cards":"yes"}},
{"type":"Feature","geometry":{"type":"Point","coordinates":[12.7827352,50.3659938]},"properties":{"phone":"+420353892517","operator":"O2","disused:amenity":"telephone"}},
{"type":"Feature","geometry":{"type":"Point","coordinates":[14.3657043,50.1975703]},"properties":{"disused:amenity":"telephone"}},
{"type":"Feature","geometry":{"type":"Point","coordinates":[15.4903268,49.3761611]},"properties":{"source":"survey","amenity":"telephone"}},
{"type":"Feature","geometry":{"type":"Point","coordinates":[14.3332355,50.0572832]},"properties":{"amenity":"telephone"}},
{"type":"Feature","geometry":{"type":"Point","coordinates":[15.0302162,50.0516081]},"properties":{"disused:amenity":"telephone"}},
{"type":"Feature","geometry":{"type":"Point","coordinates":[14.4265223,50.0245052]},"properties":{"source":"survey","amenity":"telephone"}},
{"type":"Feature","geometry":{"type":"Point","coordinates":[17.7958448,49.5159104]},"properties":{"disused:amenity":"telephone","operator":"Telefonica O2","payment:coins":"no","payment:telephone_cards":"yes"}},
{"type":"Feature","geometry":{"type":"Point","coordinates":[18.1455834,49.599105]},"properties":{"disused:amenity":"telephone","operator":"O2"}},
{"type":"Feature","geometry":{"type":"Point","coordinates":[17.014265,49.9820038]},"properties":{"disused:amenity":"telephone"}},
{"type":"Feature","geometry":{"type":"Point","coordinates":[14.5177118,50.2593476]},"properties":{"disused:amenity":"telephone"}},
{"type":"Feature","geometry":{"type":"Point","coordinates":[14.4789568,50.1792926]},"properties":{"disused:amenity":"telephone"}},
{"type":"Feature","geometry":{"type":"Point","coordinates":[14.3398176,50.3185715]},"properties":{"disused:amenity":"telephone"}},
{"type":"Feature","geometry":{"type":"Point","coordinates":[14.4927727,50.1218497]},"properties":{"disused:amenity":"telephone"}},
{"type":"Feature","geometry":{"type":"Point","coordinates":[14.2671209,50.1054046]},"properties":{"disused:amenity":"telephone","layer":"1"}},
{"type":"Feature","geometry":{"type":"Point","coordinates":[17.3934803,49.7079779]},"properties":{"disused:amenity":"telephone"}},
{"type":"Feature","geometry":{"type":"Point","coordinates":[15.1511121,49.9853931]},"properties":{"disused:amenity":"telephone","operator":"O2","phone":"+420 321 790 483"}},
{"type":"Feature","geometry":{"type":"Point","coordinates":[15.1980227,50.029278]},"properties":{"disused:amenity":"telephone"}},
{"type":"Feature","geometry":{"type":"Point","coordinates":[15.5784225,49.3914583]},"properties":{"disused:amenity":"telephone","source":"survey"}},
{"type":"Feature","geometry":{"type":"Point","coordinates":[15.5812314,49.3947943]},"properties":{"disused:amenity":"telephone","source":"survey"}},
{"type":"Feature","geometry":{"type":"Point","coordinates":[13.4700204,49.5842639]},"properties":{"amenity":"telephone"}},
{"type":"Feature","geometry":{"type":"Point","coordinates":[12.352383,50.118957]},"properties":{"disused:amenity":"telephone","operator":"Telefónica O2"}},
{"type":"Feature","geometry":{"type":"Point","coordinates":[16.6159568,49.9110938]},"properties":{"disused:amenity":"telephone"}},
{"type":"Feature","geometry":{"type":"Point","coordinates":[14.4859413,50.1461676]},"properties":{"disused:amenity":"telephone"}},
{"type":"Feature","geometry":{"type":"Point","coordinates":[15.559321,49.3996311]},"properties":{"disused:amenity":"telephone","source":"survey"}},
{"type":"Feature","geometry":{"type":"Point","coordinates":[17.7593521,49.4612784]},"properties":{"disused:amenity":"telephone"}},
{"type":"Feature","geometry":{"type":"Point","coordinates":[17.6950393,49.4471717]},"properties":{"disused:amenity":"telephone"}},
{"type":"Feature","geometry":{"type":"Point","coordinates":[15.2705357,49.954198]},"properties":{"disused:amenity":"telephone"}},
{"type":"Feature","geometry":{"type":"Point","coordinates":[12.8304802,49.3984675]},"properties":{"disused:amenity":"telephone"}},
{"type":"Feature","geometry":{"type":"Point","coordinates":[16.6502876,49.7604942]},"properties":{"disused:amenity":"telephone","operator":"Telefonica O2"}},
{"type":"Feature","geometry":{"type":"Point","coordinates":[17.4795305,49.5102432]},"properties":{"disused:amenity":"telephone"}},
{"type":"Feature","geometry":{"type":"Point","coordinates":[14.4839722,50.16506]},"properties":{"disused:amenity":"telephone"}},
{"type":"Feature","geometry":{"type":"Point","coordinates":[14.5514734,50.2031794]},"properties":{"disused:amenity":"telephone"}},
{"type":"Feature","geometry":{"type":"Point","coordinates":[14.2092007,49.91778]},"properties":{"disused:amenity":"telephone"}},
{"type":"Feature","geometry":{"type":"Point","coordinates":[14.4237859,50.1310358]},"properties":{"disused:amenity":"telephone"}},
{"type":"Feature","geometry":{"type":"Point","coordinates":[17.0155721,49.4654795]},"properties":{"disused:amenity":"telephone"}},
{"type":"Feature","geometry":{"type":"Point","coordinates":[13.9566758,49.6615298]},"properties":{"disused:amenity":"telephone"}},
{"type":"Feature","geometry":{"type":"Point","coordinates":[14.519498,50.2570318]},"properties":{"disused:amenity":"telephone"}},
{"type":"Feature","geometry":{"type":"Point","coordinates":[14.4550508,50.0946717]},"properties":{"amenity":"telephone"}},
{"type":"Feature","geometry":{"type":"Point","coordinates":[14.4791759,50.2955579]},"properties":{"disused:amenity":"telephone"}},
{"type":"Feature","geometry":{"type":"Point","coordinates":[14.1858544,49.8902052]},"properties":{"disused:amenity":"telephone"}},
{"type":"Feature","geometry":{"type":"Point","coordinates":[14.3959898,50.0002296]},"properties":{"historic:amenity":"telephone"}},
{"type":"Feature","geometry":{"type":"Point","coordinates":[14.3531389,50.0510286]},"properties":{"disused:amenity":"telephone"}},
{"type":"Feature","geometry":{"type":"Point","coordinates":[15.2710913,49.7707442]},"properties":{"amenity":"telephone"}},
{"type":"Feature","geometry":{"type":"Point","coordinates":[15.6723409,49.2711784]},"properties":{"disused:amenity":"telephone","operator":"Telefonica O2","source":"survey"}},
{"type":"Feature","geometry":{"type":"Point","coordinates":[12.971168,50.419384]},"properties":{"ref":"+49373480008490","amenity":"telephone","operator":"T-Com","payment:coins":"yes","payment:credit_cards":"yes","payment:telephone_cards":"yes"}},
{"type":"Feature","geometry":{"type":"Point","coordinates":[12.968403,50.421693]},"properties":{"ref":"373480023272","amenity":"telephone","operator":"T-Com","payment:coins":"yes"}},
{"type":"Feature","geometry":{"type":"Point","coordinates":[14.3970413,49.8135872]},"properties":{"disused:amenity":"telephone"}},
{"type":"Feature","geometry":{"type":"Point","coordinates":[14.4525984,50.1237552]},"properties":{"disused:amenity":"telephone","layer":"-1"}},
{"type":"Feature","geometry":{"type":"Point","coordinates":[14.4488308,50.2892534]},"properties":{"disused:amenity":"telephone"}},
{"type":"Feature","geometry":{"type":"Point","coordinates":[13.9849439,49.6813593]},"properties":{"disused:amenity":"telephone"}},
{"type":"Feature","geometry":{"type":"Point","coordinates":[13.3889788,50.0990154]},"properties":{"disused:amenity":"telephone"}},
{"type":"Feature","geometry":{"type":"Point","coordinates":[14.2577831,50.1626564]},"properties":{"amenity":"telephone"}},
{"type":"Feature","geometry":{"type":"Point","coordinates":[14.48625,50.1062047]},"properties":{"source":"survey","amenity":"telephone"}},
{"type":"Feature","geometry":{"type":"Point","coordinates":[14.6823798,49.3905734]},"properties":{"amenity":"telephone"}},
{"type":"Feature","geometry":{"type":"Point","coordinates":[13.7825278,49.8214751]},"properties":{"disused:amenity":"telephone","operator":"O2","payment:coins":"yes","phone":"+420371794210"}},
{"type":"Feature","geometry":{"type":"Point","coordinates":[13.9891658,49.6825566]},"properties":{"disused:amenity":"telephone"}},
{"type":"Feature","geometry":{"type":"Point","coordinates":[16.3451321,49.6042442]},"properties":{"disused:amenity":"telephone"}},
{"type":"Feature","geometry":{"type":"Point","coordinates":[14.4689189,50.1146002]},"properties":{"amenity":"telephone"}},
{"type":"Feature","geometry":{"type":"Point","coordinates":[14.6656059,49.9715173]},"properties":{"disused:amenity":"telephone"}},
{"type":"Feature","geometry":{"type":"Point","coordinates":[16.6794889,49.6114048]},"properties":{"disused:amenity":"telephone","operator":"O2"}},
{"type":"Feature","geometry":{"type":"Point","coordinates":[16.6749183,49.6142662]},"properties":{"disused:amenity":"telephone"}},
{"type":"Feature","geometry":{"type":"Point","coordinates":[16.6729389,49.6113395]},"properties":{"disused:amenity":"telephone"}},
{"type":"Feature","geometry":{"type":"Point","coordinates":[17.6551656,49.2015617]},"properties":{"disused:amenity":"telephone"}},
{"type":"Feature","geometry":{"type":"Point","coordinates":[13.3733968,49.7475105]},"properties":{"source":"survey","amenity":"telephone"}},
{"type":"Feature","geometry":{"type":"Point","coordinates":[14.4051079,50.0054282]},"properties":{"amenity":"telephone"}},
{"type":"Feature","geometry":{"type":"Point","coordinates":[17.1297548,49.6548542]},"properties":{"disused:amenity":"telephone"}},
{"type":"Feature","geometry":{"type":"Point","coordinates":[18.3412617,49.6719103]},"properties":{"disused:amenity":"telephone"}},
{"type":"Feature","geometry":{"type":"Point","coordinates":[18.3349279,49.6782517]},"properties":{"disused:amenity":"telephone"}},
{"type":"Feature","geometry":{"type":"Point","coordinates":[18.336295,49.6790185]},"properties":{"disused:amenity":"telephone"}},
{"type":"Feature","geometry":{"type":"Point","coordinates":[18.3392712,49.6734124]},"properties":{"disused:amenity":"telephone"}},
{"type":"Feature","geometry":{"type":"Point","coordinates":[13.3871869,49.7444711]},"properties":{"source":"survey","amenity":"telephone","operator":"O2"}},
{"type":"Feature","geometry":{"type":"Point","coordinates":[13.5277134,49.6306073]},"properties":{"source":"survey","amenity":"telephone"}},
{"type":"Feature","geometry":{"type":"Point","coordinates":[14.876721999999999,49.7885208]},"properties":{"disused:amenity":"telephone","operator":"o2"}},
{"type":"Feature","geometry":{"type":"Point","coordinates":[13.1353066,49.6307539]},"properties":{"source":"survey","amenity":"telephone"}},
{"type":"Feature","geometry":{"type":"Point","coordinates":[18.0402626,49.861095]},"properties":{"designation":"Telefonní budka","disused:amenity":"telephone"}},
{"type":"Feature","geometry":{"type":"Point","coordinates":[16.6562388,49.7577125]},"properties":{"disused:amenity":"telephone"}},
{"type":"Feature","geometry":{"type":"Point","coordinates":[14.4262396,50.0723744]},"properties":{"amenity":"telephone"}},
{"type":"Feature","geometry":{"type":"Point","coordinates":[18.3590074,49.6877975]},"properties":{"disused:amenity":"telephone","operator":"Telefonica O2"}},
{"type":"Feature","geometry":{"type":"Point","coordinates":[14.4570317,50.0709842]},"properties":{"amenity":"telephone","operator":"Telefónica O2"}},
{"type":"Feature","geometry":{"type":"Point","coordinates":[18.3520064,49.686363]},"properties":{"disused:amenity":"telephone","operator":"Telefonica O2"}},
{"type":"Feature","geometry":{"type":"Point","coordinates":[17.2740272,49.5918794]},"properties":{"disused:amenity":"telephone","operator":"O2","source":"survey"}},
{"type":"Feature","geometry":{"type":"Point","coordinates":[15.8071751,49.2842632]},"properties":{"disused:amenity":"telephone"}},
{"type":"Feature","geometry":{"type":"Point","coordinates":[18.3682603,49.6856208]},"properties":{"disused:amenity":"telephone","operator":"Telefonica O2"}},
{"type":"Feature","geometry":{"type":"Point","coordinates":[13.3928,49.73295]},"properties":{"amenity":"telephone","operator":"O2","payment:coins":"yes","payment:telephone_cards":"yes"}},
{"type":"Feature","geometry":{"type":"Point","coordinates":[13.4126667,49.7427667]},"properties":{"amenity":"telephone","operator":"O2","payment:coins":"yes","payment:telephone_cards":"yes"}},
{"type":"Feature","geometry":{"type":"Point","coordinates":[16.5237141,49.220889]},"properties":{"designation":"Public telephone","disused:amenity":"telephone","source":"local knowledge"}},
{"type":"Feature","geometry":{"type":"Point","coordinates":[13.4733421,49.6980775]},"properties":{"disused:amenity":"telephone","source":"survey"}},
{"type":"Feature","geometry":{"type":"Point","coordinates":[13.3829491,49.7829924]},"properties":{"source":"survey","amenity":"telephone"}},
{"type":"Feature","geometry":{"type":"Point","coordinates":[13.3604076,49.7578736]},"properties":{"source":"survey","amenity":"telephone"}},
{"type":"Feature","geometry":{"type":"Point","coordinates":[13.3552986,49.7775659]},"properties":{"source":"survey","amenity":"telephone"}},
{"type":"Feature","geometry":{"type":"Point","coordinates":[13.3121374,49.7324994]},"properties":{"source":"survey","amenity":"telephone"}},
{"type":"Feature","geometry":{"type":"Point","coordinates":[13.248514,49.6441369]},"properties":{"phone":"+420377972842","source":"survey","amenity":"telephone","operator":"O2"}},
{"type":"Feature","geometry":{"type":"Point","coordinates":[13.3474535,49.742591]},"properties":{"source":"survey","amenity":"telephone"}},
{"type":"Feature","geometry":{"type":"Point","coordinates":[13.3228681,49.7457468]},"properties":{"source":"survey","amenity":"telephone"}},
{"type":"Feature","geometry":{"type":"Point","coordinates":[13.3211265,49.7458051]},"properties":{"source":"survey","amenity":"telephone"}},
{"type":"Feature","geometry":{"type":"Point","coordinates":[18.3630731,49.6807608]},"properties":{"disused:amenity":"telephone","operator":"Telefonica O2"}},
{"type":"Feature","geometry":{"type":"Point","coordinates":[13.3444356,49.745876]},"properties":{"source":"survey","amenity":"telephone"}},
{"type":"Feature","geometry":{"type":"Point","coordinates":[12.9803611,49.8813342]},"properties":{"disused:amenity":"telephone","source":"survey"}},
{"type":"Feature","geometry":{"type":"Point","coordinates":[12.7029633,49.9759929]},"properties":{"disused:amenity":"telephone"}},
{"type":"Feature","geometry":{"type":"Point","coordinates":[13.3730682,49.7801427]},"properties":{"source":"survey","amenity":"telephone"}},
{"type":"Feature","geometry":{"type":"Point","coordinates":[13.3724228,49.7821133]},"properties":{"source":"survey","amenity":"telephone"}},
{"type":"Feature","geometry":{"type":"Point","coordinates":[16.6119905,49.9125352]},"properties":{"disused:amenity":"telephone"}},
{"type":"Feature","geometry":{"type":"Point","coordinates":[16.3446442,49.2436408]},"properties":{"disused:amenity":"telephone","operator":"O2","payment:coins":"no","payment:electronic_purses":"no","payment:telephone_cards":"yes","phone":"+420546441137"}},
{"type":"Feature","geometry":{"type":"Point","coordinates":[16.3616781,49.2551849]},"properties":{"disused:amenity":"telephone","operator":"O2","payment:telephone_cards":"yes"}},
{"type":"Feature","geometry":{"type":"Point","coordinates":[16.3878197,49.2786422]},"properties":{"disused:amenity":"telephone","operator":"O2","payment:coins":"yes"}},
{"type":"Feature","geometry":{"type":"Point","coordinates":[18.3567835,49.6817388]},"properties":{"disused:amenity":"telephone","operator":"Telefonica O2"}},
{"type":"Feature","geometry":{"type":"Point","coordinates":[18.146481,49.9734383]},"properties":{"disused:amenity":"telephone","operator":"O2"}},
{"type":"Feature","geometry":{"type":"Point","coordinates":[17.1145211,49.7690715]},"properties":{"disused:amenity":"telephone"}},
{"type":"Feature","geometry":{"type":"Point","coordinates":[14.4350981,50.2009607]},"properties":{"disused:amenity":"telephone"}},
{"type":"Feature","geometry":{"type":"Point","coordinates":[14.4960708,50.1912302]},"properties":{"disused:amenity":"telephone"}},
{"type":"Feature","geometry":{"type":"Point","coordinates":[14.3523594,48.9505797]},"properties":{"amenity":"telephone"}},
{"type":"Feature","geometry":{"type":"Point","coordinates":[14.3339704,48.9477071]},"properties":{"fee":"yes","sms":"yes","phone":"+420387992192","video":"no","indoor":"no","amenity":"telephone","covered":"yes","wheelchair":"yes","source:date":"2020-05-03","payment:telephone_cards":"yes"}},
{"type":"Feature","geometry":{"type":"Point","coordinates":[14.3313599,48.9571294]},"properties":{"fee":"yes","sms":"yes","phone":"+420387222489","video":"no","indoor":"no","amenity":"telephone","covered":"yes","wheelchair":"yes","source:date":"2020-05-03","payment:telephone_cards":"yes"}},
{"type":"Feature","geometry":{"type":"Point","coordinates":[14.3045872,48.9047352]},"properties":{"amenity":"telephone"}},
{"type":"Feature","geometry":{"type":"Point","coordinates":[15.9196852,49.932377]},"properties":{"source":"gps","amenity":"telephone","operator":"Telefonica O2"}},
{"type":"Feature","geometry":{"type":"Point","coordinates":[14.5524751,50.1726637]},"properties":{"disused:amenity":"telephone"}},
{"type":"Feature","geometry":{"type":"Point","coordinates":[13.5080496,49.5210025]},"properties":{"source":"survey","amenity":"telephone"}},
{"type":"Feature","geometry":{"type":"Point","coordinates":[18.4375501,49.8764227]},"properties":{"disused:amenity":"telephone"}},
{"type":"Feature","geometry":{"type":"Point","coordinates":[17.2239543,50.2542831]},"properties":{"disused:amenity":"telephone"}},
{"type":"Feature","geometry":{"type":"Point","coordinates":[18.8320253,49.5205541]},"properties":{"disused:amenity":"telephone","operator":"Telefonica O2"}},
{"type":"Feature","geometry":{"type":"Point","coordinates":[14.7642851,49.0035711]},"properties":{"amenity":"telephone"}},
{"type":"Feature","geometry":{"type":"Point","coordinates":[15.3980196,49.9060806]},"properties":{"disused:amenity":"telephone","operator":"O2","payment:coins":"yes","payment:telephone_cards":"yes"}},
{"type":"Feature","geometry":{"type":"Point","coordinates":[14.4515879,50.0788487]},"properties":{"amenity":"public_bookcase","disused:amenity":"telephone","name":"Knihobudka","public_bookcase:type":"phone_box"}},
{"type":"Feature","geometry":{"type":"Point","coordinates":[15.7566239,49.4868139]},"properties":{"disused:amenity":"telephone"}},
{"type":"Feature","geometry":{"type":"Point","coordinates":[18.2906918,49.8410359]},"properties":{"disused:amenity":"telephone"}},
{"type":"Feature","geometry":{"type":"Point","coordinates":[18.4253888,49.8717]},"properties":{"disused:amenity":"telephone"}},
{"type":"Feature","geometry":{"type":"Point","coordinates":[15.7293253,48.9373481]},"properties":{"amenity":"telephone","operator":"O2"}},
{"type":"Feature","geometry":{"type":"Point","coordinates":[18.5284107,49.5187489]},"properties":{"disused:amenity":"telephone"}},
{"type":"Feature","geometry":{"type":"Point","coordinates":[18.4774027,49.6163718]},"properties":{"disused:amenity":"telephone"}},
{"type":"Feature","geometry":{"type":"Point","coordinates":[13.4041613,49.7566891]},"properties":{"source":"survey","amenity":"telephone"}},
{"type":"Feature","geometry":{"type":"Point","coordinates":[16.5273529,49.2676131]},"properties":{"disused:amenity":"telephone","operator":"O2"}},
{"type":"Feature","geometry":{"type":"Point","coordinates":[16.5108131,49.254905]},"properties":{"disused:amenity":"telephone","operator":"O2"}},
{"type":"Feature","geometry":{"type":"Point","coordinates":[15.0032141,49.1386795]},"properties":{"amenity":"telephone","operator":"Telefonica O2","payment:coins":"yes","payment:notes":"no","payment:telephone_cards":"yes"}},
{"type":"Feature","geometry":{"type":"Point","coordinates":[17.0906772,49.7234422]},"properties":{"disused:amenity":"telephone"}},
{"type":"Feature","geometry":{"type":"Point","coordinates":[17.0718844,49.7017092]},"properties":{"disused:amenity":"telephone"}},
{"type":"Feature","geometry":{"type":"Point","coordinates":[14.9245014,49.2654094]},"properties":{"phone":"+420384384298","amenity":"telephone","operator":"O2","payment:coins":"yes","payment:telephone_cards":"yes"}},
{"type":"Feature","geometry":{"type":"Point","coordinates":[13.3783042,49.7431583]},"properties":{"source":"survey","amenity":"telephone"}},
{"type":"Feature","geometry":{"type":"Point","coordinates":[13.3776278,49.7449077]},"properties":{"amenity":"telephone","check_date":"2021-02-22","source":"survey"}},
{"type":"Feature","geometry":{"type":"Point","coordinates":[13.379676,49.746299]},"properties":{"source":"survey","amenity":"telephone"}},
{"type":"Feature","geometry":{"type":"Point","coordinates":[13.373704,49.7463628]},"properties":{"source":"survey","amenity":"telephone"}},
{"type":"Feature","geometry":{"type":"Point","coordinates":[13.3756052,49.7484888]},"properties":{"source":"survey","amenity":"telephone"}},
{"type":"Feature","geometry":{"type":"Point","coordinates":[13.353674,49.7616553]},"properties":{"source":"survey","amenity":"telephone"}},
{"type":"Feature","geometry":{"type":"Point","coordinates":[13.3635313,49.7675199]},"properties":{"source":"survey","amenity":"telephone"}},
{"type":"Feature","geometry":{"type":"Point","coordinates":[13.4021171,49.7254737]},"properties":{"source":"survey","amenity":"telephone"}},
{"type":"Feature","geometry":{"type":"Point","coordinates":[13.3439641,49.7272191]},"properties":{"source":"survey","amenity":"telephone"}},
{"type":"Feature","geometry":{"type":"Point","coordinates":[13.4010986,49.7329421]},"properties":{"source":"survey","amenity":"telephone"}},
{"type":"Feature","geometry":{"type":"Point","coordinates":[13.3982021,49.735066]},"properties":{"source":"survey","amenity":"telephone"}},
{"type":"Feature","geometry":{"type":"Point","coordinates":[13.3967873,49.7365224]},"properties":{"source":"survey","amenity":"telephone"}},
{"type":"Feature","geometry":{"type":"Point","coordinates":[13.3846408,49.7439702]},"properties":{"source":"survey","amenity":"telephone"}},
{"type":"Feature","geometry":{"type":"Point","coordinates":[13.3772397,49.7466193]},"properties":{"source":"survey","amenity":"telephone"}},
{"type":"Feature","geometry":{"type":"Point","coordinates":[14.472239,50.1093923]},"properties":{"amenity":"telephone"}},
{"type":"Feature","geometry":{"type":"Point","coordinates":[17.0196088,49.4865354]},"properties":{"disused:amenity":"telephone"}},
{"type":"Feature","geometry":{"type":"Point","coordinates":[14.4518258,50.0824234]},"properties":{"amenity":"telephone"}},
{"type":"Feature","geometry":{"type":"Point","coordinates":[14.7337385,48.7610467]},"properties":{"phone":"+420386327109","source":"survey","amenity":"telephone","operator":"O2","payment:coins":"yes","payment:notes":"no","payment:debit_cards":"no","payment:credit_cards":"no","payment:telephone_cards":"no","payment:electronic_purses":"no"}},
{"type":"Feature","geometry":{"type":"Point","coordinates":[12.9776987,50.419839]},"properties":{"amenity":"telephone"}},
{"type":"Feature","geometry":{"type":"Point","coordinates":[14.381935,49.5960207]},"properties":{"disused:amenity":"telephone","operator":"O2"}},
{"type":"Feature","geometry":{"type":"Point","coordinates":[13.3299013,49.7428914]},"properties":{"source":"survey","amenity":"telephone"}},
{"type":"Feature","geometry":{"type":"Point","coordinates":[16.8789261,49.5459996]},"properties":{"disused:amenity":"telephone","operator":"O2","phone":"+420582391555"}},
{"type":"Feature","geometry":{"type":"Point","coordinates":[16.9596668,49.488636]},"properties":{"disused:amenity":"telephone"}},
{"type":"Feature","geometry":{"type":"Point","coordinates":[16.7908088,49.5497888]},"properties":{"disused:amenity":"telephone","operator":"Telefonica O2"}},
{"type":"Feature","geometry":{"type":"Point","coordinates":[13.3639948,49.7480324]},"properties":{"source":"survey","amenity":"telephone"}},
{"type":"Feature","geometry":{"type":"Point","coordinates":[15.0392344,49.3060001]},"properties":{"phone":"+420 565 432 864","source":"survey","amenity":"telephone","operator":"O2","payment:coins":"yes"}},
{"type":"Feature","geometry":{"type":"Point","coordinates":[15.076232,49.299918]},"properties":{"phone":"+420 565 433 241","source":"survey","amenity":"telephone","operator":"O2"}},
{"type":"Feature","geometry":{"type":"Point","coordinates":[15.0781268,49.3025104]},"properties":{"phone":"+420 565 433 244","source":"survey","amenity":"telephone","operator":"O2"}},
{"type":"Feature","geometry":{"type":"Point","coordinates":[14.9700463,49.3260256]},"properties":{"phone":"+420 565 492 435","source":"survey","amenity":"telephone","operator":"O2"}},
{"type":"Feature","geometry":{"type":"Point","coordinates":[17.3979644,50.2608438]},"properties":{"disused:amenity":"telephone"}},
{"type":"Feature","geometry":{"type":"Point","coordinates":[17.1296372,50.3621827]},"properties":{"covered":"booth","disused:amenity":"telephone"}},
{"type":"Feature","geometry":{"type":"Point","coordinates":[17.144539,50.3626778]},"properties":{"covered":"booth","disused:amenity":"telephone"}},
{"type":"Feature","geometry":{"type":"Point","coordinates":[13.4779829,49.695539]},"properties":{"disused:amenity":"telephone","source":"survey"}},
{"type":"Feature","geometry":{"type":"Point","coordinates":[14.3632809,50.0897536]},"properties":{"amenity":"telephone"}},
{"type":"Feature","geometry":{"type":"Point","coordinates":[17.1048995,49.4726925]},"properties":{"disused:amenity":"telephone","operator":"O2","source":"uhul:ortofoto"}},
{"type":"Feature","geometry":{"type":"Point","coordinates":[17.1115315,49.478526]},"properties":{"disused:amenity":"telephone","operator":"O2"}},
{"type":"Feature","geometry":{"type":"Point","coordinates":[13.4001022,49.7238362]},"properties":{"source":"survey","amenity":"telephone"}},
{"type":"Feature","geometry":{"type":"Point","coordinates":[15.5648409,49.894739]},"properties":{"source":"gps","amenity":"telephone","operator":"O2"}},
{"type":"Feature","geometry":{"type":"Point","coordinates":[15.5883671,48.9678347]},"properties":{"amenity":"telephone"}},
{"type":"Feature","geometry":{"type":"Point","coordinates":[17.0414101,49.5110195]},"properties":{"disused:amenity":"telephone"}},
{"type":"Feature","geometry":{"type":"Point","coordinates":[18.2140877,49.5461434]},"properties":{"disused:amenity":"telephone","source":"survey"}},
{"type":"Feature","geometry":{"type":"Point","coordinates":[13.4128108,49.7279558]},"properties":{"source":"survey","amenity":"telephone"}},
{"type":"Feature","geometry":{"type":"Point","coordinates":[13.3448153,49.7301336]},"properties":{"source":"survey","amenity":"telephone"}},
{"type":"Feature","geometry":{"type":"Point","coordinates":[13.4064825,49.7304307]},"properties":{"source":"survey","amenity":"telephone"}},
{"type":"Feature","geometry":{"type":"Point","coordinates":[13.4067794,49.7319039]},"properties":{"source":"survey","amenity":"telephone"}},
{"type":"Feature","geometry":{"type":"Point","coordinates":[13.4086322,49.7336649]},"properties":{"source":"survey","amenity":"telephone"}},
{"type":"Feature","geometry":{"type":"Point","coordinates":[17.2572608,49.6036339]},"properties":{"disused:amenity":"telephone"}},
{"type":"Feature","geometry":{"type":"Point","coordinates":[14.4103668,50.0398044]},"properties":{"amenity":"telephone"}},
{"type":"Feature","geometry":{"type":"Point","coordinates":[14.4115992,50.0367663]},"properties":{"amenity":"telephone"}},
{"type":"Feature","geometry":{"type":"Point","coordinates":[12.9699798,49.6599821]},"properties":{"phone":"+420374695115","source":"survey","amenity":"telephone","operator":"O2"}},
{"type":"Feature","geometry":{"type":"Point","coordinates":[13.405015,49.7354226]},"properties":{"source":"survey","amenity":"telephone"}},
{"type":"Feature","geometry":{"type":"Point","coordinates":[14.440195,50.0899202]},"properties":{"amenity":"telephone"}},
{"type":"Feature","geometry":{"type":"Point","coordinates":[13.3771423,49.7543194]},"properties":{"source":"survey","amenity":"telephone"}},
{"type":"Feature","geometry":{"type":"Point","coordinates":[14.4205292,49.222493299999999]},"properties":{"amenity":"telephone"}},
{"type":"Feature","geometry":{"type":"Point","coordinates":[13.3637067,49.7764186]},"properties":{"source":"survey","amenity":"telephone"}},
{"type":"Feature","geometry":{"type":"Point","coordinates":[13.3632014,49.7770254]},"properties":{"source":"survey","amenity":"telephone"}},
{"type":"Feature","geometry":{"type":"Point","coordinates":[13.367586,49.7779617]},"properties":{"source":"survey","amenity":"telephone"}},
{"type":"Feature","geometry":{"type":"Point","coordinates":[13.3690094,49.7800073]},"properties":{"source":"survey","amenity":"telephone"}},
{"type":"Feature","geometry":{"type":"Point","coordinates":[13.3658261,49.780442]},"properties":{"source":"survey","amenity":"telephone"}},
{"type":"Feature","geometry":{"type":"Point","coordinates":[13.3960742,49.7326398]},"properties":{"source":"survey","amenity":"telephone"}},
{"type":"Feature","geometry":{"type":"Point","coordinates":[13.5217785,49.2378617]},"properties":{"amenity":"telephone","operator":"O2","payment:coins":"yes"}},
{"type":"Feature","geometry":{"type":"Point","coordinates":[16.7464253,49.3638579]},"properties":{"disused:amenity":"telephone","source":"survey"}},
{"type":"Feature","geometry":{"type":"Point","coordinates":[13.5826136,49.7006989]},"properties":{"disused:amenity":"telephone","operator":"O2","phone":"+420371783076"}},
{"type":"Feature","geometry":{"type":"Point","coordinates":[13.4070445,49.7171499]},"properties":{"amenity":"telephone"}},
{"type":"Feature","geometry":{"type":"Point","coordinates":[16.8924721,49.6076894]},"properties":{"disused:amenity":"telephone","operator":"O2"}},
{"type":"Feature","geometry":{"type":"Point","coordinates":[16.9095423,49.6365938]},"properties":{"disused:amenity":"telephone","operator":"O2"}},
{"type":"Feature","geometry":{"type":"Point","coordinates":[16.9651134,49.6729666]},"properties":{"disused:amenity":"telephone","operator":"O2"}},
{"type":"Feature","geometry":{"type":"Point","coordinates":[13.4188814,49.7490716]},"properties":{"amenity":"telephone"}},
{"type":"Feature","geometry":{"type":"Point","coordinates":[13.4228782,49.7534716]},"properties":{"amenity":"telephone"}},
{"type":"Feature","geometry":{"type":"Point","coordinates":[13.4210203,49.7570019]},"properties":{"amenity":"telephone"}},
{"type":"Feature","geometry":{"type":"Point","coordinates":[13.4237883,49.7584343]},"properties":{"source":"survey","amenity":"telephone"}},
{"type":"Feature","geometry":{"type":"Point","coordinates":[13.3719756,49.7674188]},"properties":{"amenity":"telephone"}},
{"type":"Feature","geometry":{"type":"Point","coordinates":[13.3669285,49.7707242]},"properties":{"amenity":"telephone"}},
{"type":"Feature","geometry":{"type":"Point","coordinates":[16.614885,49.9130332]},"properties":{"disused:amenity":"telephone"}},
{"type":"Feature","geometry":{"type":"Point","coordinates":[13.3665603,49.7499784]},"properties":{"source":"survey","amenity":"telephone"}},
{"type":"Feature","geometry":{"type":"Point","coordinates":[13.2942595,49.6860147]},"properties":{"source":"survey","amenity":"telephone"}},
{"type":"Feature","geometry":{"type":"Point","coordinates":[13.291823,49.655113]},"properties":{"source":"survey","amenity":"telephone"}},
{"type":"Feature","geometry":{"type":"Point","coordinates":[14.7551268,49.061799]},"properties":{"phone":"+420 384 792 500","source":"survey","amenity":"telephone","operator":"O2"}},
{"type":"Feature","geometry":{"type":"Point","coordinates":[16.8920494,48.754625]},"properties":{"disused:amenity":"telephone"}},
{"type":"Feature","geometry":{"type":"Point","coordinates":[16.8895915,48.7557364]},"properties":{"disused:amenity":"telephone"}},
{"type":"Feature","geometry":{"type":"Point","coordinates":[16.8923644,48.7565406]},"properties":{"disused:amenity":"telephone"}},
{"type":"Feature","geometry":{"type":"Point","coordinates":[16.8867344,48.7581022]},"properties":{"disused:amenity":"telephone"}},
{"type":"Feature","geometry":{"type":"Point","coordinates":[14.6498743,50.1898653]},"properties":{"disused:amenity":"telephone"}},
{"type":"Feature","geometry":{"type":"Point","coordinates":[16.4224655,49.5574884]},"properties":{"disused:amenity":"telephone"}},
{"type":"Feature","geometry":{"type":"Point","coordinates":[13.3705506,49.7312959]},"properties":{"amenity":"telephone"}},
{"type":"Feature","geometry":{"type":"Point","coordinates":[16.2088812,48.9574561]},"properties":{"disused:amenity":"telephone"}},
{"type":"Feature","geometry":{"type":"Point","coordinates":[13.420889,49.7311019]},"properties":{"amenity":"telephone"}},
{"type":"Feature","geometry":{"type":"Point","coordinates":[13.3069106,49.7558519]},"properties":{"amenity":"telephone"}},
{"type":"Feature","geometry":{"type":"Point","coordinates":[14.416103,50.1266132]},"properties":{"disused:amenity":"telephone"}},
{"type":"Feature","geometry":{"type":"Point","coordinates":[16.5957812,49.1789598]},"properties":{"disused:amenity":"telephone","operator":"O2"}},
{"type":"Feature","geometry":{"type":"Point","coordinates":[13.3780491,49.7362229]},"properties":{"source":"survey","amenity":"telephone"}},
{"type":"Feature","geometry":{"type":"Point","coordinates":[13.3795763,49.7373001]},"properties":{"source":"survey","amenity":"telephone"}},
{"type":"Feature","geometry":{"type":"Point","coordinates":[13.3754824,49.7427737]},"properties":{"source":"survey","amenity":"telephone"}},
{"type":"Feature","geometry":{"type":"Point","coordinates":[17.1054217,50.2225828]},"properties":{"disused:amenity":"telephone"}},
{"type":"Feature","geometry":{"type":"Point","coordinates":[17.2076958,50.2319219]},"properties":{"disused:amenity":"telephone","payment:coins":"yes","payment:telephone_cards":"yes"}},
{"type":"Feature","geometry":{"type":"Point","coordinates":[14.4341037,50.0842428]},"properties":{"operator":"Telefónica O2","was:amenity":"telephone"}},
{"type":"Feature","geometry":{"type":"Point","coordinates":[13.3676935,49.7363962]},"properties":{"source":"survey","amenity":"telephone"}},
{"type":"Feature","geometry":{"type":"Point","coordinates":[13.3721292,49.7421044]},"properties":{"source":"survey","amenity":"telephone"}},
{"type":"Feature","geometry":{"type":"Point","coordinates":[13.4087189,49.7483331]},"properties":{"source":"survey","amenity":"telephone"}},
{"type":"Feature","geometry":{"type":"Point","coordinates":[13.4155653,49.75467]},"properties":{"source":"survey","amenity":"telephone"}},
{"type":"Feature","geometry":{"type":"Point","coordinates":[16.9563126,49.5568746]},"properties":{"disused:amenity":"telephone","operator":"O2"}},
{"type":"Feature","geometry":{"type":"Point","coordinates":[16.9647267,49.5634314]},"properties":{"disused:amenity":"telephone","operator":"O2"}},
{"type":"Feature","geometry":{"type":"Point","coordinates":[13.373797,49.7691466]},"properties":{"source":"survey","amenity":"telephone"}},
{"type":"Feature","geometry":{"type":"Point","coordinates":[13.3733142,49.7703932]},"properties":{"source":"survey","amenity":"telephone"}},
{"type":"Feature","geometry":{"type":"Point","coordinates":[15.865988,49.978244]},"properties":{"disused:amenity":"telephone","operator":"Telefónica Czech Republic","payment:telephone_cards":"yes","phone":"+420469692006"}},
{"type":"Feature","geometry":{"type":"Point","coordinates":[13.3656086,49.7474429]},"properties":{"source":"survey","amenity":"telephone"}},
{"type":"Feature","geometry":{"type":"Point","coordinates":[16.5295926,49.2261222]},"properties":{"disused:amenity":"telephone","operator":"O2","phone":"+420546210107","source":"gps;survey"}},
{"type":"Feature","geometry":{"type":"Point","coordinates":[16.5227666,49.227228]},"properties":{"disused:amenity":"telephone","operator":"O2","phone":"+420546210101","source":"gps;survey"}},
{"type":"Feature","geometry":{"type":"Point","coordinates":[17.9646507,49.9924983]},"properties":{"disused:amenity":"telephone","operator":"O2"}},
{"type":"Feature","geometry":{"type":"Point","coordinates":[17.2484121,50.2930977]},"properties":{"disused:amenity":"telephone"}},
{"type":"Feature","geometry":{"type":"Point","coordinates":[14.4212748,50.0732372]},"properties":{"amenity":"telephone"}},
{"type":"Feature","geometry":{"type":"Point","coordinates":[18.2898903,49.8420751]},"properties":{"covered":"booth","disused:amenity":"telephone"}},
{"type":"Feature","geometry":{"type":"Point","coordinates":[13.0053215,49.753306]},"properties":{"disused:amenity":"telephone"}},
{"type":"Feature","geometry":{"type":"Point","coordinates":[14.4103608,50.0707529]},"properties":{"amenity":"telephone"}},
{"type":"Feature","geometry":{"type":"Point","coordinates":[16.7350173,49.5940961]},"properties":{"disused:amenity":"telephone","operator":"O2"}},
{"type":"Feature","geometry":{"type":"Point","coordinates":[16.8120448,49.6019372]},"properties":{"disused:amenity":"telephone","operator":"O2"}},
{"type":"Feature","geometry":{"type":"Point","coordinates":[17.1987787,50.2255732]},"properties":{"disused:amenity":"telephone","payment:coins":"yes","payment:telephone_cards":"yes"}},
{"type":"Feature","geometry":{"type":"Point","coordinates":[16.9896676,49.5056122]},"properties":{"disused:amenity":"telephone","operator":"O2"}},
{"type":"Feature","geometry":{"type":"Point","coordinates":[15.1351924,50.3172522]},"properties":{"disused:amenity":"telephone"}},
{"type":"Feature","geometry":{"type":"Point","coordinates":[17.101498,49.5042341]},"properties":{"disused:amenity":"telephone","operator":"O2"}},
{"type":"Feature","geometry":{"type":"Point","coordinates":[16.7551791,49.5303909]},"properties":{"disused:amenity":"telephone","operator":"O2"}},
{"type":"Feature","geometry":{"type":"Point","coordinates":[16.8209195,49.4112071]},"properties":{"disused:amenity":"telephone","operator":"O2"}},
{"type":"Feature","geometry":{"type":"Point","coordinates":[15.4171924,49.1340746]},"properties":{"amenity":"telephone"}},
{"type":"Feature","geometry":{"type":"Point","coordinates":[15.4289865,49.1480107]},"properties":{"amenity":"telephone","payment:telephone_cards":"yes"}},
{"type":"Feature","geometry":{"type":"Point","coordinates":[17.0201613,49.7063603]},"properties":{"disused:amenity":"telephone","operator":"O2"}},
{"type":"Feature","geometry":{"type":"Point","coordinates":[17.0457389,50.3451535]},"properties":{"disused:amenity":"telephone"}},
{"type":"Feature","geometry":{"type":"Point","coordinates":[14.4501512,50.152657]},"properties":{"disused:amenity":"telephone"}},
{"type":"Feature","geometry":{"type":"Point","coordinates":[18.2894731,49.8340391]},"properties":{"disused:amenity":"telephone","payment:coins":"yes","payment:telephone_cards":"yes"}},
{"type":"Feature","geometry":{"type":"Point","coordinates":[18.2897756,49.8356813]},"properties":{"disused:amenity":"telephone","payment:coins":"yes","payment:telephone_cards":"yes"}},
{"type":"Feature","geometry":{"type":"Point","coordinates":[14.776453,49.8527538]},"properties":{"disused:amenity":"telephone"}},
{"type":"Feature","geometry":{"type":"Point","coordinates":[17.7068001,50.0891918]},"properties":{"disused:amenity":"telephone"}},
{"type":"Feature","geometry":{"type":"Point","coordinates":[17.2660118,49.5956153]},"properties":{"disused:amenity":"telephone"}},
{"type":"Feature","geometry":{"type":"Point","coordinates":[16.4355099,49.2761236]},"properties":{"disused:amenity":"telephone","operator":"O2"}},
{"type":"Feature","geometry":{"type":"Point","coordinates":[14.2672029,50.1072198]},"properties":{"disused:amenity":"telephone"}},
{"type":"Feature","geometry":{"type":"Point","coordinates":[16.5933343,49.1901232]},"properties":{"disused:amenity":"telephone"}},
{"type":"Feature","geometry":{"type":"Point","coordinates":[16.7629337,49.5919039]},"properties":{"disused:amenity":"telephone","operator":"O2"}},
{"type":"Feature","geometry":{"type":"Point","coordinates":[16.8135851,49.6609069]},"properties":{"disused:amenity":"telephone","operator":"O2"}},
{"type":"Feature","geometry":{"type":"Point","coordinates":[13.3816338,49.7194174]},"properties":{"source":"survey","amenity":"telephone"}},
{"type":"Feature","geometry":{"type":"Point","coordinates":[13.3843001,49.7221144]},"properties":{"amenity":"telephone"}},
{"type":"Feature","geometry":{"type":"Point","coordinates":[13.3870087,49.7266745]},"properties":{"source":"survey","amenity":"telephone"}},
{"type":"Feature","geometry":{"type":"Point","coordinates":[17.2373886,49.5844568]},"properties":{"disused:amenity":"telephone","operator":"O2"}},
{"type":"Feature","geometry":{"type":"Point","coordinates":[17.4833156,50.2466315]},"properties":{"disused:amenity":"telephone","source":"survey"}},
{"type":"Feature","geometry":{"type":"Point","coordinates":[16.925808,49.571658]},"properties":{"disused:amenity":"telephone","operator":"O2"}},
{"type":"Feature","geometry":{"type":"Point","coordinates":[17.0201479,49.4198334]},"properties":{"disused:amenity":"telephone","operator":"O2"}},
{"type":"Feature","geometry":{"type":"Point","coordinates":[17.0417697,49.4232157]},"properties":{"disused:amenity":"telephone","operator":"O2"}},
{"type":"Feature","geometry":{"type":"Point","coordinates":[16.997636,49.4280929]},"properties":{"disused:amenity":"telephone","operator":"O2"}},
{"type":"Feature","geometry":{"type":"Point","coordinates":[17.4490143,50.2389622]},"properties":{"amenity":"telephone"}},
{"type":"Feature","geometry":{"type":"Point","coordinates":[17.8920853,49.6375104]},"properties":{"disused:amenity":"telephone"}},
{"type":"Feature","geometry":{"type":"Point","coordinates":[14.4401427,50.1097881]},"properties":{"disused:amenity":"telephone","source":"survey"}},
{"type":"Feature","geometry":{"type":"Point","coordinates":[16.6141227,49.1880993]},"properties":{"disused:amenity":"telephone"}},
{"type":"Feature","geometry":{"type":"Point","coordinates":[14.2664411,50.1065214]},"properties":{"disused:amenity":"telephone"}},
{"type":"Feature","geometry":{"type":"Point","coordinates":[14.2478204,50.196167]},"properties":{"disused:amenity":"telephone"}},
{"type":"Feature","geometry":{"type":"Point","coordinates":[14.6990335,50.2570033]},"properties":{"phone":"+420326971181","operator":"O2","disused:amenity":"telephone"}},
{"type":"Feature","geometry":{"type":"Point","coordinates":[14.4161091,50.0884138]},"properties":{"amenity":"telephone","operator":"O2"}},
{"type":"Feature","geometry":{"type":"Point","coordinates":[16.2789829,49.3326081]},"properties":{"disused:amenity":"telephone","source":"survey"}},
{"type":"Feature","geometry":{"type":"Point","coordinates":[16.9277543,49.5450583]},"properties":{"disused:amenity":"telephone","operator":"O2"}},
{"type":"Feature","geometry":{"type":"Point","coordinates":[14.3182193,50.2531535]},"properties":{"disused:amenity":"telephone"}},
{"type":"Feature","geometry":{"type":"Point","coordinates":[13.5468752,49.3314551]},"properties":{"source":"survey","amenity":"telephone"}},
{"type":"Feature","geometry":{"type":"Point","coordinates":[17.8106269,49.0365805]},"properties":{"covered":"yes","disused:amenity":"telephone","operator":"Telefónica O2","phone":"+420 572641994","source":"survey"}},
{"type":"Feature","geometry":{"type":"Point","coordinates":[15.7780253,49.9546396]},"properties":{"disused:amenity":"telephone","operator":"O2"}},
{"type":"Feature","geometry":{"type":"Point","coordinates":[16.5959525,49.221551]},"properties":{"disused:amenity":"telephone","operator":"O2","phone":"+420 5 41214133"}},
{"type":"Feature","geometry":{"type":"Point","coordinates":[15.0391361,50.1892049]},"properties":{"disused:amenity":"telephone"}},
{"type":"Feature","geometry":{"type":"Point","coordinates":[14.4722179,50.115398]},"properties":{"historic:amenity":"telephone"}},
{"type":"Feature","geometry":{"type":"Point","coordinates":[14.8430236,50.2083192]},"properties":{"disused:amenity":"telephone"}},
{"type":"Feature","geometry":{"type":"Point","coordinates":[13.5201962,49.2315388]},"properties":{"amenity":"telephone","operator":"O2","payment:coins":"yes"}},
{"type":"Feature","geometry":{"type":"Point","coordinates":[12.6662474,50.1772434]},"properties":{"disused:amenity":"telephone","source":"survey"}},
{"type":"Feature","geometry":{"type":"Point","coordinates":[12.6664424,50.1774436]},"properties":{"disused:amenity":"telephone","source":"survey"}},
{"type":"Feature","geometry":{"type":"Point","coordinates":[12.6616729,50.1776903]},"properties":{"disused:amenity":"telephone","source":"survey"}},
{"type":"Feature","geometry":{"type":"Point","coordinates":[12.6427593,50.1824066]},"properties":{"disused:amenity":"telephone","source":"survey"}},
{"type":"Feature","geometry":{"type":"Point","coordinates":[15.9256725,49.7400767]},"properties":{"disused:amenity":"telephone"}},
{"type":"Feature","geometry":{"type":"Point","coordinates":[12.7709979,50.3903187]},"properties":{"disused:amenity":"telephone","operator":"O2","payment:coins":"yes","payment:electronic_purses":"yes","payment:telephone_cards":"yes"}},
{"type":"Feature","geometry":{"type":"Point","coordinates":[15.9387547,49.8558058]},"properties":{"disused:amenity":"telephone","payment:coins":"yes"}},
{"type":"Feature","geometry":{"type":"Point","coordinates":[17.0048658,50.3924005]},"properties":{"disused:amenity":"telephone"}},
{"type":"Feature","geometry":{"type":"Point","coordinates":[17.1771409,49.5703083]},"properties":{"disused:amenity":"telephone","operator":"O2"}},
{"type":"Feature","geometry":{"type":"Point","coordinates":[15.6013606,49.9659621]},"properties":{"disused:amenity":"telephone","operator":"O2","payment:telephone_cards":"yes"}},
{"type":"Feature","geometry":{"type":"Point","coordinates":[18.2885745,49.841078]},"properties":{"disused:amenity":"telephone"}},
{"type":"Feature","geometry":{"type":"Point","coordinates":[17.0927015,49.549503]},"properties":{"disused:amenity":"telephone","operator":"O2"}},
{"type":"Feature","geometry":{"type":"Point","coordinates":[16.2703218,49.3259255]},"properties":{"disused:amenity":"telephone","operator":"O2"}},
{"type":"Feature","geometry":{"type":"Point","coordinates":[15.9156141,49.886423]},"properties":{"disused:amenity":"telephone","operator":"O2","payment:telephone_cards":"yes"}},
{"type":"Feature","geometry":{"type":"Point","coordinates":[15.971668,49.7895834]},"properties":{"disused:amenity":"telephone","payment:telephone_cards":"yes"}},
{"type":"Feature","geometry":{"type":"Point","coordinates":[17.2521063,49.5932827]},"properties":{"disused:amenity":"telephone","operator":"O2"}},
{"type":"Feature","geometry":{"type":"Point","coordinates":[15.6042316,49.9042809]},"properties":{"disused:amenity":"telephone","operator":"O2","payment:telephone_cards":"yes"}},
{"type":"Feature","geometry":{"type":"Point","coordinates":[14.4298555,50.0793156]},"properties":{"layer":"-1","amenity":"telephone"}},
{"type":"Feature","geometry":{"type":"Point","coordinates":[14.5143662,50.136681]},"properties":{"disused:amenity":"telephone"}},
{"type":"Feature","geometry":{"type":"Point","coordinates":[14.961431,50.1841718]},"properties":{"disused:amenity":"telephone"}},
{"type":"Feature","geometry":{"type":"Point","coordinates":[12.9250649,50.4101181]},"properties":{"disused:amenity":"telephone"}},
{"type":"Feature","geometry":{"type":"Point","coordinates":[12.9166982,50.3698256]},"properties":{"disused:amenity":"telephone"}},
{"type":"Feature","geometry":{"type":"Point","coordinates":[17.2910223,49.4269474]},"properties":{"disused:amenity":"telephone","operator":"O2"}},
{"type":"Feature","geometry":{"type":"Point","coordinates":[17.1919485,49.5360126]},"properties":{"disused:amenity":"telephone","operator":"O2"}},
{"type":"Feature","geometry":{"type":"Point","coordinates":[17.1615977,49.5363972]},"properties":{"disused:amenity":"telephone","operator":"O2"}},
{"type":"Feature","geometry":{"type":"Point","coordinates":[13.72913,50.0955696]},"properties":{"disused:amenity":"telephone"}},
{"type":"Feature","geometry":{"type":"Point","coordinates":[15.8795681,49.2156699]},"properties":{"disused:amenity":"telephone"}},
{"type":"Feature","geometry":{"type":"Point","coordinates":[15.8795995,49.2156771]},"properties":{"disused:amenity":"telephone"}},
{"type":"Feature","geometry":{"type":"Point","coordinates":[17.2425575,49.5863735]},"properties":{"disused:amenity":"telephone","operator":"O2"}},
{"type":"Feature","geometry":{"type":"Point","coordinates":[14.3106991,50.2438614]},"properties":{"disused:amenity":"telephone"}},
{"type":"Feature","geometry":{"type":"Point","coordinates":[18.1894505,49.8281558]},"properties":{"disused:amenity":"telephone"}},
{"type":"Feature","geometry":{"type":"Point","coordinates":[14.7539969,50.1580383]},"properties":{"disused:amenity":"telephone"}},
{"type":"Feature","geometry":{"type":"Point","coordinates":[14.6878874,49.781902]},"properties":{"disused:amenity":"telephone"}},
{"type":"Feature","geometry":{"type":"Point","coordinates":[17.078198,50.3898054]},"properties":{"disused:amenity":"telephone"}},
{"type":"Feature","geometry":{"type":"Point","coordinates":[16.5749794,49.4966667]},"properties":{"disused:amenity":"telephone","operator":"O2"}},
{"type":"Feature","geometry":{"type":"Point","coordinates":[16.517673,49.5068247]},"properties":{"disused:amenity":"telephone","operator":"O2"}},
{"type":"Feature","geometry":{"type":"Point","coordinates":[18.3390003,49.680826]},"properties":{"disused:amenity":"telephone"}},
{"type":"Feature","geometry":{"type":"Point","coordinates":[15.0421202,49.4162972]},"properties":{"amenity":"telephone","operator":"O2"}},
{"type":"Feature","geometry":{"type":"Point","coordinates":[16.1859027,49.5797783]},"properties":{"disused:amenity":"telephone","operator":"O2"}},
{"type":"Feature","geometry":{"type":"Point","coordinates":[16.0348293,49.7115091]},"properties":{"disused:amenity":"telephone","operator":"O2"}},
{"type":"Feature","geometry":{"type":"Point","coordinates":[17.0983233,50.308882]},"properties":{"disused:amenity":"telephone"}},
{"type":"Feature","geometry":{"type":"Point","coordinates":[14.559455,50.0479461]},"properties":{"amenity":"telephone"}},
{"type":"Feature","geometry":{"type":"Point","coordinates":[16.9632728,49.968558]},"properties":{"disused:amenity":"telephone"}},
{"type":"Feature","geometry":{"type":"Point","coordinates":[13.3628371,49.7266086]},"properties":{"source":"survey","amenity":"telephone"}},
{"type":"Feature","geometry":{"type":"Point","coordinates":[16.0481732,48.859302]},"properties":{"disused:amenity":"telephone"}},
{"type":"Feature","geometry":{"type":"Point","coordinates":[15.6646307,49.9480885]},"properties":{"disused:amenity":"telephone","operator":"O2","payment:coins":"yes","payment:telephone_cards":"yes","wheelchair":"yes"}},
{"type":"Feature","geometry":{"type":"Point","coordinates":[18.1859618,49.8963077]},"properties":{"disused:amenity":"telephone"}},
{"type":"Feature","geometry":{"type":"Point","coordinates":[18.187388,49.8972643]},"properties":{"disused:amenity":"telephone"}},
{"type":"Feature","geometry":{"type":"Point","coordinates":[17.4236363,49.0760117]},"properties":{"disused:amenity":"telephone","source":"survey"}},
{"type":"Feature","geometry":{"type":"Point","coordinates":[18.4316553,49.4683043]},"properties":{"disused:amenity":"telephone"}},
{"type":"Feature","geometry":{"type":"Point","coordinates":[15.4628719,49.1834316]},"properties":{"disused:amenity":"telephone"}},
{"type":"Feature","geometry":{"type":"Point","coordinates":[16.6393158,48.8075957]},"properties":{"disused:amenity":"telephone","source":"survey"}},
{"type":"Feature","geometry":{"type":"Point","coordinates":[13.4985395,49.0238182]},"properties":{"amenity":"telephone"}},
{"type":"Feature","geometry":{"type":"Point","coordinates":[13.65971,48.9899745]},"properties":{"phone":"+420 388434101","amenity":"telephone"}},
{"type":"Feature","geometry":{"type":"Point","coordinates":[17.246738,49.5969381]},"properties":{"disused:amenity":"telephone","operator":"O2"}},
{"type":"Feature","geometry":{"type":"Point","coordinates":[13.0019594,50.3456321]},"properties":{"disused:amenity":"telephone"}},
{"type":"Feature","geometry":{"type":"Point","coordinates":[13.4344097,49.2687572]},"properties":{"phone":"376594901","amenity":"telephone"}},
{"type":"Feature","geometry":{"type":"Point","coordinates":[15.669653,49.7177823]},"properties":{"disused:amenity":"telephone"}},
{"type":"Feature","geometry":{"type":"Point","coordinates":[18.2565679,49.7775372]},"properties":{"disused:amenity":"telephone"}},
{"type":"Feature","geometry":{"type":"Point","coordinates":[18.2313505,49.8000418]},"properties":{"disused:amenity":"telephone"}},
{"type":"Feature","geometry":{"type":"Point","coordinates":[18.2507458,49.7798677]},"properties":{"disused:amenity":"telephone"}},
{"type":"Feature","geometry":{"type":"Point","coordinates":[18.2602065,49.7844524]},"properties":{"disused:amenity":"telephone"}},
{"type":"Feature","geometry":{"type":"Point","coordinates":[18.2504734,49.7811915]},"properties":{"disused:amenity":"telephone"}},
{"type":"Feature","geometry":{"type":"Point","coordinates":[18.2537501,49.7847424]},"properties":{"disused:amenity":"telephone"}},
{"type":"Feature","geometry":{"type":"Point","coordinates":[18.2588511,49.7857033]},"properties":{"disused:amenity":"telephone"}},
{"type":"Feature","geometry":{"type":"Point","coordinates":[18.2582169,49.7866908]},"properties":{"disused:amenity":"telephone","operator":"O2"}},
{"type":"Feature","geometry":{"type":"Point","coordinates":[18.2562252,49.7877392]},"properties":{"disused:amenity":"telephone"}},
{"type":"Feature","geometry":{"type":"Point","coordinates":[18.2562296,49.7877244]},"properties":{"disused:amenity":"telephone"}},
{"type":"Feature","geometry":{"type":"Point","coordinates":[18.258104,49.7788203]},"properties":{"disused:amenity":"telephone"}},
{"type":"Feature","geometry":{"type":"Point","coordinates":[18.2577165,49.7806347]},"properties":{"disused:amenity":"telephone"}},
{"type":"Feature","geometry":{"type":"Point","coordinates":[18.264533,49.7863471]},"properties":{"disused:amenity":"telephone"}},
{"type":"Feature","geometry":{"type":"Point","coordinates":[18.2703503,49.7903885]},"properties":{"disused:amenity":"telephone"}},
{"type":"Feature","geometry":{"type":"Point","coordinates":[18.2498063,49.7929897]},"properties":{"disused:amenity":"telephone"}},
{"type":"Feature","geometry":{"type":"Point","coordinates":[18.2487971,49.792021]},"properties":{"disused:amenity":"telephone"}},
{"type":"Feature","geometry":{"type":"Point","coordinates":[18.2472157,49.7916231]},"properties":{"disused:amenity":"telephone"}},
{"type":"Feature","geometry":{"type":"Point","coordinates":[18.2379158,49.7922839]},"properties":{"disused:amenity":"telephone"}},
{"type":"Feature","geometry":{"type":"Point","coordinates":[14.7001197,49.3770321]},"properties":{"amenity":"telephone"}},
{"type":"Feature","geometry":{"type":"Point","coordinates":[14.6755636,49.4140971]},"properties":{"source":"local knowledge","amenity":"telephone"}},
{"type":"Feature","geometry":{"type":"Point","coordinates":[16.6530886,49.1358178]},"properties":{"disused:amenity":"telephone","operator":"O2","phone":"+420 545 219 156"}},
{"type":"Feature","geometry":{"type":"Point","coordinates":[17.338538,49.7052652]},"properties":{"disused:amenity":"telephone","operator":"O2"}},
{"type":"Feature","geometry":{"type":"Point","coordinates":[13.9972611,49.0124389]},"properties":{"disused:amenity":"telephone"}},
{"type":"Feature","geometry":{"type":"Point","coordinates":[14.0018485,49.0126087]},"properties":{"amenity":"telephone"}},
{"type":"Feature","geometry":{"type":"Point","coordinates":[16.7562611,48.7429822]},"properties":{"disused:amenity":"telephone"}},
{"type":"Feature","geometry":{"type":"Point","coordinates":[15.815416,50.2134191]},"properties":{"disused:amenity":"telephone"}},
{"type":"Feature","geometry":{"type":"Point","coordinates":[16.1601547,49.9509946]},"properties":{"disused:amenity":"telephone"}},
{"type":"Feature","geometry":{"type":"Point","coordinates":[14.9589374,50.1248438]},"properties":{"disused:amenity":"telephone"}},
{"type":"Feature","geometry":{"type":"Point","coordinates":[14.4202719,50.0677086]},"properties":{"amenity":"telephone"}},
{"type":"Feature","geometry":{"type":"Point","coordinates":[14.417264,50.0673943]},"properties":{"amenity":"telephone"}},
{"type":"Feature","geometry":{"type":"Point","coordinates":[15.7874468,49.9487032]},"properties":{"disused:amenity":"telephone"}},
{"type":"Feature","geometry":{"type":"Point","coordinates":[13.965109,50.5850836]},"properties":{"phone":"+420417872023","amenity":"telephone","operator":"O2"}},
{"type":"Feature","geometry":{"type":"Point","coordinates":[14.1337289,50.6146757]},"properties":{"phone":"+420472743042","amenity":"telephone","operator":"O2"}},
{"type":"Feature","geometry":{"type":"Point","coordinates":[13.5571722,50.6350306]},"properties":{"phone":"+420476116017","amenity":"telephone","operator":"O2"}},
{"type":"Feature","geometry":{"type":"Point","coordinates":[14.0915648,50.6859115]},"properties":{"phone":"+420475507045","amenity":"telephone","operator":"O2"}},
{"type":"Feature","geometry":{"type":"Point","coordinates":[13.6879469,50.7190603]},"properties":{"phone":"+420417878060","amenity":"telephone","operator":"O2"}},
{"type":"Feature","geometry":{"type":"Point","coordinates":[14.0479781,50.8059108]},"properties":{"phone":"+420475222611","amenity":"telephone","operator":"O2"}},
{"type":"Feature","geometry":{"type":"Point","coordinates":[14.3390258,49.4025541]},"properties":{"phone":"+420382589127","amenity":"telephone","operator":"O2"}},
{"type":"Feature","geometry":{"type":"Point","coordinates":[14.3234053,49.3933358]},"properties":{"phone":"+420382589145","amenity":"telephone","operator":"O2"}},
{"type":"Feature","geometry":{"type":"Point","coordinates":[12.4484153,50.0365653]},"properties":{"disused:amenity":"telephone","operator":"O2","phone":"+420354593184"}},
{"type":"Feature","geometry":{"type":"Point","coordinates":[12.8629323,50.0694961]},"properties":{"phone":"+420353999628","amenity":"telephone","operator":"O2"}},
{"type":"Feature","geometry":{"type":"Point","coordinates":[12.5218053,50.083633]},"properties":{"phone":"+420354595138","amenity":"telephone","operator":"O2"}},
{"type":"Feature","geometry":{"type":"Point","coordinates":[12.852307,50.1487083]},"properties":{"phone":"+420353972392","amenity":"telephone","operator":"O2"}},
{"type":"Feature","geometry":{"type":"Point","coordinates":[12.3715323,50.1962128]},"properties":{"phone":"+420354596099","amenity":"telephone","operator":"O2"}},
{"type":"Feature","geometry":{"type":"Point","coordinates":[12.2015287,50.2552133]},"properties":{"phone":"+420354527340","amenity":"telephone","operator":"O2"}},
{"type":"Feature","geometry":{"type":"Point","coordinates":[12.6971611,50.2766594]},"properties":{"phone":"+420352675733","amenity":"telephone","operator":"O2"}},
{"type":"Feature","geometry":{"type":"Point","coordinates":[12.9944499,49.5861257]},"properties":{"phone":"+420379493192","amenity":"telephone","operator":"O2"}},
{"type":"Feature","geometry":{"type":"Point","coordinates":[12.9286915,49.5979794]},"properties":{"disused:amenity":"telephone","operator":"O2","phone":"+420379493190"}},
{"type":"Feature","geometry":{"type":"Point","coordinates":[12.8356413,49.6139282]},"properties":{"phone":"+420379496550","amenity":"telephone","operator":"O2"}},
{"type":"Feature","geometry":{"type":"Point","coordinates":[12.9961585,49.6473202]},"properties":{"phone":"+420374695174","amenity":"telephone","operator":"O2"}},
{"type":"Feature","geometry":{"type":"Point","coordinates":[13.0412749,49.7642636]},"properties":{"phone":"+420374624583","amenity":"telephone","operator":"O2"}},
{"type":"Feature","geometry":{"type":"Point","coordinates":[12.85585,49.7722283]},"properties":{"phone":"+420374693203","amenity":"telephone","operator":"O2"}},
{"type":"Feature","geometry":{"type":"Point","coordinates":[13.0149211,49.7917175]},"properties":{"phone":"+420374624500","amenity":"telephone","operator":"O2"}},
{"type":"Feature","geometry":{"type":"Point","coordinates":[12.940599,49.8375819]},"properties":{"disused:amenity":"telephone","operator":"O2","phone":"+420374625750"}},
{"type":"Feature","geometry":{"type":"Point","coordinates":[13.2371727,49.8618697]},"properties":{"phone":"+420377915333","amenity":"telephone","operator":"O2"}},
{"type":"Feature","geometry":{"type":"Point","coordinates":[12.6039781,49.8891215]},"properties":{"phone":"+420374782462","amenity":"telephone","operator":"O2"}},
{"type":"Feature","geometry":{"type":"Point","coordinates":[12.7798921,49.9529253]},"properties":{"phone":"+420354627055","amenity":"telephone","operator":"O2"}},
{"type":"Feature","geometry":{"type":"Point","coordinates":[14.4396146,49.0511584]},"properties":{"amenity":"telephone"}},
{"type":"Feature","geometry":{"type":"Point","coordinates":[13.5223998,49.6399353]},"properties":{"phone":"+420377891102","amenity":"telephone","operator":"O2"}},
{"type":"Feature","geometry":{"type":"Point","coordinates":[13.6034115,49.6951607]},"properties":{"disused:amenity":"telephone","operator":"O2","phone":"+420371783048"}},
{"type":"Feature","geometry":{"type":"Point","coordinates":[13.5236757,49.7152689]},"properties":{"disused:amenity":"telephone","operator":"O2","phone":"+420377963530"}},
{"type":"Feature","geometry":{"type":"Point","coordinates":[13.5097857,49.7193512]},"properties":{"disused:amenity":"telephone","operator":"O2","phone":"+420377966900"}},
{"type":"Feature","geometry":{"type":"Point","coordinates":[13.6233403,49.7240084]},"properties":{"disused:amenity":"telephone","operator":"O2","phone":"+420371727300"}},
{"type":"Feature","geometry":{"type":"Point","coordinates":[13.5148823,49.7473897]},"properties":{"disused:amenity":"telephone","operator":"O2","phone":"+420371724918"}},
{"type":"Feature","geometry":{"type":"Point","coordinates":[13.4870321,49.7522752]},"properties":{"disused:amenity":"telephone","operator":"O2","phone":"+420377945548"}},
{"type":"Feature","geometry":{"type":"Point","coordinates":[13.4923115,49.7777469]},"properties":{"disused:amenity":"telephone","operator":"O2","phone":"+420377945551"}},
{"type":"Feature","geometry":{"type":"Point","coordinates":[14.3669603,48.6549525]},"properties":{"phone":"+420380749848","amenity":"telephone","operator":"O2"}},
{"type":"Feature","geometry":{"type":"Point","coordinates":[14.3889532,48.7009287]},"properties":{"phone":"+420380327165","amenity":"telephone","operator":"O2"}},
{"type":"Feature","geometry":{"type":"Point","coordinates":[14.1077686,48.7379156]},"properties":{"phone":"+420380744220","amenity":"telephone","operator":"O2"}},
{"type":"Feature","geometry":{"type":"Point","coordinates":[14.4674192,48.774855]},"properties":{"phone":"+420380321156","amenity":"telephone","operator":"O2"}},
{"type":"Feature","geometry":{"type":"Point","coordinates":[14.4106046,48.8543353]},"properties":{"phone":"+420380743792","amenity":"telephone","operator":"O2"}},
{"type":"Feature","geometry":{"type":"Point","coordinates":[14.948282,49.3099411]},"properties":{"phone":"+420565436803","amenity":"telephone","operator":"O2"}},
{"type":"Feature","geometry":{"type":"Point","coordinates":[14.9069905,49.0692069]},"properties":{"phone":"+420384389180","amenity":"telephone","operator":"O2"}},
{"type":"Feature","geometry":{"type":"Point","coordinates":[14.9700404,49.0743139]},"properties":{"phone":"+420384380178","amenity":"telephone","operator":"O2"}},
{"type":"Feature","geometry":{"type":"Point","coordinates":[15.0572117,49.1712461]},"properties":{"phone":"+420384396481","amenity":"telephone","operator":"O2"}},
{"type":"Feature","geometry":{"type":"Point","coordinates":[15.0662412,49.1896786]},"properties":{"phone":"+420384396397","amenity":"telephone","operator":"O2"}},
{"type":"Feature","geometry":{"type":"Point","coordinates":[18.0551864,49.4585213]},"properties":{"disused:amenity":"telephone","operator":"O2","phone":"+420571634420"}},
{"type":"Feature","geometry":{"type":"Point","coordinates":[14.6842144,48.9698718]},"properties":{"amenity":"telephone"}},
{"type":"Feature","geometry":{"type":"Point","coordinates":[16.8518008,48.834236]},"properties":{"covered":"booth","disused:amenity":"telephone"}},
{"type":"Feature","geometry":{"type":"Point","coordinates":[15.8109773,50.2137221]},"properties":{"disused:amenity":"telephone"}},
{"type":"Feature","geometry":{"type":"Point","coordinates":[15.8110661,50.2137135]},"properties":{"disused:amenity":"telephone"}},
{"type":"Feature","geometry":{"type":"Point","coordinates":[15.8154234,50.2134316]},"properties":{"disused:amenity":"telephone"}},
{"type":"Feature","geometry":{"type":"Point","coordinates":[12.8825077,50.2220043]},"properties":{"disused:amenity":"telephone"}},
{"type":"Feature","geometry":{"type":"Point","coordinates":[12.8825284,50.2220177]},"properties":{"disused:amenity":"telephone"}},
{"type":"Feature","geometry":{"type":"Point","coordinates":[15.7919296,49.947507]},"properties":{"disused:amenity":"telephone","operator":"O2"}},
{"type":"Feature","geometry":{"type":"Point","coordinates":[15.7923665,49.9484783]},"properties":{"disused:amenity":"telephone","operator":"O2"}},
{"type":"Feature","geometry":{"type":"Point","coordinates":[16.9806916,49.2772121]},"properties":{"disused:amenity":"telephone"}},
{"type":"Feature","geometry":{"type":"Point","coordinates":[18.1320353,49.7865356]},"properties":{"disused:amenity":"telephone","operator":"O2"}},
{"type":"Feature","geometry":{"type":"Point","coordinates":[13.9080186,49.8385877]},"properties":{"disused:amenity":"telephone","name":"O2"}},
{"type":"Feature","geometry":{"type":"Point","coordinates":[16.3768748,49.1568952]},"properties":{"disused:amenity":"telephone","operator":"O2","phone":"+420546410118"}},
{"type":"Feature","geometry":{"type":"Point","coordinates":[16.4096624,49.2106961]},"properties":{"disused:amenity":"telephone","operator":"O2","phone":"+420546427201"}},
{"type":"Feature","geometry":{"type":"Point","coordinates":[16.5018507,49.2933228]},"properties":{"disused:amenity":"telephone","operator":"O2","phone":"+420541231680"}},
{"type":"Feature","geometry":{"type":"Point","coordinates":[14.0373716,49.4300409]},"properties":{"phone":"+420382229390","amenity":"telephone","operator":"O2"}},
{"type":"Feature","geometry":{"type":"Point","coordinates":[16.6077733,49.0513556]},"properties":{"disused:amenity":"telephone","operator":"O2","phone":"+420547231072"}},
{"type":"Feature","geometry":{"type":"Point","coordinates":[16.5676411,48.8195149]},"properties":{"disused:amenity":"telephone","operator":"O2","phone":"+420519514220"}},
{"type":"Feature","geometry":{"type":"Point","coordinates":[16.5945196,48.852182]},"properties":{"disused:amenity":"telephone","operator":"O2","phone":"+420519517300"}},
{"type":"Feature","geometry":{"type":"Point","coordinates":[16.8036059,48.7998698]},"properties":{"disused:amenity":"telephone","operator":"O2"}},
{"type":"Feature","geometry":{"type":"Point","coordinates":[17.4425417,50.1074062]},"properties":{"disused:amenity":"telephone","operator":"O2","phone":"+420554744084"}},
{"type":"Feature","geometry":{"type":"Point","coordinates":[17.3419414,50.1077325]},"properties":{"disused:amenity":"telephone","operator":"O2","phone":"+420554751449"}},
{"type":"Feature","geometry":{"type":"Point","coordinates":[17.7142683,50.2746656]},"properties":{"disused:amenity":"telephone","operator":"O2","phone":"+420554642099"}},
{"type":"Feature","geometry":{"type":"Point","coordinates":[17.5481472,49.8337819]},"properties":{"disused:amenity":"telephone","operator":"O2","phone":"+420554745285"}},
{"type":"Feature","geometry":{"type":"Point","coordinates":[17.3587119,49.87502]},"properties":{"disused:amenity":"telephone","operator":"O2","phone":"+420554286002"}},
{"type":"Feature","geometry":{"type":"Point","coordinates":[17.3727632,49.9131408]},"properties":{"disused:amenity":"telephone","operator":"O2"}},
{"type":"Feature","geometry":{"type":"Point","coordinates":[17.6678867,49.7962274]},"properties":{"disused:amenity":"telephone","operator":"O2","phone":"+420556305203"}},
{"type":"Feature","geometry":{"type":"Point","coordinates":[17.7658825,49.7091164]},"properties":{"phone":"+420556748292","amenity":"telephone","operator":"O2"}},
{"type":"Feature","geometry":{"type":"Point","coordinates":[17.2843262,49.2491865]},"properties":{"disused:amenity":"telephone","operator":"O2","phone":"+420573369237"}},
{"type":"Feature","geometry":{"type":"Point","coordinates":[18.0534271,49.108467]},"properties":{"disused:amenity":"telephone","operator":"O2","phone":"+420577335413"}},
{"type":"Feature","geometry":{"type":"Point","coordinates":[18.0640467,49.1115572]},"properties":{"disused:amenity":"telephone","operator":"O2","phone":"+420577335414"}},
{"type":"Feature","geometry":{"type":"Point","coordinates":[18.0795958,49.1213763]},"properties":{"disused:amenity":"telephone","operator":"O2","phone":"+420577335412"}},
{"type":"Feature","geometry":{"type":"Point","coordinates":[14.9876344,49.5877956]},"properties":{"disused:amenity":"telephone","operator":"O2","phone":"+420565443885"}},
{"type":"Feature","geometry":{"type":"Point","coordinates":[18.1734813,49.8227649]},"properties":{"disused:amenity":"telephone"}},
{"type":"Feature","geometry":{"type":"Point","coordinates":[18.1761417,49.8293554]},"properties":{"disused:amenity":"telephone"}},
{"type":"Feature","geometry":{"type":"Point","coordinates":[14.4773008,50.128418]},"properties":{"disused:amenity":"telephone"}},
{"type":"Feature","geometry":{"type":"Point","coordinates":[14.3874465,50.2320556]},"properties":{"disused:amenity":"telephone"}},
{"type":"Feature","geometry":{"type":"Point","coordinates":[16.0008686,49.2241752]},"properties":{"disused:amenity":"telephone"}},
{"type":"Feature","geometry":{"type":"Point","coordinates":[15.3901099,49.0309166]},"properties":{"disused:amenity":"telephone","operator":"O2"}},
{"type":"Feature","geometry":{"type":"Point","coordinates":[16.6635299,48.9290933]},"properties":{"disused:amenity":"telephone","operator":"cz:O2"}},
{"type":"Feature","geometry":{"type":"Point","coordinates":[16.6547853,48.9677827]},"properties":{"disused:amenity":"telephone","operator":"cz:O2"}},
{"type":"Feature","geometry":{"type":"Point","coordinates":[16.6374922,48.8050802]},"properties":{"disused:amenity":"telephone"}},
{"type":"Feature","geometry":{"type":"Point","coordinates":[13.6460118,49.0387982]},"properties":{"amenity":"telephone"}},
{"type":"Feature","geometry":{"type":"Point","coordinates":[13.9031037,49.8356771]},"properties":{"disused:amenity":"telephone","operator":"O2"}},
{"type":"Feature","geometry":{"type":"Point","coordinates":[13.2794438,50.2623067]},"properties":{"disused:amenity":"telephone"}},
{"type":"Feature","geometry":{"type":"Point","coordinates":[15.9371667,49.5797693]},"properties":{"disused:amenity":"telephone"}},
{"type":"Feature","geometry":{"type":"Point","coordinates":[13.393722,49.7408923]},"properties":{"source":"survey","amenity":"telephone"}},
{"type":"Feature","geometry":{"type":"Point","coordinates":[18.1295855,49.461955]},"properties":{"disused:amenity":"telephone"}},
{"type":"Feature","geometry":{"type":"Point","coordinates":[14.4321424,49.8868966]},"properties":{"disused:amenity":"telephone"}},
{"type":"Feature","geometry":{"type":"Point","coordinates":[14.4729877,50.1142231]},"properties":{"amenity":"telephone"}},
{"type":"Feature","geometry":{"type":"Point","coordinates":[14.3349485,50.1615551]},"properties":{"disused:amenity":"telephone"}},
{"type":"Feature","geometry":{"type":"Point","coordinates":[15.8396912,49.9192729]},"properties":{"disused:amenity":"telephone"}},
{"type":"Feature","geometry":{"type":"Point","coordinates":[13.3648937,49.7681102]},"properties":{"source":"survey","amenity":"telephone"}},
{"type":"Feature","geometry":{"type":"Point","coordinates":[14.0930979,50.1433803]},"properties":{"disused:amenity":"telephone","source":"survey"}},
{"type":"Feature","geometry":{"type":"Point","coordinates":[18.3956171,49.5805978]},"properties":{"disused:amenity":"telephone"}},
{"type":"Feature","geometry":{"type":"Point","coordinates":[17.9551423,49.0686351]},"properties":{"disused:amenity":"telephone"}},
{"type":"Feature","geometry":{"type":"Point","coordinates":[14.454333,50.241785900000007]},"properties":{"disused:amenity":"telephone"}},
{"type":"Feature","geometry":{"type":"Point","coordinates":[18.0897336,50.0042318]},"properties":{"disused:amenity":"telephone"}},
{"type":"Feature","geometry":{"type":"Point","coordinates":[14.4788942,50.2259544]},"properties":{"disused:amenity":"telephone"}},
{"type":"Feature","geometry":{"type":"Point","coordinates":[14.1335899,49.9688706]},"properties":{"amenity":"telephone"}},
{"type":"Feature","geometry":{"type":"Point","coordinates":[17.1404766,49.4154714]},"properties":{"disused:amenity":"telephone"}},
{"type":"Feature","geometry":{"type":"Point","coordinates":[14.419501,49.2237121]},"properties":{"amenity":"telephone","payment:coins":"yes","payment:telephone_cards":"yes"}},
{"type":"Feature","geometry":{"type":"Point","coordinates":[18.3872362,49.8301804]},"properties":{"disused:amenity":"telephone","operator":"O2","payment:notes":"no"}},
{"type":"Feature","geometry":{"type":"Point","coordinates":[16.7436918,49.1520541]},"properties":{"disused:amenity":"telephone"}},
{"type":"Feature","geometry":{"type":"Point","coordinates":[16.9471244,50.0454155]},"properties":{"disused:amenity":"telephone"}},
{"type":"Feature","geometry":{"type":"Point","coordinates":[17.2067776,50.2270052]},"properties":{"disused:amenity":"telephone"}},
{"type":"Feature","geometry":{"type":"Point","coordinates":[17.8800912,48.9800273]},"properties":{"phone":"572696202","amenity":"telephone"}},
{"type":"Feature","geometry":{"type":"Point","coordinates":[14.4062266,48.834626]},"properties":{"amenity":"telephone","operator":"O2 a.s.","payment:coins":"yes","payment:telephone_cards":"yes"}},
{"type":"Feature","geometry":{"type":"Point","coordinates":[13.9965577,49.8321774]},"properties":{"disused:amenity":"telephone"}},
{"type":"Feature","geometry":{"type":"Point","coordinates":[17.0111831,50.1522879]},"properties":{"disused:amenity":"telephone","operator":"cz:O2"}},
{"type":"Feature","geometry":{"type":"Point","coordinates":[14.9374899,49.0513472]},"properties":{"phone":"+420 384 389 488","amenity":"telephone","covered":"yes","operator":"O2","payment:coins":"no","payment:telephone_cards":"yes"}},
{"type":"Feature","geometry":{"type":"Point","coordinates":[18.4336908,49.6484159]},"properties":{"disused:amenity":"telephone","payment:telephone_cards":"yes"}},
{"type":"Feature","geometry":{"type":"Point","coordinates":[16.5459875,49.4073083]},"properties":{"disused:amenity":"telephone","operator":"cz:O2"}},
{"type":"Feature","geometry":{"type":"Point","coordinates":[14.9335191,48.8787405]},"properties":{"amenity":"telephone","operator":"O2"}},
{"type":"Feature","geometry":{"type":"Point","coordinates":[17.6189792,49.5166218]},"properties":{"disused:amenity":"telephone","operator":"O2","payment:coins":"yes","payment:telephone_cards":"yes"}},
{"type":"Feature","geometry":{"type":"Point","coordinates":[14.4590457,50.1200003]},"properties":{"was:amenity":"telephone"}},
{"type":"Feature","geometry":{"type":"Point","coordinates":[15.0882927,50.0042193]},"properties":{"disused:amenity":"telephone"}},
{"type":"Feature","geometry":{"type":"Point","coordinates":[17.1395226,49.4014675]},"properties":{"disused:amenity":"telephone"}},
{"type":"Feature","geometry":{"type":"Point","coordinates":[14.4615916,50.0784421]},"properties":{"note":"dva telefonní automaty vedle sebe","level":"2","operator":"Telefónica O2","disused:amenity":"telephone"}},
{"type":"Feature","geometry":{"type":"Point","coordinates":[17.1745959,49.43258]},"properties":{"disused:amenity":"telephone"}},
{"type":"Feature","geometry":{"type":"Point","coordinates":[14.2674566,48.9910571]},"properties":{"amenity":"telephone","payment:coins":"yes"}},
{"type":"Feature","geometry":{"type":"Point","coordinates":[17.4391066,49.6694684]},"properties":{"amenity":"telephone","operator":"O2"}},
{"type":"Feature","geometry":{"type":"Point","coordinates":[15.1190441,50.1430498]},"properties":{"disused:amenity":"telephone"}},
{"type":"Feature","geometry":{"type":"Point","coordinates":[17.1839004,49.3845699]},"properties":{"disused:amenity":"telephone"}},
{"type":"Feature","geometry":{"type":"Point","coordinates":[14.1010194,50.1363913]},"properties":{"disused:amenity":"telephone"}},
{"type":"Feature","geometry":{"type":"Point","coordinates":[17.6519821,49.4783757]},"properties":{"disused:amenity":"telephone"}},
{"type":"Feature","geometry":{"type":"Point","coordinates":[17.6843507,49.2846384]},"properties":{"disused:amenity":"telephone"}},
{"type":"Feature","geometry":{"type":"Point","coordinates":[15.1930025,50.0235003]},"properties":{"disused:amenity":"telephone"}},
{"type":"Feature","geometry":{"type":"Point","coordinates":[15.1980334,50.0238661]},"properties":{"disused:amenity":"telephone"}},
{"type":"Feature","geometry":{"type":"Point","coordinates":[14.3502012,50.093542]},"properties":{"amenity":"telephone"}},
{"type":"Feature","geometry":{"type":"Point","coordinates":[17.2508694,49.4241527]},"properties":{"disused:amenity":"telephone"}},
{"type":"Feature","geometry":{"type":"Point","coordinates":[15.4581683,49.5630543]},"properties":{"disused:amenity":"telephone"}},
{"type":"Feature","geometry":{"type":"Point","coordinates":[14.9475026,49.4244326]},"properties":{"disused:amenity":"telephone"}},
{"type":"Feature","geometry":{"type":"Point","coordinates":[18.1859718,49.6672565]},"properties":{"disused:amenity":"telephone","end_date":"2019","phone":"556729101"}},
{"type":"Feature","geometry":{"type":"Point","coordinates":[16.687824,49.1786679]},"properties":{"disused:amenity":"telephone","operator":"O2"}},
{"type":"Feature","geometry":{"type":"Point","coordinates":[14.445054,50.0914524]},"properties":{"phone":"224816959","amenity":"telephone","operator":"O2"}},
{"type":"Feature","geometry":{"type":"Point","coordinates":[13.5984998,49.7424407]},"properties":{"disused:amenity":"telephone","operator":"O2","payment:coins":"yes"}},
{"type":"Feature","geometry":{"type":"Point","coordinates":[18.0930403,49.8994553]},"properties":{"disused:amenity":"telephone","operator":"O2"}},
{"type":"Feature","geometry":{"type":"Point","coordinates":[15.7940404,49.9510578]},"properties":{"disused:amenity":"telephone"}},
{"type":"Feature","geometry":{"type":"Point","coordinates":[17.6831817,49.8318539]},"properties":{"disused:amenity":"telephone","operator":"O2"}},
{"type":"Feature","geometry":{"type":"Point","coordinates":[18.3546935,49.5891113]},"properties":{"disused:amenity":"telephone","location":"indoor","operator":"cz:O2"}},
{"type":"Feature","geometry":{"type":"Point","coordinates":[13.4811403,49.0870995]},"properties":{"amenity":"telephone"}},
{"type":"Feature","geometry":{"type":"Point","coordinates":[15.2041917,50.0238231]},"properties":{"disused:amenity":"telephone"}},
{"type":"Feature","geometry":{"type":"Point","coordinates":[16.6230759,49.1751087]},"properties":{"disused:amenity":"telephone"}},
{"type":"Feature","geometry":{"type":"Point","coordinates":[17.1807662,49.4624477]},"properties":{"disused:amenity":"telephone"}},
{"type":"Feature","geometry":{"type":"Point","coordinates":[17.1930055,49.4500735]},"properties":{"disused:amenity":"telephone"}},
{"type":"Feature","geometry":{"type":"Point","coordinates":[14.2637173,49.0682204]},"properties":{"amenity":"telephone"}},
{"type":"Feature","geometry":{"type":"Point","coordinates":[14.3349142,49.0031977]},"properties":{"source":"survey","amenity":"telephone"}},
{"type":"Feature","geometry":{"type":"Point","coordinates":[14.4865235,50.0225273]},"properties":{"amenity":"telephone"}},
{"type":"Feature","geometry":{"type":"Point","coordinates":[14.4343679,50.0873047]},"properties":{"level":"0","amenity":"telephone"}},
{"type":"Feature","geometry":{"type":"Point","coordinates":[17.722592,49.7041929]},"properties":{"disused:amenity":"telephone"}},
{"type":"Feature","geometry":{"type":"Point","coordinates":[14.4086218,50.0617564]},"properties":{"level":"0","amenity":"telephone"}},
{"type":"Feature","geometry":{"type":"Point","coordinates":[14.4086211,50.0617604]},"properties":{"level":"0","amenity":"telephone"}},
{"type":"Feature","geometry":{"type":"Point","coordinates":[14.398093,50.320741]},"properties":{"disused:amenity":"telephone"}},
{"type":"Feature","geometry":{"type":"Point","coordinates":[13.1602846,49.2150369]},"properties":{"amenity":"telephone","operator":"Telefónica O2"}},
{"type":"Feature","geometry":{"type":"Point","coordinates":[18.1903496,49.9780351]},"properties":{"disused:amenity":"telephone","operator":"O2","payment:telephone_cards":"yes"}},
{"type":"Feature","geometry":{"type":"Point","coordinates":[16.619955,49.6511583]},"properties":{"disused:amenity":"telephone"}},
{"type":"Feature","geometry":{"type":"Point","coordinates":[16.6447206,49.6378047]},"properties":{"disused:amenity":"telephone","operator":"O2","phone":"461325003"}},
{"type":"Feature","geometry":{"type":"Point","coordinates":[16.7378486,48.9397262]},"properties":{"disused:amenity":"telephone"}},
{"type":"Feature","geometry":{"type":"Point","coordinates":[17.7727336,49.5323471]},"properties":{"disused:amenity":"telephone"}},
{"type":"Feature","geometry":{"type":"Point","coordinates":[13.9832899,49.5380426]},"properties":{"amenity":"telephone"}},
{"type":"Feature","geometry":{"type":"Point","coordinates":[14.5941695,49.2503012]},"properties":{"amenity":"telephone"}},
{"type":"Feature","geometry":{"type":"Point","coordinates":[14.4299326,50.079927]},"properties":{"amenity":"telephone","operator":"Telefónica O2"}},
{"type":"Feature","geometry":{"type":"Point","coordinates":[14.4301544,50.0794937]},"properties":{"amenity":"telephone","operator":"Telefónica O2"}},
{"type":"Feature","geometry":{"type":"Point","coordinates":[16.1927213,49.2925545]},"properties":{"disused:amenity":"telephone"}},
{"type":"Feature","geometry":{"type":"Point","coordinates":[18.0682545,50.0310679]},"properties":{"disused:amenity":"telephone","operator":"O2","payment:telephone_cards":"yes"}},
{"type":"Feature","geometry":{"type":"Point","coordinates":[18.0259171,50.0452447]},"properties":{"disused:amenity":"telephone","operator":"O2","payment:telephone_cards":"yes"}},
{"type":"Feature","geometry":{"type":"Point","coordinates":[18.0715116,50.0155549]},"properties":{"disused:amenity":"telephone","operator":"O2","payment:telephone_cards":"yes"}},
{"type":"Feature","geometry":{"type":"Point","coordinates":[18.0501985,49.9839868]},"properties":{"disused:amenity":"telephone","operator":"O2"}},
{"type":"Feature","geometry":{"type":"Point","coordinates":[12.9998927,50.2624704]},"properties":{"disused:amenity":"telephone"}},
{"type":"Feature","geometry":{"type":"Point","coordinates":[16.300007,49.1628406]},"properties":{"disused:amenity":"telephone","phone":"546450388"}},
{"type":"Feature","geometry":{"type":"Point","coordinates":[17.6934748,49.5489688]},"properties":{"covered":"yes","disused:amenity":"telephone","operator":"O2"}},
{"type":"Feature","geometry":{"type":"Point","coordinates":[14.6706624,48.7796604]},"properties":{"amenity":"telephone","operator":"O2","payment:coins":"yes","payment:telephone_cards":"yes"}},
{"type":"Feature","geometry":{"type":"Point","coordinates":[13.3897328,49.7357967]},"properties":{"source":"survey","amenity":"telephone","payment:coins":"yes"}},
{"type":"Feature","geometry":{"type":"Point","coordinates":[16.9807046,48.8285448]},"properties":{"disused:amenity":"telephone"}},
{"type":"Feature","geometry":{"type":"Point","coordinates":[13.3687778,50.2539469]},"properties":{"disused:amenity":"telephone"}},
{"type":"Feature","geometry":{"type":"Point","coordinates":[18.041197,49.8321597]},"properties":{"disused:amenity":"telephone","operator":"O2"}},
{"type":"Feature","geometry":{"type":"Point","coordinates":[13.5069078,50.4574489]},"properties":{"disused:amenity":"telephone","operator":"O2","phone":"+420474685164"}},
{"type":"Feature","geometry":{"type":"Point","coordinates":[12.8388177,50.0839183]},"properties":{"disused:amenity":"telephone"}},
{"type":"Feature","geometry":{"type":"Point","coordinates":[14.1857209,50.0431758]},"properties":{"disused:amenity":"telephone"}},
{"type":"Feature","geometry":{"type":"Point","coordinates":[14.4552069,50.0937477]},"properties":{"source":"survey","amenity":"telephone","operator":"O2","payment:coins":"yes","payment:telephone_cards":"yes"}},
{"type":"Feature","geometry":{"type":"Point","coordinates":[18.4891125,49.6098848]},"properties":{"disused:amenity":"telephone","operator":"O2","payment:coins":"yes"}},
{"type":"Feature","geometry":{"type":"Point","coordinates":[15.5072826,49.5649658]},"properties":{"disused:amenity":"telephone","source":"survey"}},
{"type":"Feature","geometry":{"type":"Point","coordinates":[13.1979959,49.1195947]},"properties":{"amenity":"telephone"}},
{"type":"Feature","geometry":{"type":"Point","coordinates":[14.6749152,50.1960403]},"properties":{"phone":"+420 326 911 750","historic:amenity":"telephone"}},
{"type":"Feature","geometry":{"type":"Point","coordinates":[14.3704256,49.872678]},"properties":{"disused:amenity":"telephone"}},
{"type":"Feature","geometry":{"type":"Point","coordinates":[18.4367096,49.7730113]},"properties":{"disused:amenity":"telephone"}},
{"type":"Feature","geometry":{"type":"Point","coordinates":[17.6778462,49.428335]},"properties":{"disused:amenity":"telephone"}},
{"type":"Feature","geometry":{"type":"Point","coordinates":[17.5487219,49.412421]},"properties":{"disused:amenity":"telephone"}},
{"type":"Feature","geometry":{"type":"Point","coordinates":[16.7584876,49.1667035]},"properties":{"disused:amenity":"telephone"}},
{"type":"Feature","geometry":{"type":"Point","coordinates":[14.3965634,50.2967182]},"properties":{"disused:amenity":"telephone"}},
{"type":"Feature","geometry":{"type":"Point","coordinates":[17.9947639,49.9892208]},"properties":{"disused:amenity":"telephone","operator":"O2"}},
{"type":"Feature","geometry":{"type":"Point","coordinates":[15.1420557,50.2138146]},"properties":{"disused:amenity":"telephone"}},
{"type":"Feature","geometry":{"type":"Point","coordinates":[16.9749436,49.7094425]},"properties":{"disused:amenity":"telephone"}},
{"type":"Feature","geometry":{"type":"Point","coordinates":[14.4408289,50.0705967]},"properties":{"historic:amenity":"telephone"}},
{"type":"Feature","geometry":{"type":"Point","coordinates":[17.0909942,49.4708204]},"properties":{"disused:amenity":"telephone"}},
{"type":"Feature","geometry":{"type":"Point","coordinates":[17.1932611,49.4106711]},"properties":{"disused:amenity":"telephone"}},
{"type":"Feature","geometry":{"type":"Point","coordinates":[17.3148501,50.0150759]},"properties":{"disused:amenity":"telephone"}},
{"type":"Feature","geometry":{"type":"Point","coordinates":[15.7991026,49.5083831]},"properties":{"disused:amenity":"telephone"}},
{"type":"Feature","geometry":{"type":"Point","coordinates":[16.6505219,49.6063725]},"properties":{"disused:amenity":"telephone"}},
{"type":"Feature","geometry":{"type":"Point","coordinates":[17.3896922,50.0603667]},"properties":{"disused:amenity":"telephone","phone":"554737202"}},
{"type":"Feature","geometry":{"type":"Point","coordinates":[17.1102899,49.4700308]},"properties":{"disused:amenity":"telephone"}},
{"type":"Feature","geometry":{"type":"Point","coordinates":[14.090284,50.1421108]},"properties":{"disused:amenity":"telephone","operator":"O2"}},
{"type":"Feature","geometry":{"type":"Point","coordinates":[15.2084291,50.0306873]},"properties":{"disused:amenity":"telephone"}},
{"type":"Feature","geometry":{"type":"Point","coordinates":[14.6852528,50.2623408]},"properties":{"phone":"+420326971182","operator":"O2","disused:amenity":"telephone"}},
{"type":"Feature","geometry":{"type":"Point","coordinates":[18.1414452,49.8800118]},"properties":{"disused:amenity":"telephone","operator":"O2"}},
{"type":"Feature","geometry":{"type":"Point","coordinates":[17.0037078,49.5833208]},"properties":{"disused:amenity":"telephone","operator":"O2"}},
{"type":"Feature","geometry":{"type":"Point","coordinates":[14.4793414,49.5026865]},"properties":{"phone":"+420381272125","amenity":"telephone","operator":"O2"}},
{"type":"Feature","geometry":{"type":"Point","coordinates":[14.2299248,49.1536486]},"properties":{"phone":"+420383381109","amenity":"telephone","operator":"O2"}},
{"type":"Feature","geometry":{"type":"Point","coordinates":[16.4004743,48.9847339]},"properties":{"disused:amenity":"telephone","operator":"O2","phone":"+420515336460"}},
{"type":"Feature","geometry":{"type":"Point","coordinates":[16.4285675,48.9618908]},"properties":{"disused:amenity":"telephone","operator":"O2","phone":"+420515336395"}},
{"type":"Feature","geometry":{"type":"Point","coordinates":[16.4839753,48.9339353]},"properties":{"disused:amenity":"telephone","operator":"O2","phone":"+420519424690"}},
{"type":"Feature","geometry":{"type":"Point","coordinates":[16.6594329,49.0106742]},"properties":{"disused:amenity":"telephone","operator":"O2","phone":"+420547231848"}},
{"type":"Feature","geometry":{"type":"Point","coordinates":[16.5003828,49.0230022]},"properties":{"disused:amenity":"telephone","operator":"O2","phone":"+420546421504"}},
{"type":"Feature","geometry":{"type":"Point","coordinates":[16.2982442,48.7719758]},"properties":{"disused:amenity":"telephone","operator":"O2","phone":"+420515275398"}},
{"type":"Feature","geometry":{"type":"Point","coordinates":[13.57247,49.8585819]},"properties":{"disused:amenity":"telephone","operator":"O2","phone":"+420371795214"}},
{"type":"Feature","geometry":{"type":"Point","coordinates":[13.1085549,49.4878292]},"properties":{"disused:amenity":"telephone","operator":"O2","phone":"+420379494560"}},
{"type":"Feature","geometry":{"type":"Point","coordinates":[13.4908756,49.3366186]},"properties":{"phone":"+420376396901","amenity":"telephone","operator":"O2"}},
{"type":"Feature","geometry":{"type":"Point","coordinates":[14.4986741,50.2375597]},"properties":{"disused:amenity":"telephone","operator":"O2","phone":"+420315682206"}},
{"type":"Feature","geometry":{"type":"Point","coordinates":[16.3427324,48.8702694]},"properties":{"disused:amenity":"telephone","operator":"O2","phone":"+420515277156"}},
{"type":"Feature","geometry":{"type":"Point","coordinates":[15.2950607,50.4123402]},"properties":{"phone":"+420493522153","amenity":"telephone","operator":"O2"}},
{"type":"Feature","geometry":{"type":"Point","coordinates":[15.4711183,50.3959336]},"properties":{"phone":"+420493597001","amenity":"telephone","operator":"O2"}},
{"type":"Feature","geometry":{"type":"Point","coordinates":[16.5762227,49.3348632]},"properties":{"disused:amenity":"telephone","operator":"cz:O2","payment:telephone_cards":"yes","phone":"+420 516 431 570"}},
{"type":"Feature","geometry":{"type":"Point","coordinates":[18.070818,49.598455]},"properties":{"disused:amenity":"telephone"}},
{"type":"Feature","geometry":{"type":"Point","coordinates":[18.2501357,49.7554996]},"properties":{"disused:amenity":"telephone"}},
{"type":"Feature","geometry":{"type":"Point","coordinates":[14.2245855,49.0919016]},"properties":{"amenity":"telephone"}},
{"type":"Feature","geometry":{"type":"Point","coordinates":[13.5640429,49.0541454]},"properties":{"amenity":"telephone"}},
{"type":"Feature","geometry":{"type":"Point","coordinates":[14.0541932,49.3644891]},"properties":{"amenity":"telephone","covered":"yes"}},
{"type":"Feature","geometry":{"type":"Point","coordinates":[17.4589191,49.0698012]},"properties":{"disused:amenity":"telephone","indoor":"no"}},
{"type":"Feature","geometry":{"type":"Point","coordinates":[17.7882593,49.6948599]},"properties":{"disused:amenity":"telephone"}},
{"type":"Feature","geometry":{"type":"Point","coordinates":[18.4524936,49.7758069]},"properties":{"disused:amenity":"telephone"}},
{"type":"Feature","geometry":{"type":"Point","coordinates":[14.6176107,49.1036859]},"properties":{"amenity":"telephone"}},
{"type":"Feature","geometry":{"type":"Point","coordinates":[15.5311091,49.2000301]},"properties":{"indoor":"yes","amenity":"telephone"}},
{"type":"Feature","geometry":{"type":"Point","coordinates":[14.4578145,50.1855858]},"properties":{"disused:amenity":"telephone"}},
{"type":"Feature","geometry":{"type":"Point","coordinates":[15.6120143,49.2139667]},"properties":{"amenity":"telephone"}},
{"type":"Feature","geometry":{"type":"Point","coordinates":[15.5766032,49.3343581]},"properties":{"disused:amenity":"telephone"}},
{"type":"Feature","geometry":{"type":"Point","coordinates":[17.6942486,49.8175948]},"properties":{"amenity":"telephone"}},
{"type":"Feature","geometry":{"type":"Point","coordinates":[13.3272049,49.5730101]},"properties":{"source":"survey","amenity":"telephone"}},
{"type":"Feature","geometry":{"type":"Point","coordinates":[14.6853648,49.3908284]},"properties":{"amenity":"telephone"}},
{"type":"Feature","geometry":{"type":"Point","coordinates":[15.394516,49.9150509]},"properties":{"disused:amenity":"telephone"}},
{"type":"Feature","geometry":{"type":"Point","coordinates":[14.2008611,50.7737275]},"properties":{"disused:amenity":"telephone"}},
{"type":"Feature","geometry":{"type":"Point","coordinates":[17.6688273,49.3034812]},"properties":{"disused:amenity":"telephone","operator":"O2"}},
{"type":"Feature","geometry":{"type":"Point","coordinates":[16.4254484,49.2473779]},"properties":{"disused:amenity":"telephone","phone":"549421401"}},
{"type":"Feature","geometry":{"type":"Point","coordinates":[17.4585483,49.446117]},"properties":{"covered":"yes","disused:amenity":"telephone","fee":"yes","operator":"O2"}},
{"type":"Feature","geometry":{"type":"Point","coordinates":[17.4501535,49.4459929]},"properties":{"disused:amenity":"telephone"}},
{"type":"Feature","geometry":{"type":"Point","coordinates":[15.2107269,50.022077]},"properties":{"disused:amenity":"telephone"}},
{"type":"Feature","geometry":{"type":"Point","coordinates":[13.8098265,49.4371727]},"properties":{"amenity":"telephone","covered":"booth"}},
{"type":"Feature","geometry":{"type":"Point","coordinates":[14.2405912,50.2352732]},"properties":{"disused:amenity":"telephone"}},
{"type":"Feature","geometry":{"type":"Point","coordinates":[14.2237578,50.1979625]},"properties":{"disused:amenity":"telephone"}},
{"type":"Feature","geometry":{"type":"Point","coordinates":[17.224329,49.596333]},"properties":{"disused:amenity":"telephone"}},
{"type":"Feature","geometry":{"type":"Point","coordinates":[17.2636212,50.3260684]},"properties":{"disused:amenity":"telephone","operator":"O2","phone":"+420584432085"}},
{"type":"Feature","geometry":{"type":"Point","coordinates":[17.1737242,49.277893]},"properties":{"disused:amenity":"telephone"}},
{"type":"Feature","geometry":{"type":"Point","coordinates":[16.5947167,49.1886826]},"properties":{"disused:amenity":"telephone"}},
{"type":"Feature","geometry":{"type":"Point","coordinates":[17.9670493,49.9587781]},"properties":{"disused:amenity":"telephone"}},
{"type":"Feature","geometry":{"type":"Point","coordinates":[16.0958891,49.4483805]},"properties":{"disused:amenity":"telephone","phone":"566673134"}},
{"type":"Feature","geometry":{"type":"Point","coordinates":[15.7652675,49.5495422]},"properties":{"amenity":"telephone","operator":"O2"}},
{"type":"Feature","geometry":{"type":"Point","coordinates":[14.2658588,49.0118037]},"properties":{"fee":"yes","sms":"yes","phone":"+420387982012","video":"no","indoor":"no","amenity":"telephone","covered":"yes","operator":"O2","wheelchair":"yes","source:date":"2020-05-03","payment:telephone_cards":"yes"}},
{"type":"Feature","geometry":{"type":"Point","coordinates":[16.3306008,49.241681]},"properties":{"disused:amenity":"telephone","phone":"546441399"}},
{"type":"Feature","geometry":{"type":"Point","coordinates":[17.3953445,50.26332]},"properties":{"disused:amenity":"telephone"}},
{"type":"Feature","geometry":{"type":"Point","coordinates":[17.6892033,49.9322824]},"properties":{"amenity":"telephone"}},
{"type":"Feature","geometry":{"type":"Point","coordinates":[15.3655814,49.4282671]},"properties":{"disused:amenity":"telephone","operator":"O2","phone":"+420565395297"}},
{"type":"Feature","geometry":{"type":"Point","coordinates":[14.3784358,50.2969389]},"properties":{"disused:amenity":"telephone","operator":"O2","phone":"+420315792100"}},
{"type":"Feature","geometry":{"type":"Point","coordinates":[16.2199737,49.1097465]},"properties":{"amenity":"telephone","covered":"booth"}},
{"type":"Feature","geometry":{"type":"Point","coordinates":[15.7690357,49.9154971]},"properties":{"disused:amenity":"telephone"}},
{"type":"Feature","geometry":{"type":"Point","coordinates":[13.6953152,49.9197345]},"properties":{"disused:amenity":"telephone","fee":"yes","operator":"O2","payment:coins":"yes"}},
{"type":"Feature","geometry":{"type":"Point","coordinates":[14.4239196,50.1336317]},"properties":{"disused:amenity":"telephone"}},
{"type":"Feature","geometry":{"type":"Point","coordinates":[15.8857814,48.9810569]},"properties":{"disused:amenity":"telephone","operator":"O2","phone":"+420515258312"}},
{"type":"Feature","geometry":{"type":"Point","coordinates":[15.5283454,49.8601268]},"properties":{"amenity":"telephone"}},
{"type":"Feature","geometry":{"type":"Point","coordinates":[17.3813506,49.2029824]},"properties":{"disused:amenity":"telephone"}},
{"type":"Feature","geometry":{"type":"Point","coordinates":[13.8459108,50.034697799999999]},"properties":{"disused:amenity":"telephone"}},
{"type":"Feature","geometry":{"type":"Point","coordinates":[14.9079261,50.1930617]},"properties":{"disused:amenity":"telephone"}},
{"type":"Feature","geometry":{"type":"Point","coordinates":[17.2628021,49.5966392]},"properties":{"disused:amenity":"telephone"}},
{"type":"Feature","geometry":{"type":"Point","coordinates":[13.8972804,49.8375467]},"properties":{"disused:amenity":"telephone"}},
{"type":"Feature","geometry":{"type":"Point","coordinates":[15.7438624,49.9825816]},"properties":{"disused:amenity":"telephone","operator":"Telefónica O2"}},
{"type":"Feature","geometry":{"type":"Point","coordinates":[13.4565756,49.2749694]},"properties":{"amenity":"telephone","covered":"booth"}},
{"type":"Feature","geometry":{"type":"Point","coordinates":[13.7065628,49.2486833]},"properties":{"amenity":"telephone","covered":"booth"}},
{"type":"Feature","geometry":{"type":"Point","coordinates":[13.612369,49.1731643]},"properties":{"amenity":"telephone","covered":"booth"}},
{"type":"Feature","geometry":{"type":"Point","coordinates":[13.7176283,49.271164]},"properties":{"amenity":"telephone","covered":"booth"}},
{"type":"Feature","geometry":{"type":"Point","coordinates":[13.6744219,49.2892124]},"properties":{"amenity":"telephone","covered":"booth"}},
{"type":"Feature","geometry":{"type":"Point","coordinates":[13.6194406,49.1244387]},"properties":{"amenity":"telephone","covered":"booth"}},
{"type":"Feature","geometry":{"type":"Point","coordinates":[13.5850279,49.283532]},"properties":{"amenity":"telephone","covered":"booth"}},
{"type":"Feature","geometry":{"type":"Point","coordinates":[13.7633083,49.2686711]},"properties":{"amenity":"telephone","covered":"booth"}},
{"type":"Feature","geometry":{"type":"Point","coordinates":[13.5967211,49.3229636]},"properties":{"amenity":"telephone","covered":"booth"}},
{"type":"Feature","geometry":{"type":"Point","coordinates":[13.3538269,49.3603531]},"properties":{"amenity":"telephone","covered":"booth"}},
{"type":"Feature","geometry":{"type":"Point","coordinates":[13.7027594,49.3639118]},"properties":{"amenity":"telephone","covered":"booth"}},
{"type":"Feature","geometry":{"type":"Point","coordinates":[14.3118899,48.8048583]},"properties":{"amenity":"telephone"}},
{"type":"Feature","geometry":{"type":"Point","coordinates":[18.2911599,49.8328494]},"properties":{"disused:amenity":"telephone"}},
{"type":"Feature","geometry":{"type":"Point","coordinates":[18.2918044,49.832863]},"properties":{"disused:amenity":"telephone"}},
{"type":"Feature","geometry":{"type":"Point","coordinates":[14.3293417,48.8238651]},"properties":{"level":"0","indoor":"no","amenity":"telephone","covered":"yes","operator":"O2","wheelchair":"yes"}},
{"type":"Feature","geometry":{"type":"Point","coordinates":[18.2802756,49.8292476]},"properties":{"covered":"yes","disused:amenity":"telephone","operator":"O2","payment:coins":"yes"}},
{"type":"Feature","geometry":{"type":"Point","coordinates":[14.5860136,49.93074]},"properties":{"disused:amenity":"telephone","operator":"O2","phone":"+420 323 672 750"}},
{"type":"Feature","geometry":{"type":"Point","coordinates":[14.915421,49.8715342]},"properties":{"phone":"+420 327 321 846","amenity":"telephone","operator":"O2"}},
{"type":"Feature","geometry":{"type":"Point","coordinates":[15.9813242,48.7885413]},"properties":{"amenity":"telephone"}},
{"type":"Feature","geometry":{"type":"Point","coordinates":[14.2169311,49.8167406]},"properties":{"disused:amenity":"telephone","operator":"O2","phone":"+420 318 522 878"}},
{"type":"Feature","geometry":{"type":"Point","coordinates":[13.9460827,49.799915]},"properties":{"phone":"+420 318 692 113","amenity":"telephone","operator":"O2"}},
{"type":"Feature","geometry":{"type":"Point","coordinates":[13.7159983,49.1412765]},"properties":{"amenity":"telephone","covered":"booth","operator":"O2"}},
{"type":"Feature","geometry":{"type":"Point","coordinates":[14.503993,48.9113581]},"properties":{"fee":"yes","lit":"yes","sms":"yes","phone":"+420387988596","video":"no","indoor":"no","amenity":"telephone","covered":"yes","operator":"O2","wheelchair":"yes","source:date":"2020-05-03","payment:telephone_cards":"yes"}},
{"type":"Feature","geometry":{"type":"Point","coordinates":[14.6002477,48.880747]},"properties":{"fee":"yes","sms":"yes","phone":"+420386321490","video":"no","indoor":"no","amenity":"telephone","covered":"yes","operator":"O2","wheelchair":"yes","source:date":"2020-05-03","payment:telephone_cards":"yes"}},
{"type":"Feature","geometry":{"type":"Point","coordinates":[14.2336328,49.0100921]},"properties":{"fee":"yes","sms":"yes","phone":"+420388324943","video":"no","indoor":"no","amenity":"telephone","covered":"yes","operator":"O2","wheelchair":"yes","source:date":"2020-05-03","currency:EUR":"yes","payment:coins":"yes"}},
{"type":"Feature","geometry":{"type":"Point","coordinates":[17.5650642,49.3791232]},"properties":{"disused:amenity":"telephone","operator":"Telefónica O2"}},
{"type":"Feature","geometry":{"type":"Point","coordinates":[14.4681438,49.2955663]},"properties":{"amenity":"telephone"}},
{"type":"Feature","geometry":{"type":"Point","coordinates":[15.6879163,48.9320285]},"properties":{"amenity":"telephone"}},
{"type":"Feature","geometry":{"type":"Point","coordinates":[15.6898882,48.9408681]},"properties":{"amenity":"telephone"}},
{"type":"Feature","geometry":{"type":"Point","coordinates":[13.6098486,50.2305673]},"properties":{"removed:amenity":"telephone","source":"survey","survey:date":"2021-07-22"}},
{"type":"Feature","geometry":{"type":"Point","coordinates":[14.6897527,49.7827011]},"properties":{"disused:amenity":"telephone"}},
{"type":"Feature","geometry":{"type":"Point","coordinates":[17.4663476,49.987422]},"properties":{"disused:amenity":"telephone"}},
{"type":"Feature","geometry":{"type":"Point","coordinates":[18.0166957,49.7571922]},"properties":{"disused:amenity":"telephone","fixme":"disused?"}},
{"type":"Feature","geometry":{"type":"Point","coordinates":[15.9617773,48.9058289]},"properties":{"disused:amenity":"telephone"}},
{"type":"Feature","geometry":{"type":"Point","coordinates":[14.354943,50.1502824]},"properties":{"amenity":"public_bookcase","disused:amenity":"telephone","man_made":"telephone_box","public_bookcase:type":"phone_box"}},
{"type":"Feature","geometry":{"type":"Point","coordinates":[15.3237404,49.7255872]},"properties":{"amenity":"telephone","covered":"booth"}},
{"type":"Feature","geometry":{"type":"Point","coordinates":[13.9227092,49.5595752]},"properties":{"disused:amenity":"telephone","note":"Poslední telefonní budka odmontována 17. června"}},
{"type":"Feature","geometry":{"type":"LineString","coordinates":[[13.9832815,49.5380388],[13.9832703,49.5380491],[13.983288,49.5380572],[13.9832992,49.5380469],[13.9832815,49.5380388]]},"properties":{"amenity":"telephone"}},
{"type":"Feature","geometry":{"type":"MultiPolygon","coordinates":[[[[13.9832703,49.5380491],[13.9832815,49.5380388],[13.9832992,49.5380469],[13.983288,49.5380572],[13.9832703,49.5380491]]]]},"properties":{"amenity":"telephone"}}
]}
