{"type":"Feature","geometry":{"type":"Point","coordinates":[14.4514659,50.0189356]},"properties":{"name":"Sběrný dvůr hl.m. Prahy","amenity":"recycling","recycling_type":"centre"}},
{"type":"Feature","geometry":{"type":"Point","coordinates":[15.9456571,49.5492238]},"properties":{"amenity":"recycling","note":"sběrný dvůr","recycling_type":"centre","website":"https://www.ave.cz/cs/kraj-vysocina/provozovna-zdar-nad-sazavou"}},
{"type":"Feature","geometry":{"type":"Point","coordinates":[14.6521677,49.995864]},"properties":{"amenity":"recycling","recycling_type":"centre"}},
{"type":"Feature","geometry":{"type":"Point","coordinates":[14.503905,50.0976655]},"properties":{"name":"Sběrný dvůr hlavního města Prahy","amenity":"recycling","operator":"Pražské služby","recycling_type":"centre"}},
{"type":"Feature","geometry":{"type":"Point","coordinates":[16.4446076,49.260461]},"properties":{"name":"Sběrný dvůr pro recyklaci stavební suti","source":"survey","amenity":"recycling","recycling_type":"centre"}},
{"type":"Feature","geometry":{"type":"Point","coordinates":[16.4524187,49.8922954]},"properties":{"name":"Sběrný dvůr","amenity":"recycling","wheelchair":"no","opening_hours":"Tu-Fr 08:00-17:00; Sa 08:00-12:00","recycling_type":"centre"}},
{"type":"Feature","geometry":{"type":"Point","coordinates":[16.4418872,49.8959447]},"properties":{"name":"Ekoline group","amenity":"recycling","recycling_type":"centre"}},
{"type":"Feature","geometry":{"type":"Point","coordinates":[15.3098061,50.7429564]},"properties":{"name":"Sběrný dvůr","amenity":"recycling","recycling_type":"centre"}},
{"type":"Feature","geometry":{"type":"Point","coordinates":[14.2599675,50.0821688]},"properties":{"addr:conscriptionnumber":"100","addr:country":"CZ","addr:housenumber":"100","addr:place":"Hostivice","addr:postcode":"25301","addr:street":"Jiráskova","amenity":"recycling","recycling_type":"centre","ref:ruian:addr":"12757659"}},
{"type":"Feature","geometry":{"type":"Point","coordinates":[14.7081889,49.3505561]},"properties":{"amenity":"recycling","recycling_type":"centre"}},
{"type":"Feature","geometry":{"type":"Point","coordinates":[14.4063296,50.7993159]},"properties":{"name":"Sběrný dvůr","amenity":"recycling","recycling_type":"centre"}},
{"type":"Feature","geometry":{"type":"Point","coordinates":[15.53238,49.8845863]},"properties":{"addr:conscriptionnumber":"465","addr:country":"CZ","addr:housenumber":"465","addr:place":"Ronov nad Doubravou","addr:postcode":"53842","addr:street":"Svatokřížská","amenity":"recycling","name":"Kovošrot Culka & Sadlik s.r.o.","recycling_type":"centre","ref:ruian:addr":"5280371"}},
{"type":"Feature","geometry":{"type":"Point","coordinates":[12.219867,50.0969092]},"properties":{"amenity":"recycling","recycling_type":"centre"}},
{"type":"Feature","geometry":{"type":"Point","coordinates":[18.1955685,49.8855778]},"properties":{"amenity":"recycling","name":"Kompostárna","recycling_type":"centre"}},
{"type":"Feature","geometry":{"type":"Point","coordinates":[15.8754607,49.2279016]},"properties":{"name":"Sběrný dvůr","amenity":"recycling","recycling_type":"centre"}},
{"type":"Feature","geometry":{"type":"Point","coordinates":[14.5896687,50.2316991]},"properties":{"name":"Sběrný dvůr","amenity":"recycling","recycling_type":"centre"}},
{"type":"Feature","geometry":{"type":"Point","coordinates":[12.6964,49.9477146]},"properties":{"was:amenity":"recycling","recycling_type":"centre"}},
{"type":"Feature","geometry":{"type":"Point","coordinates":[15.7607928,50.0452575]},"properties":{"amenity":"recycling","name":"separační dvůr Lonkova","opening_hours":"po, so: 8:00-12:00, út, čt: 14:00-18:00","operator":"Služby města Pardubice","recycling_type":"centre","wheelchair":"yes"}},
{"type":"Feature","geometry":{"type":"Point","coordinates":[14.4082002,50.1796673]},"properties":{"name":"Sběrný dvůr Klecany","phone":"+420 737723562","amenity":"recycling","operator":"Městský úřad Klecany","opening_hours":"Jan-Mar Tu,Th 12:00-15:00; Su 08:00-12:00; Apr-Oct Tu,Th 09:00-17:00; We,Fr 13:00-15:30; Sa 09:00-13:00; Su 08:00-12:00; Nov-Dec Tu,Th 12:00-15:00; Su 08:00-12:00","recycling_type":"centre"}},
{"type":"Feature","geometry":{"type":"Point","coordinates":[14.8260957,50.1579421]},"properties":{"amenity":"recycling","recycling_type":"centre"}},
{"type":"Feature","geometry":{"type":"Point","coordinates":[13.26903,49.6918751]},"properties":{"amenity":"recycling","addr:place":"Líně","addr:country":"CZ","addr:postcode":"33021","recycling_type":"centre","ref:ruian:addr":"27665623","addr:housenumber":"699","addr:conscriptionnumber":"699"}},
{"type":"Feature","geometry":{"type":"Point","coordinates":[16.5275754,49.4546065]},"properties":{"amenity":"recycling","recycling_type":"centre"}},
{"type":"Feature","geometry":{"type":"Point","coordinates":[14.439478,50.0675641]},"properties":{"name":"Sběrný dvůr Komwag","phone":"+420 236 040 000","source":"survey","amenity":"recycling","website":"https://www.komwag.cz/","recycling_type":"centre"}},
{"type":"Feature","geometry":{"type":"Point","coordinates":[15.8057857,49.9473608]},"properties":{"name":"ZŠ Dr. Malíka","amenity":"school","website":"http://zsmalika.cz","recycling_type":"centre"}},
{"type":"Feature","geometry":{"type":"Point","coordinates":[15.2117037,50.053848]},"properties":{"name":"Sběrný dvůr AVE","amenity":"recycling","recycling_type":"centre"}},
{"type":"Feature","geometry":{"type":"Point","coordinates":[16.6565276,49.7625559]},"properties":{"name":"Technické služby Moravská Třebová s.r.o.","amenity":"recycling","recycling_type":"centre","collection_times":"Mo 13:00-17:00; We 08:00-12:00,13:00-17:00; Th,Sa 08:00-14:00"}},
{"type":"Feature","geometry":{"type":"Point","coordinates":[14.8537617,50.2304508]},"properties":{"name":"Sběrný dvůr","source":"local_knowledge","amenity":"recycling","recycling_type":"centre"}},
{"type":"Feature","geometry":{"type":"Point","coordinates":[17.9121318,49.9441393]},"properties":{"amenity":"recycling","opening_hours":"Mar 15-Nov 15: Mo-Fr 11:00-17:30; Sa 8:00-11:00 || Nov 16-Mar 14: We 11:00-17:30; Sa 8:00-11:00","recycling_type":"centre"}},
{"type":"Feature","geometry":{"type":"Point","coordinates":[14.4858062,50.1488427]},"properties":{"amenity":"recycling","recycling_type":"centre"}},
{"type":"Feature","geometry":{"type":"Point","coordinates":[14.4523791,50.1341636]},"properties":{"amenity":"recycling","recycling_type":"centre"}},
{"type":"Feature","geometry":{"type":"Point","coordinates":[13.3720447,49.8502772]},"properties":{"amenity":"recycling","recycling_type":"centre"}},
{"type":"Feature","geometry":{"type":"Point","coordinates":[14.7272271,50.1028886]},"properties":{"amenity":"recycling","name":"Sběrný dvůr odpadů Horoušany","recycling_type":"centre"}},
{"type":"Feature","geometry":{"type":"Point","coordinates":[17.3859212,49.2874564]},"properties":{"amenity":"recycling","recycling_type":"centre"}},
{"type":"Feature","geometry":{"type":"Point","coordinates":[13.3673925,49.8453681]},"properties":{"amenity":"recycling","recycling_type":"centre","source":"survey"}},
{"type":"Feature","geometry":{"type":"Point","coordinates":[14.0656945,50.1412528]},"properties":{"name":"Sběrný dvůr","source":"cuzk:km;survey;bing:ortofoto","amenity":"recycling","int_name":"Sběrný dvůr","recycling_type":"centre"}},
{"type":"Feature","geometry":{"type":"Point","coordinates":[13.1937107,49.1194051]},"properties":{"amenity":"recycling","recycling_type":"centre"}},
{"type":"Feature","geometry":{"type":"Point","coordinates":[14.5826786,50.2229354]},"properties":{"name":"Výkupna druhotných surovin","amenity":"recycling","recycling_type":"centre"}},
{"type":"Feature","geometry":{"type":"Point","coordinates":[14.5848645,50.2265939]},"properties":{"amenity":"recycling","recycling_type":"centre"}},
{"type":"Feature","geometry":{"type":"Point","coordinates":[14.4071669,50.1791801]},"properties":{"amenity":"recycling","website":"http://sbernesurovinyklecany.cz","opening_hours":"Mo-Fr 08:00-16:00","recycling_type":"centre"}},
{"type":"Feature","geometry":{"type":"Point","coordinates":[17.1272418,48.9554205]},"properties":{"name":"Sběrný dvůr Milotice","amenity":"recycling","addr:place":"Milotice","addr:postcode":"69605","recycling_type":"centre","ref:ruian:addr":"73373656","addr:housenumber":"599","addr:conscriptionnumber":"599"}},
{"type":"Feature","geometry":{"type":"Point","coordinates":[13.9014071,49.8428103]},"properties":{"amenity":"recycling","recycling_type":"centre"}},
{"type":"Feature","geometry":{"type":"Point","coordinates":[14.7573093,49.0168546]},"properties":{"name":"Technické služby Třeboň","amenity":"recycling","recycling_type":"centre"}},
{"type":"Feature","geometry":{"type":"Point","coordinates":[16.1485641,50.3558918]},"properties":{"name":"Sběrný dvůr","amenity":"recycling","addr:city":"Nové Město nad Metují","addr:street":"Družstevní","addr:postcode":"54901","recycling_type":"centre"}},
{"type":"Feature","geometry":{"type":"Point","coordinates":[14.4373895,50.1672614]},"properties":{"amenity":"recycling","recycling_type":"centre"}},
{"type":"Feature","geometry":{"type":"Point","coordinates":[14.7074407,49.3746248]},"properties":{"name":"Sběrný dvůr","amenity":"recycling","operator":"Město Sezimovo Ústí","recycling_type":"centre"}},
{"type":"Feature","geometry":{"type":"Point","coordinates":[16.9620946,49.9548593]},"properties":{"amenity":"recycling","name":"Sběrné místo","operator":"HOPR TRADE CZ, s.r.o.","recycling_type":"centre"}},
{"type":"Feature","geometry":{"type":"Point","coordinates":[12.8141171,49.5131509]},"properties":{"name":"Sběrný dvůr","amenity":"recycling","recycling_type":"centre"}},
{"type":"Feature","geometry":{"type":"Point","coordinates":[14.4946128,48.9291815]},"properties":{"amenity":"recycling","opening_hours":"Mo 17:00-19:00; Th 17:00-19:00","recycling_type":"centre"}},
{"type":"Feature","geometry":{"type":"Point","coordinates":[14.4883446,48.9340849]},"properties":{"amenity":"recycling","recycling_type":"centre"}},
{"type":"Feature","geometry":{"type":"Point","coordinates":[16.6674011,49.7584676]},"properties":{"amenity":"recycling","recycling_type":"centre"}},
{"type":"Feature","geometry":{"type":"Point","coordinates":[13.9795259,49.7883923]},"properties":{"name":"Sběrný dvůr Městys Jince","amenity":"recycling","recycling_type":"centre"}},
{"type":"Feature","geometry":{"type":"Point","coordinates":[16.7096008,49.3977813]},"properties":{"amenity":"recycling","website":"https://www.vavrinec.cz/sberny-dvur-odpadu/","recycling_type":"centre"}},
{"type":"Feature","geometry":{"type":"Point","coordinates":[14.1258171,50.542278]},"properties":{"name":"Sběrný dvůr Litoměřice","amenity":"recycling","website":"https://www.tsmlt.cz/dvur-ltm.html","operator":"Město Litoměřice","addr:city":"Litoměřice","addr:street":"Nerudova","addr:postcode":"41201","opening_hours":"Po,st 8:30-16:00 hod Út,čt 8:30-18:00 hod Pá 8:30-15:00 hod So 8:00-14:30 hod","recycling_type":"centre"}},
{"type":"Feature","geometry":{"type":"Point","coordinates":[17.7871161,49.2978037]},"properties":{"name":"Sběrné místo","amenity":"recycling","operator":"Obec Kašava","recycling_type":"centre"}},
{"type":"Feature","geometry":{"type":"Point","coordinates":[16.1237884,49.646558]},"properties":{"amenity":"recycling","recycling_type":"centre","website":"https://www.snezne.cz/sberny-dvur/ds-1044"}},
{"type":"Feature","geometry":{"type":"Point","coordinates":[14.5106073,50.1499418]},"properties":{"name":"Výkup palet","amenity":"recycling","recycling_type":"centre"}},
{"type":"Feature","geometry":{"type":"Point","coordinates":[14.5587838,50.8824826]},"properties":{"name":"Sběrný dvůr","amenity":"recycling","recycling_type":"centre","collection_times":"Mo 14:00-16:00; Th 09:00-11:00; Sa 09:00-12:00"}},
{"type":"Feature","geometry":{"type":"Point","coordinates":[15.9085678,50.1287566]},"properties":{"name":"Sběrný dvůr","amenity":"recycling","operator":"Bášť","opening_hours":"Po 15:00 - 17:00","recycling_type":"centre"}},
{"type":"Feature","geometry":{"type":"Point","coordinates":[14.4295301,49.6540054]},"properties":{"name":"Sběrný dvůr","amenity":"recycling","recycling_type":"centre"}},
{"type":"Feature","geometry":{"type":"Point","coordinates":[18.1160206,49.4617732]},"properties":{"amenity":"recycling","name":"Sběrný dvůr Rožnov pod Radhoštěm","recycling_type":"centre"}},
{"type":"Feature","geometry":{"type":"Point","coordinates":[14.2560538,48.6202368]},"properties":{"amenity":"recycling","recycling_type":"centre"}},
{"type":"Feature","geometry":{"type":"Point","coordinates":[15.6466918,48.929893]},"properties":{"name":"Místo zpětného odběru","amenity":"recycling","recycling_type":"centre"}},
{"type":"Feature","geometry":{"type":"Point","coordinates":[16.0554286,50.3978729]},"properties":{"name":"Sběrné suroviny","amenity":"recycling","operator":"Petr Jiroušek","recycling_type":"centre"}},
{"type":"Feature","geometry":{"type":"Point","coordinates":[16.5318148,50.06336]},"properties":{"amenity":"recycling","recycling_type":"centre"}},
{"type":"Feature","geometry":{"type":"Point","coordinates":[18.1091527,49.4142849]},"properties":{"amenity":"recycling","recycling_type":"centre"}},
{"type":"Feature","geometry":{"type":"Point","coordinates":[14.0075968,49.7038595]},"properties":{"name":"Sběrný dvůr","amenity":"recycling","recycling_type":"centre"}},
{"type":"Feature","geometry":{"type":"Point","coordinates":[16.576324,49.1658945]},"properties":{"amenity":"recycling","recycling_type":"centre"}},
{"type":"Feature","geometry":{"type":"Point","coordinates":[14.5853887,50.1227692]},"properties":{"name":"Sběrný dvůr Satalice","phone":"736661560","amenity":"recycling","website":"http://www.satalice-sd.cz","building":"yes","operator":"IPODEC a.s.","opening_hours":"Mar 31-Oct 23 Mo-Fr 08:30-18:30; Mar 31-Oct 23,Oct 24-Mar 31 Sa 08:30-15:00; Oct 24-Mar 31 Mo-Fr 08:30-17:00; PH off","recycling_type":"centre"}},
{"type":"Feature","geometry":{"type":"Point","coordinates":[12.1905845,50.2271505]},"properties":{"amenity":"recycling","recycling_type":"centre"}},
{"type":"Feature","geometry":{"type":"Point","coordinates":[16.463637,50.0728649]},"properties":{"name":"Sběrný dvůr","amenity":"recycling","opening_hours":"Nov-Mar: Tu 09:00-13:00,13:30-17:00; Th 13:00-17:00; Sa 09:00-13:00; Apr-Oct: Tu 09:00-13:00,13:30-18:00; Th 13:00-18:00; Sa 09:00-15:00","recycling_type":"centre"}},
{"type":"Feature","geometry":{"type":"Point","coordinates":[15.6613332,49.846964]},"properties":{"name":"VHČ Seč","email":"vhc@mestosec.cz","phone":"+420 469 676 124","amenity":"emergency_service","website":"http://www.mestosec.cz","operator":"Město Seč","addr:city":"Seč","addr:street":"Chrudimská","addr:postcode":"53807","opening_hours":"Mo-Fr 07:00-11:00, Mo,We 12:00-15:30, Fr 12:00-15:00, Sa,Su off","recycling_type":"centre","addr:housenumber":"1","emergency_service":"technical"}},
{"type":"Feature","geometry":{"type":"Point","coordinates":[16.4999184,50.0386258]},"properties":{"amenity":"recycling","recycling_type":"centre"}},
{"type":"Feature","geometry":{"type":"Point","coordinates":[14.4744394,50.0071029]},"properties":{"amenity":"recycling","recycling_type":"centre"}},
{"type":"Feature","geometry":{"type":"Point","coordinates":[17.1745054,48.9571047]},"properties":{"amenity":"recycling","name":"Sběrný dvůr","recycling_type":"centre","website":"https://www.vacenovice.cz/urad-1/sberny-dvur/"}},
{"type":"Feature","geometry":{"type":"Point","coordinates":[13.7203404,49.8524995]},"properties":{"amenity":"recycling","recycling_type":"centre"}},
{"type":"Feature","geometry":{"type":"Point","coordinates":[15.7910304,50.0705429]},"properties":{"amenity":"recycling","recycling_type":"centre"}},
{"type":"Feature","geometry":{"type":"Point","coordinates":[14.3320269,48.8313803]},"properties":{"name":"Sběrné suroviny, a.s.","phone":"+420 603 510 894","amenity":"recycling","website":"https://www.sbernesuroviny.cz/","addr:city":"Český Krumlov","addr:street":"Tovární","addr:postcode":"38101","recycling_type":"centre","addr:housenumber":"70"}},
{"type":"Feature","geometry":{"type":"Point","coordinates":[14.4873609,50.3556471]},"properties":{"amenity":"recycling","operator":"FCC BEC","recycling_type":"centre"}},
{"type":"Feature","geometry":{"type":"Point","coordinates":[15.8554835,50.1944575]},"properties":{"name":"Sběrný dvůr - Na Brně","amenity":"recycling","recycling_type":"centre"}},
{"type":"Feature","geometry":{"type":"Point","coordinates":[16.8895905,48.7620993]},"properties":{"addr:housenumber":"2","addr:street":"Sovadinova","amenity":"recycling","name":"Sběrný dvůr","recycling_type":"centre","website":"https://www.ave.cz/cs/jihomoravsky-kraj/provozovna-breclav/sberny-dvur/sberny-dvur-breclav"}},
{"type":"Feature","geometry":{"type":"Point","coordinates":[14.6962379,50.234616]},"properties":{"amenity":"recycling","recycling_type":"centre"}},
{"type":"Feature","geometry":{"type":"Point","coordinates":[14.0692207,50.6663365]},"properties":{"amenity":"recycling","recycling_type":"centre"}},
{"type":"Feature","geometry":{"type":"Point","coordinates":[15.0960108,50.3207636]},"properties":{"amenity":"recycling","recycling_type":"centre"}},
{"type":"Feature","geometry":{"type":"Point","coordinates":[15.102849,50.3205538]},"properties":{"amenity":"recycling","recycling_type":"centre"}},
{"type":"Feature","geometry":{"type":"Point","coordinates":[14.7311264,50.6526203]},"properties":{"name":"Sběrný dvůr","amenity":"recycling","recycling_type":"centre"}},
{"type":"Feature","geometry":{"type":"Point","coordinates":[14.5110265,49.9789458]},"properties":{"amenity":"recycling","name":"Sběrný dvůr","opening_hours":"We 16:00-20:00; Sa 08:00-14:00","phone":"+420 734 755 514","recycling_type":"centre"}},
{"type":"Feature","geometry":{"type":"Point","coordinates":[14.2607578,48.815692]},"properties":{"name":"Zita Kájov s.r.o.","amenity":"recycling","website":"http://www.zitakajov.cz","addr:city":"Kájov","addr:street":"Kájovská","addr:postcode":"38221","recycling_type":"centre","addr:housenumber":"197"}},
{"type":"Feature","geometry":{"type":"Point","coordinates":[17.5848968,49.3790904]},"properties":{"amenity":"recycling","name":"Sběrný dvůr Prusinovice","recycling_type":"centre"}},
{"type":"Feature","geometry":{"type":"Point","coordinates":[16.6685787,49.3355706]},"properties":{"amenity":"recycling","email":"obec@olomucany.cz","phone":"+420 721 907 127","recycling_type":"centre","website":"https://www.olomucany.cz/"}},
{"type":"Feature","geometry":{"type":"Point","coordinates":[15.8153501,50.1951018]},"properties":{"amenity":"recycling","name":"NAPOS a.s. - výkup druhotných surovin","phone":"+420725893334","recycling_type":"centre","website":"https://www.napos.cz/"}},
{"type":"Feature","geometry":{"type":"Point","coordinates":[16.7919004,48.9884352]},"properties":{"amenity":"recycling","name":"Diváky","phone":"+420 608 623018","recycling_type":"centre"}},
{"type":"Feature","geometry":{"type":"Point","coordinates":[16.7444259,49.2977159]},"properties":{"amenity":"recycling","recycling_type":"centre"}},
{"type":"Feature","geometry":{"type":"Point","coordinates":[16.7339114,49.0899654]},"properties":{"amenity":"recycling","recycling_type":"centre"}},
{"type":"Feature","geometry":{"type":"Point","coordinates":[14.6350448,49.0195371]},"properties":{"amenity":"recycling","name":"Sběrný dvůr Lišov","operator":"FCC","operator:type":"private","recycling_type":"centre"}},
{"type":"Feature","geometry":{"type":"Point","coordinates":[14.4920188,50.0658577]},"properties":{"amenity":"recycling","recycling_type":"centre"}},
{"type":"Feature","geometry":{"type":"Point","coordinates":[12.3530057,50.1262615]},"properties":{"addr:city":"Františkovy Lázně","addr:postcode":"35101","addr:street":"Žírovická","amenity":"recycling","email":"miroslav.mottl@ave.cz","opening_hours":"Mo 13:00-18:00, Tu 9:00-15:30, We 13:00-18:00, Th-Fr 9:00-15:30","operator":"AVE CZ odpadové hospodářství s.r.o.","phone":"+420 354 400 311","recycling_type":"centre","website":"https://www.ave.cz/cs/karlovarsky-kraj/provozovna-frantiskovy-lazne"}},
{"type":"Feature","geometry":{"type":"Point","coordinates":[16.1801143,50.4795739]},"properties":{"amenity":"recycling","operator":"Městský úřad Hronov","recycling_type":"centre","website":"https://www.mestohronov.cz/urad/clanky/odpadove-hospodarstvi"}},
{"type":"Feature","geometry":{"type":"Point","coordinates":[16.2223444,49.6297234]},"properties":{"amenity":"recycling","name":"Recyklace","recycling_type":"centre"}},
{"type":"Feature","geometry":{"type":"Point","coordinates":[14.4869053,50.0863571]},"properties":{"addr:city":"Praha","addr:housenumber":"74","addr:postcode":"13000","addr:street":"Malešická","amenity":"recycling","email":"avepks.provoz@ave.cz","name":"Sběrný dvůr hl. m. Prahy","opening_hours":"Oct-Mar: Mo-Fr 08:30-18:00, Sa 08:30-15:00; Apr-Sep: Mo-Fr 08:30-17:00, Sa 08:30-15:00; PH off","operator":"AVE Pražské komunální služby, a.s.","operator:type":"public","phone":"+420 296 339 900","recycling_type":"centre","website":"https://www.ave.cz/cs/praha/sberny-dvur-vackov"}},
{"type":"Feature","geometry":{"type":"Point","coordinates":[14.2096721,48.8541676]},"properties":{"addr:city":"Chvalšiny","addr:housenumber":"317","addr:postcode":"38208","amenity":"recycling","name":"Sběrný dvůr","recycling_type":"centre"}},
{"type":"Feature","geometry":{"type":"Point","coordinates":[16.6532927,49.010818]},"properties":{"amenity":"recycling","recycling_type":"centre"}},
{"type":"Feature","geometry":{"type":"Point","coordinates":[18.0973598,49.8573884]},"properties":{"amenity":"recycling","recycling_type":"centre"}},
{"type":"Feature","geometry":{"type":"Point","coordinates":[14.610149,50.1156445]},"properties":{"amenity":"recycling","name":"Sběrný dvůr – Horní Počernice","operator":"Odbor místního hospodářství ÚMČ Praha 20","operator:type":"local_authority","recycling_type":"centre"}},
{"type":"Feature","geometry":{"type":"Point","coordinates":[14.0619574,50.5119142]},"properties":{"amenity":"recycling","recycling_type":"centre"}},
{"type":"Feature","geometry":{"type":"Point","coordinates":[15.8935421,48.9725485]},"properties":{"amenity":"recycling","email":"tomas.navratil@fcc-group.cz","name":"Sběrný dvůr Pavlice","opening_hours":"Tu,Fr 14:00-18:00; Sa 08:00-13:00","operator":"FCC Znojmo, s.r.o.","phone":"+420 515 242 652","recycling_type":"centre","website":"https://www.fcc-group.eu/cs/ceska-republika/sluzby/sberne-dvory/jizni-morava/sd-pavlice.html"}},
{"type":"Feature","geometry":{"type":"Point","coordinates":[15.9919502,48.988208]},"properties":{"amenity":"recycling","email":"tomas.navratil@fcc-group.cz","name":"Sběrný dvůr Jevišovice","opening_hours":"Tu,Fr 14:00-18:00; Sa 08:00-13:00","operator":"FCC Znojmo, s.r.o.","phone":"+420 515 242 652","recycling_type":"centre","website":"https://www.fcc-group.eu/cs/ceska-republika/sluzby/sberne-dvory/jizni-morava/sd-primetice.html"}},
{"type":"Feature","geometry":{"type":"Point","coordinates":[16.0399028,48.8862119]},"properties":{"amenity":"recycling","email":"tomas.navratil@fcc-group.cz","name":"Sběrný dvůr Přímětice","opening_hours":"Mo-Fr 07:00-18:00; Sa 08:00-14:00","phone":"+420 515 242 652","recycling_type":"centre","website":"https://www.fcc-group.eu/cs/ceska-republika/sluzby/sberne-dvory/jizni-morava/sd-primetice.html"}},
{"type":"Feature","geometry":{"type":"Point","coordinates":[14.0519677,50.530126]},"properties":{"amenity":"recycling","mobile":"+420 727 967 161","name":"Sběrný dvůr Malé Žernoseky","opening_hours":"Mo 15:00-17:00; Sa 08:00-11:00","operator":"FCC BEC, s.r.o.","recycling_type":"centre","website":"https://www.fcc-group.eu/cs/ceska-republika/sluzby/sberne-dvory/severni-cechy/sd-male-zernoseky.html"}},
{"type":"Feature","geometry":{"type":"Point","coordinates":[18.4901069,49.7484607]},"properties":{"amenity":"recycling","name":"sběrný dvůr","recycling_type":"centre"}},
{"type":"Feature","geometry":{"type":"Point","coordinates":[17.5204786,48.980025]},"properties":{"amenity":"recycling","recycling_type":"centre"}},
{"type":"Feature","geometry":{"type":"Point","coordinates":[16.1563477,50.4061106]},"properties":{"amenity":"recycling","operator":"Technické služby města Náchoda","recycling_type":"centre","website":"https://www.tsnachod.cz/"}},
{"type":"Feature","geometry":{"type":"Point","coordinates":[15.4691063,49.5261151]},"properties":{"addr:city":"Herálec","addr:housenumber":"65","addr:postcode":"58255","addr:street":"Herálec","amenity":"recycling","operator":"obec Herálec","recycling_type":"centre"}},
{"type":"Feature","geometry":{"type":"Point","coordinates":[15.2852397,50.2007921]},"properties":{"amenity":"recycling","name":"Technický dvůr \"Na větráku\"","operator":"Město Městec Králové","recycling_type":"centre","website":"https://www.mesteckralove.cz/sluzby/technicky-dvur/"}},
{"type":"Feature","geometry":{"type":"Point","coordinates":[14.0975509,50.2249011]},"properties":{"amenity":"recycling","name":"Sběrné suroviny","recycling_type":"centre"}},
{"type":"Feature","geometry":{"type":"Point","coordinates":[16.9292102,49.2536661]},"properties":{"amenity":"recycling","opening_hours":"Tu 16:00-18:00","recycling_type":"centre"}},
{"type":"Feature","geometry":{"type":"Point","coordinates":[16.6321887,49.2089053]},"properties":{"addr:city":"Brno","addr:housenumber":"1597/113","addr:postcode":"61400","addr:street":"Dukelská třída","amenity":"recycling","name":"REVAP-KOVO","phone":"+420  545 573 246","recycling_type":"centre","website":"https://www.revap.cz/revap-kovo.htm"}},
{"type":"Feature","geometry":{"type":"LineString","coordinates":[[14.4377041,50.0047403],[14.4376785,50.0047687],[14.4375186,50.0047246],[14.4373859,50.0047149],[14.4372039,50.0047489],[14.4366877,50.0049118],[14.4361514,50.0043197],[14.4366461,50.0039556],[14.4370146,50.0037094],[14.4374421,50.0039215],[14.4377203,50.0046881],[14.4377041,50.0047403]]},"properties":{"name":"Sběrný dvůr Hlavního města Prahy","amenity":"recycling","landuse":"industrial","recycling_type":"centre"}},
{"type":"Feature","geometry":{"type":"LineString","coordinates":[[14.164968,49.7787774],[14.1650367,49.7785068],[14.1650862,49.7785165],[14.1651034,49.7784456],[14.165243,49.7784554],[14.1652796,49.7783805],[14.1651549,49.7783735],[14.1651505,49.7783321],[14.1651624,49.7782582],[14.1643319,49.7782001],[14.1639042,49.7781432],[14.1629264,49.7781237],[14.16292,49.7782334],[14.1632488,49.7785054],[14.1638333,49.7786719],[14.164968,49.7787774]]},"properties":{"amenity":"recycling","recycling_type":"centre"}},
{"type":"Feature","geometry":{"type":"LineString","coordinates":[[16.7512784,48.7477633],[16.7515145,48.7477963],[16.7515693,48.7476239],[16.7514639,48.7476099],[16.7514652,48.7476059],[16.7513339,48.7475883],[16.7512784,48.7477633]]},"properties":{"name":"Sběrný dvůr Valtice","email":"info@valtice.eu","phone":"+420 733 535 812","source":"cuzk:ruian","amenity":"recycling","website":"https://www.valtice.eu/","building":"house","building:flats":"1","recycling_type":"centre","ref:ruian:building":"50752618","building:ruian:type":"7"}},
{"type":"Feature","geometry":{"type":"LineString","coordinates":[[16.4973653,49.2062696],[16.4970184,49.2062685],[16.4969821,49.206268],[16.4969788,49.2063646],[16.4972029,49.2063765],[16.4973835,49.206386],[16.4973653,49.2062696]]},"properties":{"amenity":"recycling","building:ruian:type":"16","operator":"Brno","recycling_type":"centre","ref:ruian:building":"41883195","source":"cuzk:ruian"}},
{"type":"Feature","geometry":{"type":"LineString","coordinates":[[16.537276,49.301572],[16.537345,49.301544],[16.537451,49.301647],[16.537382,49.301676],[16.537276,49.301572]]},"properties":{"name":"Sběrný dvůr","source":"cuzk:km","amenity":"recycling","name:cs":"Sběrný dvůr","building":"yes","recycling_type":"centre"}},
{"type":"Feature","geometry":{"type":"LineString","coordinates":[[16.5158008,49.5032335],[16.5164639,49.5027412],[16.5162719,49.5026315],[16.5156093,49.5031245],[16.5158008,49.5032335]]},"properties":{"source":"cuzk:ruian","amenity":"recycling","building":"yes","start_date":"2010-09-29","recycling_type":"centre","building:levels":"1","ref:ruian:building":"78997259","building:ruian:type":"19"}},
{"type":"Feature","geometry":{"type":"LineString","coordinates":[[18.6512916,49.6649033],[18.6513111,49.6648054],[18.6512855,49.6646948],[18.6506662,49.6629585],[18.6518736,49.6627444],[18.6522079,49.6627535],[18.6526865,49.6631355],[18.6527634,49.6632461],[18.6529642,49.6644017],[18.6530829,49.6646727],[18.6512916,49.6649033]]},"properties":{"amenity":"recycling","landuse":"industrial","name":"Nehlsen Třinec","recycling_type":"centre","source":"https://www.nehlsen.com/unternehmen/referenzen/reinigung/100-prozent-nehlsen-trinec"}},
{"type":"Feature","geometry":{"type":"LineString","coordinates":[[16.0427305,50.3887459],[16.0421051,50.3886639],[16.0420964,50.3885901],[16.0421477,50.3885465],[16.04234,50.3884197],[16.042486,50.3883645],[16.0428641,50.3883283],[16.042887,50.3883398],[16.0428555,50.3884297],[16.0428164,50.3885413],[16.0428067,50.3885691],[16.0427305,50.3887459]]},"properties":{"amenity":"recycling","barrier":"fence","recycling_type":"centre"}},
{"type":"Feature","geometry":{"type":"LineString","coordinates":[[16.9948364,49.9632783],[16.9949099,49.9630364],[16.9957359,49.9631328],[16.9956858,49.9632957],[16.9956649,49.9633652],[16.9956261,49.9633801],[16.9948355,49.963286],[16.9948364,49.9632783]]},"properties":{"name":"Sběrný dvůr","amenity":"recycling","recycling_type":"centre"}},
{"type":"Feature","geometry":{"type":"LineString","coordinates":[[14.0129851,49.6915062],[14.0130246,49.6912397],[14.0127014,49.6912211],[14.0126878,49.6913199],[14.0126783,49.6913888],[14.0128877,49.6914009],[14.0128746,49.6914968],[14.0129851,49.6915062]]},"properties":{"name":"sběrný dvůr","source":"cuzk:km","amenity":"recycling","recycling_type":"centre"}},
{"type":"Feature","geometry":{"type":"LineString","coordinates":[[17.4829314,49.2013759],[17.4827864,49.2012856],[17.482829,49.2011532],[17.4829661,49.2012165],[17.4829314,49.2013759]]},"properties":{"amenity":"recycling","recycling_type":"centre","website":"https://www.zlutava.cz/obec-608/odpad-centrum/"}},
{"type":"Feature","geometry":{"type":"LineString","coordinates":[[13.7851714,49.0570177],[13.784881,49.057125],[13.784751,49.056973],[13.7850436,49.0568669],[13.7851714,49.0570177]]},"properties":{"name":"Sběrný dvůr","source":"cuzk:km","amenity":"recycling","building":"yes","operator":"Město Vimperk","roof:shape":"flat","roof:colour":"gray","opening_hours":"Mo 08:00-12:00, 14:00-18:00, Tu 14:00-18:00; We 08:00-12:00, 14:00-18:00, Th Closed, Fr 14:00-18:00, Sa 08:00-12:00, Su Closed","recycling_type":"centre"}},
{"type":"Feature","geometry":{"type":"LineString","coordinates":[[14.5712539,49.1006818],[14.5711086,49.1009451],[14.571276,49.1009855],[14.5714204,49.1007247],[14.5712539,49.1006818]]},"properties":{"source":"cuzk:ruian","amenity":"recycling","building":"yes","recycling_type":"centre","ref:ruian:building":"38804158","building:ruian:type":"19"}},
{"type":"Feature","geometry":{"type":"LineString","coordinates":[[17.0960444,49.4532585],[17.0954415,49.4530172],[17.095394,49.4529772],[17.0954164,49.4529192],[17.0951903,49.4527286],[17.0951327,49.4526891],[17.0950926,49.4526615],[17.0944422,49.4528012],[17.094579,49.453253],[17.0960639,49.4533038],[17.0960444,49.4532585]]},"properties":{"name":"Sběrný dvůr","amenity":"recycling","barrier":"fence","landuse":"industrial","recycling_type":"centre"}},
{"type":"Feature","geometry":{"type":"LineString","coordinates":[[13.28052,50.298349],[13.280541,50.29823],[13.279691,50.29817],[13.27967,50.298293],[13.28052,50.298349]]},"properties":{"amenity":"recycling","name":"sběrný dvůr","operator":"Oú Radonice","recycling_type":"centre","source":"cuzk:km"}},
{"type":"Feature","geometry":{"type":"LineString","coordinates":[[13.7147087,49.7830886],[13.7148473,49.7829241],[13.7141225,49.7826707],[13.7139846,49.7828352],[13.7147087,49.7830886]]},"properties":{"name":"Rumpold","source":"cuzk:ruian","amenity":"recycling","recycling_type":"centre","ref:ruian:building":"45266841","building:ruian:type":"12"}},
{"type":"Feature","geometry":{"type":"LineString","coordinates":[[13.799643,49.053391],[13.7989808,49.0535378],[13.7990363,49.0536477],[13.7996983,49.0535014],[13.799643,49.053391]]},"properties":{"name":"Sběrné suroviny","source":"cuzk:ruian","amenity":"recycling","building":"yes","operator":"Sběrné suroviny, a.s.","addr:city":"Vimperk","addr:street":"Špidrova","addr:postcode":"38501","contact:phone":"730 963 344","opening_hours":"Mo-Fr 07:30-11:30, 12:00-16:00; PH off","operator:type":"private","recycling_type":"centre","contact:website":"https://www.sbernesuroviny.cz/","ref:ruian:building":"47491698","building:ruian:type":"19"}},
{"type":"Feature","geometry":{"type":"LineString","coordinates":[[13.9174755,49.2639787],[13.9173687,49.263548],[13.9183747,49.2634417],[13.9184815,49.2638724],[13.9174755,49.2639787]]},"properties":{"name":"Sběrný dvůr","amenity":"recycling","recycling_type":"centre"}},
{"type":"Feature","geometry":{"type":"LineString","coordinates":[[14.1465896,50.1629174],[14.1468212,50.1629769],[14.1468675,50.1629081],[14.1469255,50.162822],[14.1466926,50.1627633],[14.1465896,50.1629174]]},"properties":{"name":"Sběrný dvůr","source":"survey","amenity":"recycling","barrier":"fence","recycling_type":"centre"}},
{"type":"Feature","geometry":{"type":"LineString","coordinates":[[16.2608288,50.1499013],[16.2605232,50.1498206],[16.2603562,50.1498287],[16.2602901,50.1499309],[16.2604021,50.1500147],[16.2607756,50.1499868],[16.2608288,50.1499013]]},"properties":{"amenity":"recycling","building":"yes","recycling_type":"centre","source":"cuzk:km"}},
{"type":"Feature","geometry":{"type":"LineString","coordinates":[[18.1324792,49.8421456],[18.1324084,49.84202],[18.1327094,49.8419628],[18.1327838,49.8420679],[18.1324792,49.8421456]]},"properties":{"amenity":"recycling","recycling_type":"centre"}},
{"type":"Feature","geometry":{"type":"LineString","coordinates":[[14.447633,50.1353488],[14.4491136,50.1353135],[14.4491978,50.1351326],[14.4491458,50.1346817],[14.4488974,50.1345618],[14.4478744,50.1350599],[14.447633,50.135225],[14.4476309,50.1352658],[14.447633,50.1353488]]},"properties":{"amenity":"recycling","barrier":"fence","recycling_type":"centre"}},
{"type":"Feature","geometry":{"type":"LineString","coordinates":[[15.0346441,49.4918627],[15.0339488,49.491668],[15.0339488,49.4912164],[15.0346441,49.4898538],[15.0351252,49.4896068],[15.0353873,49.4894722],[15.036622,49.4895034],[15.037769,49.4897518],[15.0392831,49.4900796],[15.0396667,49.4907492],[15.0393311,49.4912164],[15.0384251,49.4913352],[15.0362241,49.4916237],[15.0358481,49.4916806],[15.0346441,49.4918627]]},"properties":{"amenity":"recycling","name":"Skládka odpadu - Hrádek","recycling_type":"centre"}},
{"type":"Feature","geometry":{"type":"LineString","coordinates":[[14.9403644,50.4838091],[14.9407018,50.4836679],[14.9404478,50.4834174],[14.9403017,50.4832733],[14.9401173,50.483175],[14.9399001,50.483128],[14.9397583,50.4831368],[14.9396222,50.4831697],[14.9392099,50.4836122],[14.9392036,50.4838445],[14.9393808,50.4840454],[14.9394901,50.4841729],[14.9397384,50.4840737],[14.9402534,50.4838552],[14.9403644,50.4838091]]},"properties":{"amenity":"recycling","recycling_type":"centre"}},
{"type":"Feature","geometry":{"type":"LineString","coordinates":[[14.5912925,50.0396095],[14.5910223,50.0398251],[14.5907638,50.0396817],[14.5907452,50.0396713],[14.5908735,50.0395818],[14.5909995,50.0394938],[14.5910503,50.0394584],[14.5912461,50.0395787],[14.5912925,50.0396095]]},"properties":{"name":"Sběrný dvůr","amenity":"recycling","barrier":"fence","recycling_type":"centre"}},
{"type":"Feature","geometry":{"type":"LineString","coordinates":[[14.4048105,49.9964352],[14.4047388,49.9954338],[14.4047665,49.9948039],[14.4052059,49.9948007],[14.405127,49.995608],[14.4051055,49.9960359],[14.4050623,49.9964399],[14.4048105,49.9964352]]},"properties":{"amenity":"recycling","recycling_type":"centre"}},
{"type":"Feature","geometry":{"type":"LineString","coordinates":[[14.4060717,49.9943122],[14.4060638,49.994423],[14.4055513,49.9946859],[14.405531,49.9947696],[14.4056001,49.9948558],[14.4057586,49.9949081],[14.4059715,49.9948767],[14.4060635,49.9948009],[14.4061164,49.9947774],[14.4061977,49.9946572],[14.4062953,49.9944847],[14.4063197,49.9944298],[14.4061855,49.9944272],[14.4061814,49.9943279],[14.4060717,49.9943122]]},"properties":{"name":"Sběrné suroviny","source":"craftak","amenity":"recycling","name:en":"Scrap yard","recycling_type":"centre"}},
{"type":"Feature","geometry":{"type":"LineString","coordinates":[[14.1773092,50.1512559],[14.1777714,50.1514099],[14.1775989,50.1516349],[14.177186,50.1515559],[14.1773092,50.1512559]]},"properties":{"name":"Sběrný dvůr","source":"survey","amenity":"recycling","landuse":"landfill","operator":"Město Buštěhrad","opening_hours":"Tu 14:30-16:30; Th 14:30-16:30; Sa 10:00-12:00; Su 13:00-15:00","recycling_type":"centre"}},
{"type":"Feature","geometry":{"type":"LineString","coordinates":[[13.7986901,49.05159],[13.7990191,49.0517152],[13.7991131,49.0515961],[13.7987809,49.0514811],[13.7986901,49.05159]]},"properties":{"name":"Jihosepar a.s.","access":"private","amenity":"recycling","building":"yes","addr:city":"Vimperk","addr:street":"Špidrova","addr:country":"CZ","addr:postcode":"38501","opening_hours":"Mo-Fr 08:00-14:30; PH off","recycling_type":"centre","contact:website":"https://jihosepar.cz/","addr:housenumber":"128"}},
{"type":"Feature","geometry":{"type":"LineString","coordinates":[[16.6707725,49.7617623],[16.6708706,49.7616318],[16.6708497,49.7615005],[16.6708013,49.761412],[16.6697872,49.7615455],[16.669171,49.761696],[16.66932,49.7616771],[16.670253,49.7618043],[16.6705298,49.7618249],[16.6707725,49.7617623]]},"properties":{"amenity":"recycling","email":"suroviny@mtr.cz","name":"SUROVINY PAVEL SMÉKAL, s.r.o.","opening_hours":"Mo-Fr 08:00-17:00; Sa 08:00-12:00","phone":"461 31 24 79","recycling_type":"centre","website":"http://www.surovinysmekal.cz/"}},
{"type":"Feature","geometry":{"type":"LineString","coordinates":[[14.4693798,50.3686796],[14.4697955,50.3688567],[14.4700015,50.3686813],[14.4696336,50.3685059],[14.4693798,50.3686796]]},"properties":{"name":"sběrný dvůr Mlazice","amenity":"recycling","recycling_type":"centre"}},
{"type":"Feature","geometry":{"type":"LineString","coordinates":[[15.6817024,49.3117369],[15.6819802,49.3114536],[15.6814881,49.3112311],[15.6815337,49.3115894],[15.6817024,49.3117369]]},"properties":{"source":"survey; Bing","amenity":"recycling","landuse":"industrial","recycling_type":"centre"}},
{"type":"Feature","geometry":{"type":"LineString","coordinates":[[13.2986143,49.7069355],[13.3004064,49.7068991],[13.3006394,49.7065423],[13.2999763,49.7063208],[13.299351,49.706338],[13.2993017,49.7065832],[13.2985889,49.7066829],[13.2986143,49.7069355]]},"properties":{"source":"Bing","amenity":"recycling","recycling_type":"centre"}},
{"type":"Feature","geometry":{"type":"LineString","coordinates":[[16.0334857,49.7099471],[16.0331648,49.7099318],[16.0331047,49.709749],[16.033482,49.7097278],[16.0334857,49.7099471]]},"properties":{"amenity":"recycling","recycling_type":"centre","website":"http://www.svratka.cz/sberny-dvur-ve-svratce/"}},
{"type":"Feature","geometry":{"type":"LineString","coordinates":[[15.7946821,49.9402852],[15.7947509,49.940141],[15.7948534,49.9400593],[15.7951684,49.9398844],[15.7957083,49.9396222],[15.7958692,49.9397005],[15.7960778,49.9398084],[15.7958648,49.9399799],[15.7955758,49.9402762],[15.7956031,49.9402949],[15.7955604,49.940338],[15.7953268,49.940251],[15.7952855,49.9402925],[15.7949371,49.9401489],[15.7947709,49.9403183],[15.7947308,49.9403034],[15.7946821,49.9402852]]},"properties":{"amenity":"recycling","name":"Sběrný dvůr","opening_hours":"Mo,Tu 08:00-18:00; We 12:00-18:00; Th-Sa 08:00-18:00","recycling_type":"centre"}},
{"type":"Feature","geometry":{"type":"LineString","coordinates":[[18.0281927,49.6065479],[18.0285053,49.6063091],[18.0286507,49.6062411],[18.0296628,49.606562],[18.0294897,49.6067881],[18.0294685,49.6068165],[18.0294468,49.6068457],[18.0293842,49.6069264],[18.0286666,49.6066985],[18.0286531,49.6066942],[18.0284196,49.60662],[18.0281927,49.6065479]]},"properties":{"source":"survey; GPS track","amenity":"recycling","barrier":"fence","recycling_type":"centre"}},
{"type":"Feature","geometry":{"type":"LineString","coordinates":[[14.3703278,50.0585583],[14.3706658,50.0584791],[14.371567,50.0588459],[14.3714329,50.059223],[14.3715777,50.0592643],[14.3717459,50.0588682],[14.3717709,50.0588201],[14.3719353,50.0588682],[14.3720601,50.0588987],[14.3720988,50.0589096],[14.3726158,50.0590131],[14.3724495,50.0593661],[14.3723448,50.0596897],[14.371457,50.0595829],[14.3712773,50.0596501],[14.3712156,50.0596242],[14.3703278,50.0585583]]},"properties":{"amenity":"recycling","recycling_type":"centre"}},
{"type":"Feature","geometry":{"type":"LineString","coordinates":[[17.4971767,49.1377895],[17.4973386,49.137682],[17.4976376,49.1374814],[17.4974763,49.1373769],[17.4969837,49.1370602],[17.4968635,49.1370812],[17.496529,49.1373727],[17.4969111,49.1376186],[17.4971767,49.1377895]]},"properties":{"name":"Sběrný dvůr","amenity":"recycling","barrier":"fence","recycling_type":"centre"}},
{"type":"Feature","geometry":{"type":"LineString","coordinates":[[14.6366309,49.9221445],[14.6366448,49.9222457],[14.6366506,49.9223441],[14.6366738,49.9224188],[14.6369099,49.9223936],[14.6368947,49.9222011],[14.6368493,49.9221986],[14.636843,49.922145],[14.6366309,49.9221445]]},"properties":{"amenity":"recycling","recycling_type":"centre"}},
{"type":"Feature","geometry":{"type":"LineString","coordinates":[[16.5469703,49.0783456],[16.5468884,49.0783021],[16.5468151,49.0782609],[16.5468908,49.0782185],[16.547511,49.078206],[16.54767,49.078205],[16.547723,49.078205],[16.5477345,49.0783885],[16.5469703,49.0783456]]},"properties":{"amenity":"recycling","barrier":"wall","recycling_type":"centre"}},
{"type":"Feature","geometry":{"type":"LineString","coordinates":[[14.3762817,50.0610567],[14.3760637,50.060927],[14.3766498,50.0605007],[14.3769182,50.0604975],[14.3767747,50.0607327],[14.3765304,50.0609101],[14.3762817,50.0610567]]},"properties":{"amenity":"recycling","recycling_type":"centre"}},
{"type":"Feature","geometry":{"type":"LineString","coordinates":[[14.3740051,50.0977046],[14.3740753,50.0977172],[14.3742854,50.097749],[14.3743254,50.0976605],[14.3746935,50.0977265],[14.3746778,50.0977533],[14.3748168,50.0977863],[14.3752557,50.0978929],[14.3752608,50.0978829],[14.3752671,50.0978838],[14.3752801,50.097847],[14.3753319,50.0977562],[14.3755714,50.0974573],[14.3754875,50.0974289],[14.3755108,50.0974056],[14.3755287,50.0973877],[14.375605,50.097415],[14.375693,50.097299],[14.37562,50.097275],[14.3757204,50.097157],[14.3757804,50.0970405],[14.3748565,50.0968468],[14.3745725,50.0967683],[14.3745566,50.0967653],[14.3743765,50.0967355],[14.374327,50.0968471],[14.3741826,50.0971722],[14.374163,50.0972165],[14.3741028,50.0973522],[14.3741626,50.0973673],[14.3740051,50.0977046]]},"properties":{"name":"Sběrný dvůr Hlavního města Prahy","phone":"+420 736 518 204","amenity":"recycling","website":"https://www.komwag.cz/odpady/sberny-dvur-hl-m-prahy","opening_hours":"Mo-Fr 08:30-17:00; Sa 08:30-15:00","recycling_type":"centre"}},
{"type":"Feature","geometry":{"type":"LineString","coordinates":[[14.5143853,49.9421083],[14.514532,49.9420524],[14.5143385,49.9418073],[14.5141784,49.9418623],[14.5143853,49.9421083]]},"properties":{"source":"cuzk:ruian","amenity":"recycling","building":"yes","recycling_type":"centre","ref:ruian:building":"24550957","building:ruian:type":"19"}},
{"type":"Feature","geometry":{"type":"LineString","coordinates":[[15.7740135,49.6359906],[15.7743743,49.6362477],[15.7746841,49.6360644],[15.7746573,49.6360331],[15.7747994,49.635955],[15.7750918,49.6358594],[15.7745285,49.6356284],[15.7742965,49.6357734],[15.7743341,49.6358012],[15.7740135,49.6359906]]},"properties":{"amenity":"recycling","recycling_type":"centre"}},
{"type":"Feature","geometry":{"type":"LineString","coordinates":[[16.3826956,48.7271112],[16.3828397,48.7271616],[16.3830657,48.7268922],[16.3828914,48.7268701],[16.3826956,48.7271112]]},"properties":{"addr:city":"Laa an der Thaya","addr:country":"AT","addr:housenumber":"18","addr:postcode":"2136","addr:street":"Frauenbildweg","amenity":"recycling","building":"yes","name":"Altstoffsammelzentrum Laa/Thaya","recycling_type":"centre"}},
{"type":"Feature","geometry":{"type":"LineString","coordinates":[[14.0587218,49.6847743],[14.0594048,49.6848021],[14.0593484,49.6846176],[14.0593549,49.6844256],[14.0594104,49.6842452],[14.0594997,49.6841407],[14.0593143,49.6840953],[14.0593304,49.6840398],[14.0592124,49.6839912],[14.0591963,49.6836788],[14.0592755,49.6833812],[14.0589656,49.6834914],[14.0585862,49.6838385],[14.0586599,49.6842977],[14.0587218,49.6847743]]},"properties":{"name":"Recyklacni centrum Bytiz","email":"skladka@bytiz.cz","phone":"+420312312762","amenity":"recycling","opening_hours":"Mo-Sa 07:00-15:00","recycling_type":"centre"}},
{"type":"Feature","geometry":{"type":"LineString","coordinates":[[13.342307,49.7440549],[13.342242,49.7441916],[13.3425095,49.7442523],[13.3433084,49.7444338],[13.3433803,49.7442819],[13.342307,49.7440549]]},"properties":{"source":"survey","amenity":"recycling","recycling_type":"centre"}},
{"type":"Feature","geometry":{"type":"LineString","coordinates":[[13.3781946,49.7236676],[13.3784103,49.7232661],[13.37876,49.7233503],[13.3786014,49.7237032],[13.3783865,49.7236844],[13.3781946,49.7236676]]},"properties":{"source":"cuzk:km;survey","amenity":"recycling","recycling_type":"centre"}},
{"type":"Feature","geometry":{"type":"LineString","coordinates":[[14.527759,48.9702918],[14.5275528,48.9704003],[14.527712,48.9707804],[14.5279361,48.9707566],[14.527759,48.9702918]]},"properties":{"amenity":"recycling","recycling_type":"centre"}},
{"type":"Feature","geometry":{"type":"LineString","coordinates":[[16.7621004,50.0813945],[16.7626302,50.0815279],[16.7626758,50.0816044],[16.7620964,50.0817223],[16.7621004,50.0813945]]},"properties":{"name":"Sběrný dvůr","amenity":"recycling","operator":"Služby města Králíky","description":"Příchod do areálu sběrných dvorů hlaste v kanceláři!","opening_hours":"Mo-Th 06:00-14:30; Apr-Oct Fr 06:00-17:00; Nov-Mar Fr 06:00-16:00; Apr-Oct Sa 08:00-12:00; Nov-Mar Sa off; Su,PH off","recycling_type":"centre","contact:website":"http://www.smkraliky.cz/dvur.html"}},
{"type":"Feature","geometry":{"type":"LineString","coordinates":[[14.5776555,50.0417334],[14.5780826,50.0419361],[14.5784148,50.0421634],[14.5785987,50.0420542],[14.5784702,50.0419399],[14.5786145,50.0418587],[14.5779778,50.0414066],[14.5775251,50.0416276],[14.5776555,50.0417334]]},"properties":{"amenity":"recycling","operator":"Megašrot","recycling_type":"centre"}},
{"type":"Feature","geometry":{"type":"LineString","coordinates":[[13.7484317,49.785459],[13.7483112,49.7847864],[13.7486299,49.7847108],[13.7502272,49.7845382],[13.7503817,49.7845449],[13.7504762,49.784529],[13.750626,49.7845073],[13.7506882,49.7846864],[13.7513343,49.7862016],[13.7507662,49.786246],[13.7486286,49.7857126],[13.7484317,49.785459]]},"properties":{"amenity":"recycling","name":"kompostárna","recycling_type":"centre"}},
{"type":"Feature","geometry":{"type":"LineString","coordinates":[[17.0370741,48.859053],[17.0371402,48.858815],[17.0373351,48.8588385],[17.0380912,48.8589294],[17.0380251,48.8591673],[17.0370741,48.859053]]},"properties":{"name":"Sběrný dvůr Dolní Bojanovice","amenity":"recycling","recycling_type":"centre"}},
{"type":"Feature","geometry":{"type":"LineString","coordinates":[[13.7406343,49.7869971],[13.7406378,49.7867297],[13.7409386,49.7866658],[13.7408466,49.7869971],[13.7406343,49.7869971]]},"properties":{"amenity":"recycling","recycling_type":"centre"}},
{"type":"Feature","geometry":{"type":"LineString","coordinates":[[17.1319156,49.4747955],[17.1319799,49.4747191],[17.1320845,49.4746027],[17.1311428,49.4744276],[17.1308637,49.4744752],[17.1310914,49.4745799],[17.1312354,49.4746386],[17.1314825,49.4747126],[17.1317425,49.4747698],[17.1319156,49.4747955]]},"properties":{"amenity":"recycling","barrier":"wall","name":"výkup kovů HOPR","operator":"HOPR .cz Zábřeh","recycling_type":"centre"}},
{"type":"Feature","geometry":{"type":"LineString","coordinates":[[17.1308637,49.4744752],[17.13057,49.4742945],[17.1307768,49.473909],[17.1307558,49.4730619],[17.1305142,49.4725646],[17.1307748,49.472564],[17.131015,49.472592],[17.1311428,49.4744276],[17.1308637,49.4744752]]},"properties":{"amenity":"recycling","recycling_type":"centre"}},
{"type":"Feature","geometry":{"type":"LineString","coordinates":[[16.9071393,48.9619343],[16.9080519,48.9616464],[16.9077897,48.9612882],[16.9068771,48.9615761],[16.9071393,48.9619343]]},"properties":{"amenity":"recycling","recycling_type":"centre"}},
{"type":"Feature","geometry":{"type":"LineString","coordinates":[[16.1188021,50.3819666],[16.1191079,50.3820401],[16.1195666,50.3817117],[16.1193694,50.381663],[16.1191012,50.3816733],[16.1190046,50.3817237],[16.1190516,50.3817673],[16.1188021,50.3819666]]},"properties":{"amenity":"recycling","recycling_type":"centre"}},
{"type":"Feature","geometry":{"type":"LineString","coordinates":[[18.1987982,49.7566541],[18.1988728,49.7567721],[18.1990806,49.7567031],[18.1990054,49.7566147],[18.1989115,49.7566199],[18.1987982,49.7566541]]},"properties":{"name":"Sběrný dvůt","amenity":"recycling","landuse":"industrial","operator":"OZO","recycling_type":"centre"}},
{"type":"Feature","geometry":{"type":"LineString","coordinates":[[15.3860932,50.5263024],[15.3856916,50.5266153],[15.3852293,50.5263847],[15.3857279,50.5260278],[15.3860932,50.5263024]]},"properties":{"name":"Sběrný dvůr","source":"cuzk:km;územní plán","amenity":"recycling","recycling_type":"centre"}},
{"type":"Feature","geometry":{"type":"LineString","coordinates":[[16.8880758,48.9156906],[16.8881106,48.915472],[16.8886712,48.9154438],[16.8886968,48.9154462],[16.8887275,48.9154491],[16.8889099,48.9154737],[16.8888885,48.9156042],[16.8887973,48.9156588],[16.8886846,48.9157329],[16.8880758,48.9156906]]},"properties":{"amenity":"recycling","barrier":"wall","recycling_type":"centre"}},
{"type":"Feature","geometry":{"type":"LineString","coordinates":[[13.352701,49.777149],[13.352681,49.776998],[13.351985,49.776838],[13.351904,49.776868],[13.352154,49.777211],[13.352701,49.777149]]},"properties":{"source":"survey","amenity":"recycling","recycling_type":"centre"}},
{"type":"Feature","geometry":{"type":"LineString","coordinates":[[16.7025469,48.8539411],[16.702737,48.8538067],[16.7031519,48.8540569],[16.7029618,48.8541935],[16.7025469,48.8539411]]},"properties":{"source":"cuzk:ruian","amenity":"recycling","recycling_type":"centre","building:levels":"1","ref:ruian:building":"81207689","building:ruian:type":"13"}},
{"type":"Feature","geometry":{"type":"LineString","coordinates":[[18.4899042,49.7986418],[18.4898745,49.7985953],[18.4897231,49.7983592],[18.4896801,49.7982921],[18.4899416,49.7982258],[18.4901518,49.7985755],[18.4899042,49.7986418]]},"properties":{"name":"Sběrný dvůr Horní Suchá","amenity":"recycling","operator":"Depos","addr:city":"Horní Suchá","addr:street":"Chrost","addr:postcode":"73535","recycling_type":"centre"}},
{"type":"Feature","geometry":{"type":"LineString","coordinates":[[18.2484211,49.8340113],[18.2486243,49.8341558],[18.2488602,49.8340206],[18.2491654,49.8338457],[18.248987,49.833693],[18.2486967,49.8338563],[18.2486651,49.8338741],[18.24861,49.833905],[18.2484211,49.8340113]]},"properties":{"name":"Sběrný dvůr","amenity":"recycling","barrier":"fence","landuse":"industrial","operator":"OZO!!!","recycling_type":"centre"}},
{"type":"Feature","geometry":{"type":"LineString","coordinates":[[16.5525053,49.0625556],[16.5524476,49.0625416],[16.5525106,49.062441],[16.5525817,49.0624555],[16.5525053,49.0625556]]},"properties":{"amenity":"recycling","recycling_type":"centre","source:amenity":"survey"}},
{"type":"Feature","geometry":{"type":"LineString","coordinates":[[12.7339215,49.8715393],[12.7339577,49.8716549],[12.7340165,49.871651],[12.7340371,49.871678],[12.7340602,49.8717084],[12.7345578,49.8716821],[12.734649,49.8716417],[12.7345854,49.8715385],[12.7345457,49.8714926],[12.7339215,49.8715393]]},"properties":{"name":"Sbětný dvůr Planá","amenity":"recycling","recycling_type":"centre"}},
{"type":"Feature","geometry":{"type":"LineString","coordinates":[[14.2950651,50.8451139],[14.2957105,50.8452466],[14.2958605,50.8449556],[14.2952151,50.8448229],[14.2950651,50.8451139]]},"properties":{"name":"Sběrný dvůr","amenity":"recycling","operator":"Obec Růžová","opening_hours":"Sa 08:00-12:00","recycling_type":"centre"}},
{"type":"Feature","geometry":{"type":"LineString","coordinates":[[14.1627923,49.3135355],[14.1631163,49.3140538],[14.1635624,49.3139636],[14.1634889,49.3137629],[14.1633356,49.3134461],[14.1627923,49.3135355]]},"properties":{"amenity":"recycling","recycling_type":"centre"}},
{"type":"Feature","geometry":{"type":"LineString","coordinates":[[14.5531885,50.2675624],[14.553754,50.2669282],[14.5541836,50.2671613],[14.5542019,50.2675152],[14.5542197,50.267591],[14.5537178,50.2678572],[14.5531885,50.2675624]]},"properties":{"amenity":"recycling","barrier":"fence","recycling_type":"centre"}},
{"type":"Feature","geometry":{"type":"LineString","coordinates":[[14.0516667,49.3665977],[14.0517511,49.3667766],[14.0517969,49.3667438],[14.0519417,49.3667619],[14.052312,49.3667547],[14.0524456,49.3666549],[14.0524568,49.3665135],[14.0523064,49.3662796],[14.0523399,49.366169],[14.0521829,49.3661546],[14.052144,49.3662297],[14.0519837,49.3663581],[14.0517913,49.3664882],[14.0516667,49.3665977]]},"properties":{"amenity":"recycling","recycling_type":"centre"}},
{"type":"Feature","geometry":{"type":"LineString","coordinates":[[14.4609877,51.0076731],[14.4607141,51.0074006],[14.4611033,51.0071839],[14.4614435,51.0075291],[14.4609877,51.0076731]]},"properties":{"amenity":"recycling","landuse":"industrial","name":"sběrné suroviny","recycling_type":"centre"}},
{"type":"Feature","geometry":{"type":"LineString","coordinates":[[14.1399899,49.3173079],[14.1400184,49.3170432],[14.1413901,49.3170961],[14.141362,49.3173689],[14.1413612,49.3173763],[14.1405436,49.3173355],[14.1399899,49.3173079]]},"properties":{"amenity":"recycling","landuse":"industrial","recycling_type":"centre"}},
{"type":"Feature","geometry":{"type":"LineString","coordinates":[[14.8852815,50.0808437],[14.8853781,50.0807095],[14.8861291,50.0808988],[14.8862122,50.0811174],[14.8852815,50.0808437]]},"properties":{"name":"Sběrný dvůr","amenity":"recycling","website":"https://www.tsceskybrod.cz/sberny-dvur","recycling_type":"centre"}},
{"type":"Feature","geometry":{"type":"LineString","coordinates":[[16.5455879,49.1649529],[16.5452862,49.1646722],[16.545372,49.1646339],[16.5456793,49.1644966],[16.5457998,49.1644381],[16.5460908,49.1647073],[16.5455879,49.1649529]]},"properties":{"name":"Recyklační centrum, sběrný dvůr odpadů obce Ostopovice","amenity":"recycling","operator":"Obec Ostopovice","recycling_type":"centre"}},
{"type":"Feature","geometry":{"type":"LineString","coordinates":[[16.6219752,49.4656915],[16.6219671,49.4658345],[16.6221307,49.4658685],[16.6223373,49.4659417],[16.6223614,49.4658955],[16.6224137,49.4656959],[16.6219752,49.4656915]]},"properties":{"name":"Sběrný dvůr Lhota Rapotina","amenity":"recycling","landuse":"industrial","recycling_type":"centre"}},
{"type":"Feature","geometry":{"type":"LineString","coordinates":[[18.2177521,49.6984569],[18.2174255,49.6988229],[18.2181819,49.699006],[18.2182284,49.698989],[18.2183314,49.6989513],[18.2184649,49.6988789],[18.2181101,49.6986802],[18.2177521,49.6984569]]},"properties":{"amenity":"recycling","barrier":"fence","landuse":"industrial","recycling_type":"centre"}},
{"type":"Feature","geometry":{"type":"LineString","coordinates":[[18.2285602,49.4309359],[18.228531,49.4308691],[18.2285787,49.4308603],[18.2286079,49.4309271],[18.2285602,49.4309359]]},"properties":{"amenity":"recycling","recycling_type":"centre"}},
{"type":"Feature","geometry":{"type":"LineString","coordinates":[[14.2243294,50.0589087],[14.2250471,50.0588863],[14.2249799,50.0584479],[14.2246085,50.0581855],[14.224444,50.0584415],[14.2243294,50.0589087]]},"properties":{"name":"Myslivna","amenity":"recycling","website":"https://www.chyne.cz/obecniurad/odpady/1276-nakladani-s-odpady","opening_hours":"Sa[1] 08:00-11:00","recycling_type":"centre"}},
{"type":"Feature","geometry":{"type":"LineString","coordinates":[[14.4509292,48.9876006],[14.4506035,48.9866484],[14.4507708,48.9866213],[14.4508233,48.9866129],[14.4511116,48.9874942],[14.4509827,48.9876102],[14.4509292,48.9876006]]},"properties":{"amenity":"recycling","landuse":"industrial","recycling_type":"centre"}},
{"type":"Feature","geometry":{"type":"LineString","coordinates":[[14.4397983,48.9725482],[14.4401584,48.9725766],[14.4401724,48.9725312],[14.4401836,48.9725025],[14.44036,48.9723201],[14.4404855,48.972147],[14.4404535,48.9721227],[14.4402335,48.9720579],[14.4402194,48.9720552],[14.4399297,48.9723651],[14.4397983,48.9725482]]},"properties":{"amenity":"recycling","landuse":"industrial","recycling_type":"centre"}},
{"type":"Feature","geometry":{"type":"LineString","coordinates":[[16.5011894,50.0323914],[16.5019802,50.0324188],[16.5021652,50.0326303],[16.5021611,50.0326917],[16.5013358,50.0326538],[16.5011894,50.0323914]]},"properties":{"amenity":"recycling","recycling_type":"centre"}},
{"type":"Feature","geometry":{"type":"LineString","coordinates":[[14.1121209,50.1633727],[14.1122046,50.1632161],[14.1125495,50.1631453],[14.1129079,50.1630123],[14.113082,50.1630187],[14.1130787,50.1632032],[14.1130519,50.1633963],[14.1129012,50.1636302],[14.1127907,50.1637675],[14.1124055,50.1635744],[14.1121209,50.1633727]]},"properties":{"amenity":"recycling","recycling_type":"centre"}},
{"type":"Feature","geometry":{"type":"LineString","coordinates":[[14.113358,50.1622184],[14.1134662,50.1621546],[14.1132985,50.1620841],[14.113165,50.1620045],[14.1131468,50.1619565],[14.1127519,50.1617165],[14.1125879,50.1619947],[14.1129722,50.1620964],[14.113115,50.1620836],[14.113358,50.1622184]]},"properties":{"amenity":"recycling","recycling_type":"centre"}},
{"type":"Feature","geometry":{"type":"LineString","coordinates":[[14.8453563,50.2108131],[14.8454663,50.210929899999999],[14.8454752,50.2112371],[14.845477,50.2113023],[14.8447904,50.2113126],[14.8447877,50.2112354],[14.8446536,50.211232],[14.8446456,50.2110878],[14.8449996,50.2108166],[14.8453563,50.2108131]]},"properties":{"name":"Sběrný dvůr","amenity":"recycling","operator":"FCC Česká republika s. r. o.","opening_hours":"Mo-Fr 08:00-12:00,13:00-17:00; Sa 08:00-13:00","recycling_type":"centre"}},
{"type":"Feature","geometry":{"type":"LineString","coordinates":[[18.2487255,49.3505042],[18.2499835,49.3504325],[18.2498869,49.3496681],[18.2485619,49.3497825],[18.2487255,49.3505042]]},"properties":{"amenity":"recycling","landuse":"industrial","recycling_type":"centre"}},
{"type":"Feature","geometry":{"type":"LineString","coordinates":[[16.4792811,49.75616],[16.4791993,49.7558749],[16.4797154,49.7559186],[16.4797504,49.7558688],[16.4807895,49.7559971],[16.4806961,49.7563138],[16.480166,49.7562505],[16.479854,49.7562],[16.4793698,49.7561373],[16.4792811,49.75616]]},"properties":{"amenity":"recycling","recycling_type":"centre"}},
{"type":"Feature","geometry":{"type":"LineString","coordinates":[[15.9064142,50.1157337],[15.9065971,50.1157417],[15.9066421,50.1153191],[15.9066255,50.1153189],[15.9064592,50.1153111],[15.9064142,50.1157337]]},"properties":{"amenity":"recycling","operator":"Obec Býšť","recycling_type":"centre"}},
{"type":"Feature","geometry":{"type":"LineString","coordinates":[[14.245594,50.0395311],[14.2463952,50.0396113],[14.2464312,50.0395526],[14.2461304,50.0394413],[14.2457543,50.0393021],[14.2456828,50.0392757],[14.245594,50.0395311]]},"properties":{"amenity":"recycling","recycling_type":"centre"}},
{"type":"Feature","geometry":{"type":"LineString","coordinates":[[14.1406935,49.3180834],[14.1406573,49.3180825],[14.140776,49.3177603],[14.1408098,49.317763],[14.1407821,49.3178367],[14.1408829,49.3177976],[14.1412751,49.3178608],[14.1412398,49.3179495],[14.1412428,49.3179671],[14.141249,49.3179756],[14.1412628,49.3179826],[14.1412782,49.3179846],[14.1413259,49.3179821],[14.1414067,49.3179826],[14.1414444,49.3179851],[14.1415121,49.3179937],[14.1414836,49.3180764],[14.1412208,49.3180814],[14.1408586,49.3180888],[14.1406935,49.3180834]]},"properties":{"amenity":"recycling","recycling_type":"centre"}},
{"type":"Feature","geometry":{"type":"LineString","coordinates":[[15.581128,49.8671148],[15.581081,49.8673249],[15.5810823,49.8673435],[15.5810996,49.8673558],[15.5811875,49.8673726],[15.5812619,49.8673589],[15.5813203,49.8673589],[15.5813804,49.8673954],[15.5821413,49.8674707],[15.5821056,49.8673562],[15.5820246,49.8672061],[15.5819429,49.8671558],[15.5816771,49.8672163],[15.5814816,49.8671954],[15.5814237,49.8671672],[15.581128,49.8671148]]},"properties":{"amenity":"recycling","recycling_type":"centre"}},
{"type":"Feature","geometry":{"type":"LineString","coordinates":[[14.3338511,48.8103356],[14.3337712,48.8102496],[14.333688,48.8101631],[14.3335458,48.810079],[14.3333768,48.810036],[14.3332861,48.8100309],[14.3331757,48.8100289],[14.3330295,48.8100415],[14.3329697,48.8100616],[14.3329323,48.8100816],[14.33293,48.8101139],[14.332958,48.8101586],[14.333024,48.810213],[14.3329667,48.8102138],[14.3328753,48.8102117],[14.332743,48.8101639],[14.3325916,48.8102462],[14.3324268,48.8103459],[14.3323472,48.8104145],[14.3323116,48.8104809],[14.3323359,48.8105349],[14.3324407,48.8105942],[14.3325315,48.8106103],[14.3327674,48.8106218],[14.3330527,48.8106181],[14.3333174,48.8106059],[14.3335751,48.8105951],[14.3337348,48.8105216],[14.3338151,48.8104295],[14.3338511,48.8103356]]},"properties":{"name":"sběrný dvůr","amenity":"recycling","addr:city":"Český Krumlov","addr:street":"Kaplická","addr:postcode":"38101","recycling_type":"centre"}},
{"type":"Feature","geometry":{"type":"LineString","coordinates":[[15.1706017,50.4673816],[15.1706213,50.4674055],[15.1707686,50.4675805],[15.1708813,50.4677043],[15.1713929,50.4674661],[15.1711489,50.4672075],[15.1706017,50.4673816]]},"properties":{"name":"Sběrný dvůr","amenity":"recycling","recycling_type":"centre"}},
{"type":"Feature","geometry":{"type":"LineString","coordinates":[[14.2928257,48.7777732],[14.2923692,48.7780224],[14.2923964,48.7780918],[14.2923661,48.7785176],[14.2927657,48.7785691],[14.2929217,48.7784862],[14.2930922,48.7783788],[14.2933898,48.778303],[14.2934397,48.7782812],[14.2935721,48.7781561],[14.2935436,48.7781441],[14.293576,48.7781],[14.2932667,48.7779613],[14.2929538,48.7778278],[14.2928257,48.7777732]]},"properties":{"addr:city":"Větřní","addr:street":"Šumavská","amenity":"recycling","description":"Listopad-Březen: v pracovní dny otevřeno do 17:00","name":"Sběrný dvůr Větřní","opening_hours":"Mo 14-19; We 14-19; Fr 11-19; Sa 08-16","operator":"KAPEX s.r.o","operator:type":"public","phone":"+420775563381","recycling_type":"centre"}},
{"type":"Feature","geometry":{"type":"LineString","coordinates":[[16.7086561,48.9591363],[16.7086655,48.9587409],[16.7080647,48.9587356],[16.7084,48.9591354],[16.7085284,48.9591359],[16.7086561,48.9591363]]},"properties":{"amenity":"recycling","barrier":"fence","fence_type":"chain_link","recycling_type":"centre"}},
{"type":"Feature","geometry":{"type":"LineString","coordinates":[[15.1291511,50.1458789],[15.1290365,50.1457948],[15.12899,50.1457632],[15.1290802,50.1457151],[15.1289997,50.1456543],[15.1290332,50.1456371],[15.1290995,50.1456019],[15.1290286,50.1455483],[15.1290879,50.1455171],[15.1288291,50.1453274],[15.1290072,50.1452136],[15.1292653,50.1453821],[15.1293607,50.1453387],[15.1293652,50.1453367],[15.1294685,50.1452482],[15.129495,50.145227],[15.1297606,50.1454039],[15.1298292,50.1454495],[15.1298552,50.1454672],[15.1297314,50.1455475],[15.1294301,50.1457268],[15.1293831,50.1457013],[15.1291511,50.1458789]]},"properties":{"amenity":"recycling","recycling_type":"centre"}},
{"type":"Feature","geometry":{"type":"LineString","coordinates":[[14.7834603,50.1660143],[14.7836435,50.1660135],[14.7837935,50.1660146],[14.7840294,50.1660002],[14.7842154,50.1659544],[14.7842223,50.1659474],[14.7843986,50.1659789],[14.7845103,50.1662957],[14.7837567,50.1663243],[14.7834603,50.1660143]]},"properties":{"name":"Sběrný dvůr","amenity":"recycling","website":"http://ts.celakovice-mesto.cz/sd_provoz.php","operator":"Technické služby Čelákovice příspěvková organizace","opening_hours":"Fr 16:00-17:00; Sa 10:00-11:30","recycling_type":"centre"}},
{"type":"Feature","geometry":{"type":"LineString","coordinates":[[14.4763552,50.0538864],[14.4766318,50.0539569],[14.4768381,50.0534298],[14.4764825,50.0534016],[14.4763552,50.0538864]]},"properties":{"amenity":"recycling","name":"Výkupna surovin Záběhlice","recycling_type":"centre","website":"https://kovo-group.cz/#chodovska"}},
{"type":"Feature","geometry":{"type":"LineString","coordinates":[[16.9266256,48.7782478],[16.9277693,48.7785836],[16.9286921,48.7776658],[16.9276561,48.7772218],[16.9266256,48.7782478]]},"properties":{"amenity":"recycling","recycling_type":"centre"}},
{"type":"Feature","geometry":{"type":"LineString","coordinates":[[14.486949,48.744428],[14.4867949,48.744538],[14.486878,48.7449997],[14.487216,48.7450722],[14.4874493,48.7449059],[14.4876505,48.7446442],[14.4876076,48.74463],[14.4875699,48.7446747],[14.4875469,48.7447057],[14.487461,48.74468],[14.487416,48.744745],[14.487236,48.744691],[14.487263,48.744653],[14.487221,48.74464],[14.487235,48.744618],[14.487328,48.744644],[14.487341,48.744619],[14.487176,48.74458],[14.48721,48.744526],[14.487261,48.744538],[14.48728,48.744504],[14.4870948,48.7444615],[14.486949,48.744428]]},"properties":{"amenity":"recycling","name":"Kovošrot","recycling_type":"centre"}},
{"type":"Feature","geometry":{"type":"LineString","coordinates":[[14.4860008,48.74549],[14.4863883,48.7454767],[14.4867021,48.7453467],[14.4867318,48.745324599999999],[14.4866073,48.7452097],[14.48678,48.7451289],[14.4865128,48.7450976],[14.4862425,48.7451188],[14.48618,48.7451138],[14.4861737,48.74513],[14.4860008,48.74549]]},"properties":{"amenity":"recycling","name":"Sběrný dvůr","recycling_type":"centre"}},
{"type":"Feature","geometry":{"type":"LineString","coordinates":[[18.0851389,49.9465565],[18.0852516,49.9465526],[18.0853461,49.9465811],[18.0854132,49.9465914],[18.0854928,49.9463033],[18.0855138,49.9462316],[18.085544,49.9461263],[18.0851047,49.9460736],[18.0850819,49.9461616],[18.0848868,49.9462277],[18.0849445,49.9462915],[18.0851389,49.9465565]]},"properties":{"name":"Sběrný dvůr","amenity":"recycling","landuse":"industrial","recycling_type":"centre"}},
{"type":"Feature","geometry":{"type":"LineString","coordinates":[[14.3649654,49.9875679],[14.3659644,49.9877704],[14.3660044,49.987703],[14.3652257,49.9871087],[14.3649654,49.9875679]]},"properties":{"amenity":"recycling","recycling_type":"centre"}},
{"type":"Feature","geometry":{"type":"LineString","coordinates":[[14.4626157,50.0657954],[14.4630552,50.065788],[14.4635725,50.0656769],[14.4637398,50.0655957],[14.4637437,50.0655708],[14.4636406,50.0655433],[14.46352,50.0654784],[14.463308,50.0652999],[14.4632335,50.0653345],[14.4630656,50.0654142],[14.4627852,50.0655446],[14.4626286,50.0656256],[14.4625282,50.0657031],[14.4626157,50.0657954]]},"properties":{"name":"Pražské služby","amenity":"recycling","recycling_type":"centre"}},
{"type":"Feature","geometry":{"type":"LineString","coordinates":[[15.4415604,49.4089244],[15.4414143,49.4086984],[15.441193,49.4087673],[15.4411004,49.4087952],[15.4412574,49.4090195],[15.4415604,49.4089244]]},"properties":{"height":"2","amenity":"recycling","barrier":"fence","fence_type":"concrete","recycling_type":"centre"}},
{"type":"Feature","geometry":{"type":"LineString","coordinates":[[14.1560121,50.0931051],[14.156515,50.0931005],[14.1564506,50.0895657],[14.1561285,50.0895291],[14.1560474,50.0899695],[14.1560066,50.0908884],[14.1560079,50.0911655],[14.1560225,50.0913048],[14.1560154,50.0921922],[14.1560068,50.0925306],[14.1560121,50.0931051]]},"properties":{"name":"ECOWOOD Unhošť","amenity":"recycling","website":"http://www.ecowood.cz/","opening_hours":"Mo-Fr 08:00-15:00; Sa 09:00-11:30","recycling_type":"centre"}},
{"type":"Feature","geometry":{"type":"LineString","coordinates":[[14.6471739,50.1870394],[14.6472517,50.1870671],[14.6471998,50.1873254],[14.647292,50.1876299],[14.6471652,50.1875838],[14.6471393,50.1876059],[14.6467473,50.187462],[14.6471739,50.1870394]]},"properties":{"amenity":"recycling","recycling_type":"centre"}},
{"type":"Feature","geometry":{"type":"LineString","coordinates":[[16.7719385,48.9111426],[16.7717946,48.9110921],[16.7718008,48.9107964],[16.7721705,48.9108086],[16.7722303,48.9108415],[16.7719807,48.911099],[16.7719385,48.9111426]]},"properties":{"amenity":"recycling","recycling_type":"centre"}},
{"type":"Feature","geometry":{"type":"LineString","coordinates":[[14.1368056,50.4602298],[14.1374497,50.4602974],[14.1376337,50.4596372],[14.1369719,50.4595494],[14.1368056,50.4602298]]},"properties":{"amenity":"recycling","recycling_type":"centre"}},
{"type":"Feature","geometry":{"type":"LineString","coordinates":[[15.8035222,50.0873939],[15.8037115,50.0873816],[15.8037016,50.0873191],[15.8035123,50.0873314],[15.8035222,50.0873939]]},"properties":{"amenity":"recycling","recycling_type":"centre"}},
{"type":"Feature","geometry":{"type":"LineString","coordinates":[[14.5322797,50.0855652],[14.5324852,50.0855812],[14.5325537,50.0852494],[14.5325349,50.0852471],[14.532689,50.0846213],[14.5321237,50.0844853],[14.5319515,50.0850055],[14.5319267,50.085076],[14.5318778,50.0852219],[14.5318611,50.0852862],[14.5318192,50.0853963],[14.531781,50.0855184],[14.5320247,50.0855442],[14.5322797,50.0855652]]},"properties":{"addr:city":"Praha","addr:housenumber":"5","addr:postcode":"10800","addr:street":"Teplárenská","amenity":"recycling","name":"Sběrný dvůr hlavního města","recycling_type":"centre"}},
{"type":"Feature","geometry":{"type":"LineString","coordinates":[[14.4941869,50.0690103],[14.4942623,50.0689941],[14.4942567,50.0690704],[14.4941918,50.0690714],[14.494181,50.0690633],[14.4941869,50.0690103]]},"properties":{"amenity":"recycling","recycling_type":"centre"}},
{"type":"Feature","geometry":{"type":"LineString","coordinates":[[15.531866,49.8852268],[15.5317693,49.8849459],[15.5317552,49.8848912],[15.5320755,49.8847908],[15.5323214,49.8847749],[15.5325108,49.8847452],[15.5325674,49.8847509],[15.5326276,49.8847794],[15.5326754,49.8848284],[15.5326559,49.8848718],[15.5322473,49.8850554],[15.531866,49.8852268]]},"properties":{"amenity":"recycling","recycling_type":"centre"}},
{"type":"Feature","geometry":{"type":"LineString","coordinates":[[14.3730333,50.0473506],[14.3721807,50.0467702],[14.3727912,50.0465794],[14.3737813,50.0472279],[14.3730333,50.0473506]]},"properties":{"amenity":"recycling","name":"Kompostárna","recycling_type":"centre"}},
{"type":"Feature","geometry":{"type":"LineString","coordinates":[[17.0712171,49.4320563],[17.0712463,49.431911],[17.0712679,49.431914],[17.071633,49.4318739],[17.0716099,49.4315904],[17.0708997,49.4315593],[17.070883,49.431763],[17.070824000000003,49.432026],[17.071064,49.432041],[17.0710922,49.4320444],[17.0712171,49.4320563]]},"properties":{"amenity":"recycling","name":"sběrný dvůr","recycling_type":"centre"}},
{"type":"Feature","geometry":{"type":"LineString","coordinates":[[17.0463418,49.4729334],[17.0464012,49.4729037],[17.046457,49.4728758],[17.046725,49.4726974],[17.0466474,49.4726369],[17.046527,49.4725322],[17.0465007,49.4725428],[17.0462892,49.4726933],[17.0459991,49.4728067],[17.0458514,49.4728127],[17.0458253,49.4728218],[17.0458076,49.4728781],[17.0459191,49.4728919],[17.0459475,49.472896],[17.045961900000003,49.4728617],[17.0463418,49.4729334]]},"properties":{"amenity":"recycling","name":"sběrný dvůr","recycling_type":"centre"}},
{"type":"Feature","geometry":{"type":"LineString","coordinates":[[14.5005264,48.9797721],[14.5003678,48.9800843],[14.500052,48.9800078],[14.4999502,48.9799832],[14.5001981,48.9796768],[14.5005264,48.9797721]]},"properties":{"amenity":"recycling","recycling_type":"centre"}},
{"type":"Feature","geometry":{"type":"LineString","coordinates":[[14.5384634,50.6642525],[14.5378679,50.6642253],[14.5378545,50.6643205],[14.5368648,50.6676577],[14.5374468,50.6677223],[14.5377552,50.6675115],[14.5382917,50.6656602],[14.5385116,50.6656823],[14.5386431,50.6652113],[14.5386726,50.6648458],[14.5386618,50.6645228],[14.5384634,50.6642525]]},"properties":{"amenity":"recycling","name":"Sběrný dvůr","recycling_type":"centre"}},
{"type":"Feature","geometry":{"type":"LineString","coordinates":[[13.3813584,49.8917398],[13.3815003,49.8917329],[13.3815821,49.8917241],[13.3815933,49.8917725],[13.3817302,49.8917595],[13.3826271,49.8916648],[13.3826403,49.8917087],[13.3826452,49.891725],[13.382626,49.891733],[13.382651,49.891794],[13.3825023,49.8918147],[13.3821019,49.8918479],[13.3820645,49.8918963],[13.3817409,49.8919301],[13.3815249,49.8919026],[13.3813833,49.8919112],[13.3813779,49.8918826],[13.3813584,49.8917398]]},"properties":{"amenity":"recycling","recycling_type":"centre"}},
{"type":"Feature","geometry":{"type":"LineString","coordinates":[[13.4036039,49.7554789],[13.4036641,49.7556136],[13.4036888,49.7556548],[13.4040619,49.7560875],[13.4044478,49.7560082],[13.4041824,49.7554412],[13.40397,49.7554503],[13.4036039,49.7554789]]},"properties":{"amenity":"recycling","recycling_type":"centre"}},
{"type":"Feature","geometry":{"type":"LineString","coordinates":[[16.7263513,49.1171348],[16.7268809,49.1171673],[16.7268639,49.1172681],[16.7267136,49.1173852],[16.7266513,49.1174338],[16.7263135,49.1174397],[16.7262071,49.1174171],[16.726233,49.1172682],[16.7262149,49.1172599],[16.7262558,49.1172046],[16.7263398,49.1172033],[16.7263513,49.1171348]]},"properties":{"amenity":"recycling","recycling_type":"centre"}},
{"type":"Feature","geometry":{"type":"LineString","coordinates":[[14.6632186,50.1304578],[14.6634571,50.1302164],[14.6629403,50.1300998],[14.6628106,50.1303425],[14.6632186,50.1304578]]},"properties":{"amenity":"recycling","recycling_type":"centre"}},
{"type":"Feature","geometry":{"type":"LineString","coordinates":[[13.4002385,49.8133458],[13.4002179,49.8133038],[13.4001755,49.8132173],[13.4002893,49.8129694],[13.40083,49.8130625],[13.4008158,49.8133012],[13.4007609,49.813424500000007],[13.4002385,49.8133458]]},"properties":{"amenity":"recycling","recycling_type":"centre"}},
{"type":"Feature","geometry":{"type":"LineString","coordinates":[[17.3550308,49.982912],[17.3550234,49.9827757],[17.3552527,49.9827622],[17.3552551,49.9829001],[17.3550308,49.982912]]},"properties":{"amenity":"recycling","recycling_type":"centre"}},
{"type":"Feature","geometry":{"type":"LineString","coordinates":[[14.6583351,50.1791252],[14.6582526,50.1789838],[14.65895,50.1788052],[14.6590332,50.1789598],[14.6588927,50.1789877],[14.6583351,50.1791252]]},"properties":{"addr:city":"Brandýs nad Labem-Stará Boleslav","addr:housenumber":"2345","addr:postcode":"25001","addr:street":"Strojírenská","amenity":"recycling","building":"industrial","name":"AVE CZ","operator":"AVE CZ","recycling_type":"centre"}},
{"type":"Feature","geometry":{"type":"LineString","coordinates":[[16.6450424,49.0576448],[16.6455128,49.0576179],[16.6455265,49.0575215],[16.6453186,49.057436],[16.644912,49.0574499],[16.6447921,49.0575056],[16.6448528,49.0575622],[16.6450424,49.0576448]]},"properties":{"amenity":"recycling","recycling_type":"centre"}},
{"type":"Feature","geometry":{"type":"LineString","coordinates":[[17.9605889,49.4178893],[17.9618675,49.41824],[17.9618198,49.418321],[17.9617782,49.4183918],[17.9605639,49.4180448],[17.9605844,49.417917],[17.9605889,49.4178893]]},"properties":{"amenity":"recycling","recycling_type":"centre"}},
{"type":"Feature","geometry":{"type":"LineString","coordinates":[[15.6616967,49.8465977],[15.6617438,49.8465088],[15.661541,49.8464541],[15.6615123,49.8464464],[15.6614849,49.846439],[15.6614575,49.8464316],[15.6611426,49.8463558],[15.6609036,49.8467501],[15.6608795,49.8467905],[15.6609794,49.8468115],[15.6609984,49.8467747],[15.6612409,49.8468265],[15.6612664,49.846832],[15.6612473,49.846869],[15.661495,49.846922],[15.6615145,49.8468856],[15.661534,49.846849],[15.6614134,49.8468228],[15.6614982,49.8466609],[15.6615377,49.8466695],[15.6615877,49.846574],[15.6616967,49.8465977]]},"properties":{"addr:city":"Seč","addr:housenumber":"1","addr:street":"Chrudimská","amenity":"recycling","opening_hours":"Mo-Fr 07:00-11:00, Mo,We 12:00-15:30, Fr 12:00-15:00, Sa,Su off","opening_hours:covid19":"same","operator":"Město Seč","recycling_type":"centre"}},
{"type":"Feature","geometry":{"type":"LineString","coordinates":[[14.5355337,50.07679],[14.5369272,50.0767765],[14.5368639,50.0757738],[14.5351688,50.0761628],[14.5355337,50.07679]]},"properties":{"amenity":"recycling","recycling_type":"centre"}},
{"type":"Feature","geometry":{"type":"LineString","coordinates":[[15.5679682,49.8731759],[15.5675273,49.8732949],[15.5679218,49.8735962],[15.5681407,49.8737761],[15.5681792,49.8737859],[15.5682247,49.8737836],[15.5682659,49.8737688],[15.5683041,49.873755],[15.5685073,49.8736339],[15.5684903,49.8736089],[15.5683078,49.8736618],[15.5679682,49.8731759]]},"properties":{"addr:city":"Třemošnice","addr:postcode":"53843","addr:street":"U Vápenky","amenity":"recycling","name":"Recycling - kovové odpady a. s.","recycling_type":"centre"}},
{"type":"Feature","geometry":{"type":"LineString","coordinates":[[17.3588076,49.3673804],[17.3589733,49.3674519],[17.3591644,49.367516],[17.3594454,49.367608],[17.3597864,49.3677466],[17.3598286,49.3675341],[17.3595877,49.3674592],[17.3596785,49.3673229],[17.3593516,49.3672726],[17.3589935,49.3671529],[17.3588076,49.3673804]]},"properties":{"amenity":"recycling","recycling_type":"centre"}},
{"type":"Feature","geometry":{"type":"LineString","coordinates":[[13.8147657,50.3473447],[13.8154323,50.3479685],[13.8157112,50.3479069],[13.8160009,50.3479069],[13.8169603,50.3472551],[13.8174699,50.3467672],[13.816774,50.3463608],[13.8164021,50.3461249],[13.8147657,50.3473447]]},"properties":{"amenity":"recycling","recycling_type":"centre"}},
{"type":"Feature","geometry":{"type":"LineString","coordinates":[[15.3483739,49.5584576],[15.3506262,49.5589369],[15.3507318,49.5587688],[15.3509961,49.558811],[15.3512522,49.5584338],[15.3502277,49.5580831],[15.3486015,49.5577376],[15.3483739,49.5584576]]},"properties":{"amenity":"recycling","recycling_type":"centre"}},
{"type":"Feature","geometry":{"type":"LineString","coordinates":[[12.8652089,50.3286746],[12.8653436,50.3286649],[12.8652927,50.3283771],[12.865158,50.3283868],[12.8652089,50.3286746]]},"properties":{"amenity":"recycling","opening_hours":"středa, sobota","operator":"OÚ Merklín","operator:type":"government","recycling_type":"centre"}},
{"type":"Feature","geometry":{"type":"LineString","coordinates":[[14.0801567,50.2227647],[14.0797405,50.2231931],[14.0805237,50.2234965],[14.0810472,50.2230324],[14.0801567,50.2227647]]},"properties":{"amenity":"recycling","name":"Sběrné suroviny","recycling_type":"centre"}},
{"type":"Feature","geometry":{"type":"LineString","coordinates":[[14.4421493,51.0044182],[14.4420923,51.0043722],[14.4420359,51.0042296],[14.4420131,51.0040807],[14.4419557,51.0040959],[14.4419556,51.0038693],[14.4425017,51.0037452],[14.4432047,51.0035891],[14.4433747,51.0035682],[14.4434059,51.0037515],[14.4433321,51.003884],[14.4433454,51.0039355],[14.4430746,51.0039654],[14.4430866,51.004015],[14.4431041,51.0041207],[14.44309,51.0041722],[14.4431611,51.0041828],[14.4430203,51.0041916],[14.4427112,51.0041908],[14.442254,51.0043507],[14.4421493,51.0044182]]},"properties":{"amenity":"recycling","email":"objednavky@ts-sluknov.cz","landuse":"industrial","name":"TS Šluknov","phone":"+420 412 386 202","recycling_type":"centre","website":"https://www.ts-sluknov.cz/"}},
{"type":"Feature","geometry":{"type":"LineString","coordinates":[[18.260068,49.8566808],[18.2602234,49.8565533],[18.2605503,49.8567232],[18.2604581,49.8567905],[18.2603905,49.8568496],[18.260068,49.8566808]]},"properties":{"amenity":"recycling","operator":"OZO OSTRAVA s.r.o.","recycling_type":"centre"}},
{"type":"Feature","geometry":{"type":"MultiPolygon","coordinates":[[[[14.4361514,50.0043197],[14.4366461,50.0039556],[14.4370146,50.0037094],[14.4374421,50.0039215],[14.4377203,50.0046881],[14.4377041,50.0047403],[14.4376785,50.0047687],[14.4375186,50.0047246],[14.4373859,50.0047149],[14.4372039,50.0047489],[14.4366877,50.0049118],[14.4361514,50.0043197]]]]},"properties":{"name":"Sběrný dvůr Hlavního města Prahy","amenity":"recycling","landuse":"industrial","recycling_type":"centre"}},
{"type":"Feature","geometry":{"type":"MultiPolygon","coordinates":[[[[14.16292,49.7782334],[14.1629264,49.7781237],[14.1639042,49.7781432],[14.1643319,49.7782001],[14.1651624,49.7782582],[14.1651505,49.7783321],[14.1651549,49.7783735],[14.1652796,49.7783805],[14.165243,49.7784554],[14.1651034,49.7784456],[14.1650862,49.7785165],[14.1650367,49.7785068],[14.164968,49.7787774],[14.1638333,49.7786719],[14.1632488,49.7785054],[14.16292,49.7782334]]]]},"properties":{"amenity":"recycling","recycling_type":"centre"}},
{"type":"Feature","geometry":{"type":"MultiPolygon","coordinates":[[[[16.7512784,48.7477633],[16.7513339,48.7475883],[16.7514652,48.7476059],[16.7514639,48.7476099],[16.7515693,48.7476239],[16.7515145,48.7477963],[16.7512784,48.7477633]]]]},"properties":{"name":"Sběrný dvůr Valtice","email":"info@valtice.eu","phone":"+420 733 535 812","source":"cuzk:ruian","amenity":"recycling","website":"https://www.valtice.eu/","building":"house","building:flats":"1","recycling_type":"centre","ref:ruian:building":"50752618","building:ruian:type":"7"}},
{"type":"Feature","geometry":{"type":"MultiPolygon","coordinates":[[[[16.4969788,49.2063646],[16.4969821,49.206268],[16.4970184,49.2062685],[16.4973653,49.2062696],[16.4973835,49.206386],[16.4972029,49.2063765],[16.4969788,49.2063646]]]]},"properties":{"amenity":"recycling","building:ruian:type":"16","operator":"Brno","recycling_type":"centre","ref:ruian:building":"41883195","source":"cuzk:ruian"}},
{"type":"Feature","geometry":{"type":"MultiPolygon","coordinates":[[[[16.537276,49.301572],[16.537345,49.301544],[16.537451,49.301647],[16.537382,49.301676],[16.537276,49.301572]]]]},"properties":{"name":"Sběrný dvůr","source":"cuzk:km","amenity":"recycling","name:cs":"Sběrný dvůr","building":"yes","recycling_type":"centre"}},
{"type":"Feature","geometry":{"type":"MultiPolygon","coordinates":[[[[16.5156093,49.5031245],[16.5162719,49.5026315],[16.5164639,49.5027412],[16.5158008,49.5032335],[16.5156093,49.5031245]]]]},"properties":{"source":"cuzk:ruian","amenity":"recycling","building":"yes","start_date":"2010-09-29","recycling_type":"centre","building:levels":"1","ref:ruian:building":"78997259","building:ruian:type":"19"}},
{"type":"Feature","geometry":{"type":"MultiPolygon","coordinates":[[[[18.6506662,49.6629585],[18.6518736,49.6627444],[18.6522079,49.6627535],[18.6526865,49.6631355],[18.6527634,49.6632461],[18.6529642,49.6644017],[18.6530829,49.6646727],[18.6512916,49.6649033],[18.6513111,49.6648054],[18.6512855,49.6646948],[18.6506662,49.6629585]]]]},"properties":{"amenity":"recycling","landuse":"industrial","name":"Nehlsen Třinec","recycling_type":"centre","source":"https://www.nehlsen.com/unternehmen/referenzen/reinigung/100-prozent-nehlsen-trinec"}},
{"type":"Feature","geometry":{"type":"MultiPolygon","coordinates":[[[[16.0420964,50.3885901],[16.0421477,50.3885465],[16.04234,50.3884197],[16.042486,50.3883645],[16.0428641,50.3883283],[16.042887,50.3883398],[16.0428555,50.3884297],[16.0428164,50.3885413],[16.0428067,50.3885691],[16.0427305,50.3887459],[16.0421051,50.3886639],[16.0420964,50.3885901]]]]},"properties":{"amenity":"recycling","barrier":"fence","recycling_type":"centre"}},
{"type":"Feature","geometry":{"type":"MultiPolygon","coordinates":[[[[16.9948355,49.963286],[16.9948364,49.9632783],[16.9949099,49.9630364],[16.9957359,49.9631328],[16.9956858,49.9632957],[16.9956649,49.9633652],[16.9956261,49.9633801],[16.9948355,49.963286]]]]},"properties":{"name":"Sběrný dvůr","amenity":"recycling","recycling_type":"centre"}},
{"type":"Feature","geometry":{"type":"MultiPolygon","coordinates":[[[[14.0126783,49.6913888],[14.0126878,49.6913199],[14.0127014,49.6912211],[14.0130246,49.6912397],[14.0129851,49.6915062],[14.0128746,49.6914968],[14.0128877,49.6914009],[14.0126783,49.6913888]]]]},"properties":{"name":"sběrný dvůr","source":"cuzk:km","amenity":"recycling","recycling_type":"centre"}},
{"type":"Feature","geometry":{"type":"MultiPolygon","coordinates":[[[[17.4827864,49.2012856],[17.482829,49.2011532],[17.4829661,49.2012165],[17.4829314,49.2013759],[17.4827864,49.2012856]]]]},"properties":{"amenity":"recycling","recycling_type":"centre","website":"https://www.zlutava.cz/obec-608/odpad-centrum/"}},
{"type":"Feature","geometry":{"type":"MultiPolygon","coordinates":[[[[13.784751,49.056973],[13.7850436,49.0568669],[13.7851714,49.0570177],[13.784881,49.057125],[13.784751,49.056973]]]]},"properties":{"name":"Sběrný dvůr","source":"cuzk:km","amenity":"recycling","building":"yes","operator":"Město Vimperk","roof:shape":"flat","roof:colour":"gray","opening_hours":"Mo 08:00-12:00, 14:00-18:00, Tu 14:00-18:00; We 08:00-12:00, 14:00-18:00, Th Closed, Fr 14:00-18:00, Sa 08:00-12:00, Su Closed","recycling_type":"centre"}},
{"type":"Feature","geometry":{"type":"MultiPolygon","coordinates":[[[[14.5711086,49.1009451],[14.5712539,49.1006818],[14.5714204,49.1007247],[14.571276,49.1009855],[14.5711086,49.1009451]]]]},"properties":{"source":"cuzk:ruian","amenity":"recycling","building":"yes","recycling_type":"centre","ref:ruian:building":"38804158","building:ruian:type":"19"}},
{"type":"Feature","geometry":{"type":"MultiPolygon","coordinates":[[[[17.0944422,49.4528012],[17.0950926,49.4526615],[17.0951327,49.4526891],[17.0951903,49.4527286],[17.0954164,49.4529192],[17.095394,49.4529772],[17.0954415,49.4530172],[17.0960444,49.4532585],[17.0960639,49.4533038],[17.094579,49.453253],[17.0944422,49.4528012]]]]},"properties":{"name":"Sběrný dvůr","amenity":"recycling","barrier":"fence","landuse":"industrial","recycling_type":"centre"}},
{"type":"Feature","geometry":{"type":"MultiPolygon","coordinates":[[[[13.27967,50.298293],[13.279691,50.29817],[13.280541,50.29823],[13.28052,50.298349],[13.27967,50.298293]]]]},"properties":{"amenity":"recycling","name":"sběrný dvůr","operator":"Oú Radonice","recycling_type":"centre","source":"cuzk:km"}},
{"type":"Feature","geometry":{"type":"MultiPolygon","coordinates":[[[[13.7139846,49.7828352],[13.7141225,49.7826707],[13.7148473,49.7829241],[13.7147087,49.7830886],[13.7139846,49.7828352]]]]},"properties":{"name":"Rumpold","source":"cuzk:ruian","amenity":"recycling","recycling_type":"centre","ref:ruian:building":"45266841","building:ruian:type":"12"}},
{"type":"Feature","geometry":{"type":"MultiPolygon","coordinates":[[[[13.7989808,49.0535378],[13.799643,49.053391],[13.7996983,49.0535014],[13.7990363,49.0536477],[13.7989808,49.0535378]]]]},"properties":{"name":"Sběrné suroviny","source":"cuzk:ruian","amenity":"recycling","building":"yes","operator":"Sběrné suroviny, a.s.","addr:city":"Vimperk","addr:street":"Špidrova","addr:postcode":"38501","contact:phone":"730 963 344","opening_hours":"Mo-Fr 07:30-11:30, 12:00-16:00; PH off","operator:type":"private","recycling_type":"centre","contact:website":"https://www.sbernesuroviny.cz/","ref:ruian:building":"47491698","building:ruian:type":"19"}},
{"type":"Feature","geometry":{"type":"MultiPolygon","coordinates":[[[[13.9173687,49.263548],[13.9183747,49.2634417],[13.9184815,49.2638724],[13.9174755,49.2639787],[13.9173687,49.263548]]]]},"properties":{"name":"Sběrný dvůr","amenity":"recycling","recycling_type":"centre"}},
{"type":"Feature","geometry":{"type":"MultiPolygon","coordinates":[[[[14.1465896,50.1629174],[14.1466926,50.1627633],[14.1469255,50.162822],[14.1468675,50.1629081],[14.1468212,50.1629769],[14.1465896,50.1629174]]]]},"properties":{"name":"Sběrný dvůr","source":"survey","amenity":"recycling","barrier":"fence","recycling_type":"centre"}},
{"type":"Feature","geometry":{"type":"MultiPolygon","coordinates":[[[[16.2602901,50.1499309],[16.2603562,50.1498287],[16.2605232,50.1498206],[16.2608288,50.1499013],[16.2607756,50.1499868],[16.2604021,50.1500147],[16.2602901,50.1499309]]]]},"properties":{"amenity":"recycling","building":"yes","recycling_type":"centre","source":"cuzk:km"}},
{"type":"Feature","geometry":{"type":"MultiPolygon","coordinates":[[[[18.1324084,49.84202],[18.1327094,49.8419628],[18.1327838,49.8420679],[18.1324792,49.8421456],[18.1324084,49.84202]]]]},"properties":{"amenity":"recycling","recycling_type":"centre"}},
{"type":"Feature","geometry":{"type":"MultiPolygon","coordinates":[[[[14.4476309,50.1352658],[14.447633,50.135225],[14.4478744,50.1350599],[14.4488974,50.1345618],[14.4491458,50.1346817],[14.4491978,50.1351326],[14.4491136,50.1353135],[14.447633,50.1353488],[14.4476309,50.1352658]]]]},"properties":{"amenity":"recycling","barrier":"fence","recycling_type":"centre"}},
{"type":"Feature","geometry":{"type":"MultiPolygon","coordinates":[[[[15.0339488,49.4912164],[15.0346441,49.4898538],[15.0351252,49.4896068],[15.0353873,49.4894722],[15.036622,49.4895034],[15.037769,49.4897518],[15.0392831,49.4900796],[15.0396667,49.4907492],[15.0393311,49.4912164],[15.0384251,49.4913352],[15.0362241,49.4916237],[15.0358481,49.4916806],[15.0346441,49.4918627],[15.0339488,49.491668],[15.0339488,49.4912164]]]]},"properties":{"amenity":"recycling","name":"Skládka odpadu - Hrádek","recycling_type":"centre"}},
{"type":"Feature","geometry":{"type":"MultiPolygon","coordinates":[[[[14.9392036,50.4838445],[14.9392099,50.4836122],[14.9396222,50.4831697],[14.9397583,50.4831368],[14.9399001,50.483128],[14.9401173,50.483175],[14.9403017,50.4832733],[14.9404478,50.4834174],[14.9407018,50.4836679],[14.9403644,50.4838091],[14.9402534,50.4838552],[14.9397384,50.4840737],[14.9394901,50.4841729],[14.9393808,50.4840454],[14.9392036,50.4838445]]]]},"properties":{"amenity":"recycling","recycling_type":"centre"}},
{"type":"Feature","geometry":{"type":"MultiPolygon","coordinates":[[[[14.5907452,50.0396713],[14.5908735,50.0395818],[14.5909995,50.0394938],[14.5910503,50.0394584],[14.5912461,50.0395787],[14.5912925,50.0396095],[14.5910223,50.0398251],[14.5907638,50.0396817],[14.5907452,50.0396713]]]]},"properties":{"name":"Sběrný dvůr","amenity":"recycling","barrier":"fence","recycling_type":"centre"}},
{"type":"Feature","geometry":{"type":"MultiPolygon","coordinates":[[[[14.4047388,49.9954338],[14.4047665,49.9948039],[14.4052059,49.9948007],[14.405127,49.995608],[14.4051055,49.9960359],[14.4050623,49.9964399],[14.4048105,49.9964352],[14.4047388,49.9954338]]]]},"properties":{"amenity":"recycling","recycling_type":"centre"}},
{"type":"Feature","geometry":{"type":"MultiPolygon","coordinates":[[[[14.405531,49.9947696],[14.4055513,49.9946859],[14.4060638,49.994423],[14.4060717,49.9943122],[14.4061814,49.9943279],[14.4061855,49.9944272],[14.4063197,49.9944298],[14.4062953,49.9944847],[14.4061977,49.9946572],[14.4061164,49.9947774],[14.4060635,49.9948009],[14.4059715,49.9948767],[14.4057586,49.9949081],[14.4056001,49.9948558],[14.405531,49.9947696]]]]},"properties":{"name":"Sběrné suroviny","source":"craftak","amenity":"recycling","name:en":"Scrap yard","recycling_type":"centre"}},
{"type":"Feature","geometry":{"type":"MultiPolygon","coordinates":[[[[14.177186,50.1515559],[14.1773092,50.1512559],[14.1777714,50.1514099],[14.1775989,50.1516349],[14.177186,50.1515559]]]]},"properties":{"name":"Sběrný dvůr","source":"survey","amenity":"recycling","landuse":"landfill","operator":"Město Buštěhrad","opening_hours":"Tu 14:30-16:30; Th 14:30-16:30; Sa 10:00-12:00; Su 13:00-15:00","recycling_type":"centre"}},
{"type":"Feature","geometry":{"type":"MultiPolygon","coordinates":[[[[13.7986901,49.05159],[13.7987809,49.0514811],[13.7991131,49.0515961],[13.7990191,49.0517152],[13.7986901,49.05159]]]]},"properties":{"name":"Jihosepar a.s.","access":"private","amenity":"recycling","building":"yes","addr:city":"Vimperk","addr:street":"Špidrova","addr:country":"CZ","addr:postcode":"38501","opening_hours":"Mo-Fr 08:00-14:30; PH off","recycling_type":"centre","contact:website":"https://jihosepar.cz/","addr:housenumber":"128"}},
{"type":"Feature","geometry":{"type":"MultiPolygon","coordinates":[[[[16.669171,49.761696],[16.6697872,49.7615455],[16.6708013,49.761412],[16.6708497,49.7615005],[16.6708706,49.7616318],[16.6707725,49.7617623],[16.6705298,49.7618249],[16.670253,49.7618043],[16.66932,49.7616771],[16.669171,49.761696]]]]},"properties":{"amenity":"recycling","email":"suroviny@mtr.cz","name":"SUROVINY PAVEL SMÉKAL, s.r.o.","opening_hours":"Mo-Fr 08:00-17:00; Sa 08:00-12:00","phone":"461 31 24 79","recycling_type":"centre","website":"http://www.surovinysmekal.cz/"}},
{"type":"Feature","geometry":{"type":"MultiPolygon","coordinates":[[[[14.4693798,50.3686796],[14.4696336,50.3685059],[14.4700015,50.3686813],[14.4697955,50.3688567],[14.4693798,50.3686796]]]]},"properties":{"name":"sběrný dvůr Mlazice","amenity":"recycling","recycling_type":"centre"}},
{"type":"Feature","geometry":{"type":"MultiPolygon","coordinates":[[[[15.6814881,49.3112311],[15.6819802,49.3114536],[15.6817024,49.3117369],[15.6815337,49.3115894],[15.6814881,49.3112311]]]]},"properties":{"source":"survey; Bing","amenity":"recycling","landuse":"industrial","recycling_type":"centre"}},
{"type":"Feature","geometry":{"type":"MultiPolygon","coordinates":[[[[13.2985889,49.7066829],[13.2993017,49.7065832],[13.299351,49.706338],[13.2999763,49.7063208],[13.3006394,49.7065423],[13.3004064,49.7068991],[13.2986143,49.7069355],[13.2985889,49.7066829]]]]},"properties":{"source":"Bing","amenity":"recycling","recycling_type":"centre"}},
{"type":"Feature","geometry":{"type":"MultiPolygon","coordinates":[[[[16.0331047,49.709749],[16.033482,49.7097278],[16.0334857,49.7099471],[16.0331648,49.7099318],[16.0331047,49.709749]]]]},"properties":{"amenity":"recycling","recycling_type":"centre","website":"http://www.svratka.cz/sberny-dvur-ve-svratce/"}},
{"type":"Feature","geometry":{"type":"MultiPolygon","coordinates":[[[[15.7946821,49.9402852],[15.7947509,49.940141],[15.7948534,49.9400593],[15.7951684,49.9398844],[15.7957083,49.9396222],[15.7958692,49.9397005],[15.7960778,49.9398084],[15.7958648,49.9399799],[15.7955758,49.9402762],[15.7956031,49.9402949],[15.7955604,49.940338],[15.7953268,49.940251],[15.7952855,49.9402925],[15.7949371,49.9401489],[15.7947709,49.9403183],[15.7947308,49.9403034],[15.7946821,49.9402852]]]]},"properties":{"amenity":"recycling","name":"Sběrný dvůr","opening_hours":"Mo,Tu 08:00-18:00; We 12:00-18:00; Th-Sa 08:00-18:00","recycling_type":"centre"}},
{"type":"Feature","geometry":{"type":"MultiPolygon","coordinates":[[[[18.0281927,49.6065479],[18.0285053,49.6063091],[18.0286507,49.6062411],[18.0296628,49.606562],[18.0294897,49.6067881],[18.0294685,49.6068165],[18.0294468,49.6068457],[18.0293842,49.6069264],[18.0286666,49.6066985],[18.0286531,49.6066942],[18.0284196,49.60662],[18.0281927,49.6065479]]]]},"properties":{"source":"survey; GPS track","amenity":"recycling","barrier":"fence","recycling_type":"centre"}},
{"type":"Feature","geometry":{"type":"MultiPolygon","coordinates":[[[[14.3703278,50.0585583],[14.3706658,50.0584791],[14.371567,50.0588459],[14.3714329,50.059223],[14.3715777,50.0592643],[14.3717459,50.0588682],[14.3717709,50.0588201],[14.3719353,50.0588682],[14.3720601,50.0588987],[14.3720988,50.0589096],[14.3726158,50.0590131],[14.3724495,50.0593661],[14.3723448,50.0596897],[14.371457,50.0595829],[14.3712773,50.0596501],[14.3712156,50.0596242],[14.3703278,50.0585583]]]]},"properties":{"amenity":"recycling","recycling_type":"centre"}},
{"type":"Feature","geometry":{"type":"MultiPolygon","coordinates":[[[[17.496529,49.1373727],[17.4968635,49.1370812],[17.4969837,49.1370602],[17.4974763,49.1373769],[17.4976376,49.1374814],[17.4973386,49.137682],[17.4971767,49.1377895],[17.4969111,49.1376186],[17.496529,49.1373727]]]]},"properties":{"name":"Sběrný dvůr","amenity":"recycling","barrier":"fence","recycling_type":"centre"}},
{"type":"Feature","geometry":{"type":"MultiPolygon","coordinates":[[[[14.6366309,49.9221445],[14.636843,49.922145],[14.6368493,49.9221986],[14.6368947,49.9222011],[14.6369099,49.9223936],[14.6366738,49.9224188],[14.6366506,49.9223441],[14.6366448,49.9222457],[14.6366309,49.9221445]]]]},"properties":{"amenity":"recycling","recycling_type":"centre"}},
{"type":"Feature","geometry":{"type":"MultiPolygon","coordinates":[[[[16.5468151,49.0782609],[16.5468908,49.0782185],[16.547511,49.078206],[16.54767,49.078205],[16.547723,49.078205],[16.5477345,49.0783885],[16.5469703,49.0783456],[16.5468884,49.0783021],[16.5468151,49.0782609]]]]},"properties":{"amenity":"recycling","barrier":"wall","recycling_type":"centre"}},
{"type":"Feature","geometry":{"type":"MultiPolygon","coordinates":[[[[14.3760637,50.060927],[14.3766498,50.0605007],[14.3769182,50.0604975],[14.3767747,50.0607327],[14.3765304,50.0609101],[14.3762817,50.0610567],[14.3760637,50.060927]]]]},"properties":{"amenity":"recycling","recycling_type":"centre"}},
{"type":"Feature","geometry":{"type":"MultiPolygon","coordinates":[[[[14.3740051,50.0977046],[14.3741626,50.0973673],[14.3741028,50.0973522],[14.374163,50.0972165],[14.3741826,50.0971722],[14.374327,50.0968471],[14.3743765,50.0967355],[14.3745566,50.0967653],[14.3745725,50.0967683],[14.3748565,50.0968468],[14.3757804,50.0970405],[14.3757204,50.097157],[14.37562,50.097275],[14.375693,50.097299],[14.375605,50.097415],[14.3755287,50.0973877],[14.3755108,50.0974056],[14.3754875,50.0974289],[14.3755714,50.0974573],[14.3753319,50.0977562],[14.3752801,50.097847],[14.3752671,50.0978838],[14.3752608,50.0978829],[14.3752557,50.0978929],[14.3748168,50.0977863],[14.3746778,50.0977533],[14.3746935,50.0977265],[14.3743254,50.0976605],[14.3742854,50.097749],[14.3740753,50.0977172],[14.3740051,50.0977046]]]]},"properties":{"name":"Sběrný dvůr Hlavního města Prahy","phone":"+420 736 518 204","amenity":"recycling","website":"https://www.komwag.cz/odpady/sberny-dvur-hl-m-prahy","opening_hours":"Mo-Fr 08:30-17:00; Sa 08:30-15:00","recycling_type":"centre"}},
{"type":"Feature","geometry":{"type":"MultiPolygon","coordinates":[[[[14.5141784,49.9418623],[14.5143385,49.9418073],[14.514532,49.9420524],[14.5143853,49.9421083],[14.5141784,49.9418623]]]]},"properties":{"source":"cuzk:ruian","amenity":"recycling","building":"yes","recycling_type":"centre","ref:ruian:building":"24550957","building:ruian:type":"19"}},
{"type":"Feature","geometry":{"type":"MultiPolygon","coordinates":[[[[15.7740135,49.6359906],[15.7743341,49.6358012],[15.7742965,49.6357734],[15.7745285,49.6356284],[15.7750918,49.6358594],[15.7747994,49.635955],[15.7746573,49.6360331],[15.7746841,49.6360644],[15.7743743,49.6362477],[15.7740135,49.6359906]]]]},"properties":{"amenity":"recycling","recycling_type":"centre"}},
{"type":"Feature","geometry":{"type":"MultiPolygon","coordinates":[[[[16.3826956,48.7271112],[16.3828914,48.7268701],[16.3830657,48.7268922],[16.3828397,48.7271616],[16.3826956,48.7271112]]]]},"properties":{"addr:city":"Laa an der Thaya","addr:country":"AT","addr:housenumber":"18","addr:postcode":"2136","addr:street":"Frauenbildweg","amenity":"recycling","building":"yes","name":"Altstoffsammelzentrum Laa/Thaya","recycling_type":"centre"}},
{"type":"Feature","geometry":{"type":"MultiPolygon","coordinates":[[[[14.0585862,49.6838385],[14.0589656,49.6834914],[14.0592755,49.6833812],[14.0591963,49.6836788],[14.0592124,49.6839912],[14.0593304,49.6840398],[14.0593143,49.6840953],[14.0594997,49.6841407],[14.0594104,49.6842452],[14.0593549,49.6844256],[14.0593484,49.6846176],[14.0594048,49.6848021],[14.0587218,49.6847743],[14.0586599,49.6842977],[14.0585862,49.6838385]]]]},"properties":{"name":"Recyklacni centrum Bytiz","email":"skladka@bytiz.cz","phone":"+420312312762","amenity":"recycling","opening_hours":"Mo-Sa 07:00-15:00","recycling_type":"centre"}},
{"type":"Feature","geometry":{"type":"MultiPolygon","coordinates":[[[[13.342242,49.7441916],[13.342307,49.7440549],[13.3433803,49.7442819],[13.3433084,49.7444338],[13.3425095,49.7442523],[13.342242,49.7441916]]]]},"properties":{"source":"survey","amenity":"recycling","recycling_type":"centre"}},
{"type":"Feature","geometry":{"type":"MultiPolygon","coordinates":[[[[13.3781946,49.7236676],[13.3784103,49.7232661],[13.37876,49.7233503],[13.3786014,49.7237032],[13.3783865,49.7236844],[13.3781946,49.7236676]]]]},"properties":{"source":"cuzk:km;survey","amenity":"recycling","recycling_type":"centre"}},
{"type":"Feature","geometry":{"type":"MultiPolygon","coordinates":[[[[14.5275528,48.9704003],[14.527759,48.9702918],[14.5279361,48.9707566],[14.527712,48.9707804],[14.5275528,48.9704003]]]]},"properties":{"amenity":"recycling","recycling_type":"centre"}},
{"type":"Feature","geometry":{"type":"MultiPolygon","coordinates":[[[[16.7620964,50.0817223],[16.7621004,50.0813945],[16.7626302,50.0815279],[16.7626758,50.0816044],[16.7620964,50.0817223]]]]},"properties":{"name":"Sběrný dvůr","amenity":"recycling","operator":"Služby města Králíky","description":"Příchod do areálu sběrných dvorů hlaste v kanceláři!","opening_hours":"Mo-Th 06:00-14:30; Apr-Oct Fr 06:00-17:00; Nov-Mar Fr 06:00-16:00; Apr-Oct Sa 08:00-12:00; Nov-Mar Sa off; Su,PH off","recycling_type":"centre","contact:website":"http://www.smkraliky.cz/dvur.html"}},
{"type":"Feature","geometry":{"type":"MultiPolygon","coordinates":[[[[14.5775251,50.0416276],[14.5779778,50.0414066],[14.5786145,50.0418587],[14.5784702,50.0419399],[14.5785987,50.0420542],[14.5784148,50.0421634],[14.5780826,50.0419361],[14.5776555,50.0417334],[14.5775251,50.0416276]]]]},"properties":{"amenity":"recycling","operator":"Megašrot","recycling_type":"centre"}},
{"type":"Feature","geometry":{"type":"MultiPolygon","coordinates":[[[[13.7483112,49.7847864],[13.7486299,49.7847108],[13.7502272,49.7845382],[13.7503817,49.7845449],[13.7504762,49.784529],[13.750626,49.7845073],[13.7506882,49.7846864],[13.7513343,49.7862016],[13.7507662,49.786246],[13.7486286,49.7857126],[13.7484317,49.785459],[13.7483112,49.7847864]]]]},"properties":{"amenity":"recycling","name":"kompostárna","recycling_type":"centre"}},
{"type":"Feature","geometry":{"type":"MultiPolygon","coordinates":[[[[17.0370741,48.859053],[17.0371402,48.858815],[17.0373351,48.8588385],[17.0380912,48.8589294],[17.0380251,48.8591673],[17.0370741,48.859053]]]]},"properties":{"name":"Sběrný dvůr Dolní Bojanovice","amenity":"recycling","recycling_type":"centre"}},
{"type":"Feature","geometry":{"type":"MultiPolygon","coordinates":[[[[13.7406343,49.7869971],[13.7406378,49.7867297],[13.7409386,49.7866658],[13.7408466,49.7869971],[13.7406343,49.7869971]]]]},"properties":{"amenity":"recycling","recycling_type":"centre"}},
{"type":"Feature","geometry":{"type":"MultiPolygon","coordinates":[[[[17.1308637,49.4744752],[17.1311428,49.4744276],[17.1320845,49.4746027],[17.1319799,49.4747191],[17.1319156,49.4747955],[17.1317425,49.4747698],[17.1314825,49.4747126],[17.1312354,49.4746386],[17.1310914,49.4745799],[17.1308637,49.4744752]]]]},"properties":{"amenity":"recycling","barrier":"wall","name":"výkup kovů HOPR","operator":"HOPR .cz Zábřeh","recycling_type":"centre"}},
{"type":"Feature","geometry":{"type":"MultiPolygon","coordinates":[[[[17.1305142,49.4725646],[17.1307748,49.472564],[17.131015,49.472592],[17.1311428,49.4744276],[17.1308637,49.4744752],[17.13057,49.4742945],[17.1307768,49.473909],[17.1307558,49.4730619],[17.1305142,49.4725646]]]]},"properties":{"amenity":"recycling","recycling_type":"centre"}},
{"type":"Feature","geometry":{"type":"MultiPolygon","coordinates":[[[[16.9068771,48.9615761],[16.9077897,48.9612882],[16.9080519,48.9616464],[16.9071393,48.9619343],[16.9068771,48.9615761]]]]},"properties":{"amenity":"recycling","recycling_type":"centre"}},
{"type":"Feature","geometry":{"type":"MultiPolygon","coordinates":[[[[16.1188021,50.3819666],[16.1190516,50.3817673],[16.1190046,50.3817237],[16.1191012,50.3816733],[16.1193694,50.381663],[16.1195666,50.3817117],[16.1191079,50.3820401],[16.1188021,50.3819666]]]]},"properties":{"amenity":"recycling","recycling_type":"centre"}},
{"type":"Feature","geometry":{"type":"MultiPolygon","coordinates":[[[[18.1987982,49.7566541],[18.1989115,49.7566199],[18.1990054,49.7566147],[18.1990806,49.7567031],[18.1988728,49.7567721],[18.1987982,49.7566541]]]]},"properties":{"name":"Sběrný dvůt","amenity":"recycling","landuse":"industrial","operator":"OZO","recycling_type":"centre"}},
{"type":"Feature","geometry":{"type":"MultiPolygon","coordinates":[[[[15.3852293,50.5263847],[15.3857279,50.5260278],[15.3860932,50.5263024],[15.3856916,50.5266153],[15.3852293,50.5263847]]]]},"properties":{"name":"Sběrný dvůr","source":"cuzk:km;územní plán","amenity":"recycling","recycling_type":"centre"}},
{"type":"Feature","geometry":{"type":"MultiPolygon","coordinates":[[[[16.8880758,48.9156906],[16.8881106,48.915472],[16.8886712,48.9154438],[16.8886968,48.9154462],[16.8887275,48.9154491],[16.8889099,48.9154737],[16.8888885,48.9156042],[16.8887973,48.9156588],[16.8886846,48.9157329],[16.8880758,48.9156906]]]]},"properties":{"amenity":"recycling","barrier":"wall","recycling_type":"centre"}},
{"type":"Feature","geometry":{"type":"MultiPolygon","coordinates":[[[[13.351904,49.776868],[13.351985,49.776838],[13.352681,49.776998],[13.352701,49.777149],[13.352154,49.777211],[13.351904,49.776868]]]]},"properties":{"source":"survey","amenity":"recycling","recycling_type":"centre"}},
{"type":"Feature","geometry":{"type":"MultiPolygon","coordinates":[[[[16.7025469,48.8539411],[16.702737,48.8538067],[16.7031519,48.8540569],[16.7029618,48.8541935],[16.7025469,48.8539411]]]]},"properties":{"source":"cuzk:ruian","amenity":"recycling","recycling_type":"centre","building:levels":"1","ref:ruian:building":"81207689","building:ruian:type":"13"}},
{"type":"Feature","geometry":{"type":"MultiPolygon","coordinates":[[[[18.4896801,49.7982921],[18.4899416,49.7982258],[18.4901518,49.7985755],[18.4899042,49.7986418],[18.4898745,49.7985953],[18.4897231,49.7983592],[18.4896801,49.7982921]]]]},"properties":{"name":"Sběrný dvůr Horní Suchá","amenity":"recycling","operator":"Depos","addr:city":"Horní Suchá","addr:street":"Chrost","addr:postcode":"73535","recycling_type":"centre"}},
{"type":"Feature","geometry":{"type":"MultiPolygon","coordinates":[[[[18.2484211,49.8340113],[18.24861,49.833905],[18.2486651,49.8338741],[18.2486967,49.8338563],[18.248987,49.833693],[18.2491654,49.8338457],[18.2488602,49.8340206],[18.2486243,49.8341558],[18.2484211,49.8340113]]]]},"properties":{"name":"Sběrný dvůr","amenity":"recycling","barrier":"fence","landuse":"industrial","operator":"OZO!!!","recycling_type":"centre"}},
{"type":"Feature","geometry":{"type":"MultiPolygon","coordinates":[[[[16.5524476,49.0625416],[16.5525106,49.062441],[16.5525817,49.0624555],[16.5525053,49.0625556],[16.5524476,49.0625416]]]]},"properties":{"amenity":"recycling","recycling_type":"centre","source:amenity":"survey"}},
{"type":"Feature","geometry":{"type":"MultiPolygon","coordinates":[[[[12.7339215,49.8715393],[12.7345457,49.8714926],[12.7345854,49.8715385],[12.734649,49.8716417],[12.7345578,49.8716821],[12.7340602,49.8717084],[12.7340371,49.871678],[12.7340165,49.871651],[12.7339577,49.8716549],[12.7339215,49.8715393]]]]},"properties":{"name":"Sbětný dvůr Planá","amenity":"recycling","recycling_type":"centre"}},
{"type":"Feature","geometry":{"type":"MultiPolygon","coordinates":[[[[14.2950651,50.8451139],[14.2952151,50.8448229],[14.2958605,50.8449556],[14.2957105,50.8452466],[14.2950651,50.8451139]]]]},"properties":{"name":"Sběrný dvůr","amenity":"recycling","operator":"Obec Růžová","opening_hours":"Sa 08:00-12:00","recycling_type":"centre"}},
{"type":"Feature","geometry":{"type":"MultiPolygon","coordinates":[[[[14.1627923,49.3135355],[14.1633356,49.3134461],[14.1634889,49.3137629],[14.1635624,49.3139636],[14.1631163,49.3140538],[14.1627923,49.3135355]]]]},"properties":{"amenity":"recycling","recycling_type":"centre"}},
{"type":"Feature","geometry":{"type":"MultiPolygon","coordinates":[[[[14.5531885,50.2675624],[14.553754,50.2669282],[14.5541836,50.2671613],[14.5542019,50.2675152],[14.5542197,50.267591],[14.5537178,50.2678572],[14.5531885,50.2675624]]]]},"properties":{"amenity":"recycling","barrier":"fence","recycling_type":"centre"}},
{"type":"Feature","geometry":{"type":"MultiPolygon","coordinates":[[[[14.0516667,49.3665977],[14.0517913,49.3664882],[14.0519837,49.3663581],[14.052144,49.3662297],[14.0521829,49.3661546],[14.0523399,49.366169],[14.0523064,49.3662796],[14.0524568,49.3665135],[14.0524456,49.3666549],[14.052312,49.3667547],[14.0519417,49.3667619],[14.0517969,49.3667438],[14.0517511,49.3667766],[14.0516667,49.3665977]]]]},"properties":{"amenity":"recycling","recycling_type":"centre"}},
{"type":"Feature","geometry":{"type":"MultiPolygon","coordinates":[[[[14.4607141,51.0074006],[14.4611033,51.0071839],[14.4614435,51.0075291],[14.4609877,51.0076731],[14.4607141,51.0074006]]]]},"properties":{"amenity":"recycling","landuse":"industrial","name":"sběrné suroviny","recycling_type":"centre"}},
{"type":"Feature","geometry":{"type":"MultiPolygon","coordinates":[[[[14.1399899,49.3173079],[14.1400184,49.3170432],[14.1413901,49.3170961],[14.141362,49.3173689],[14.1413612,49.3173763],[14.1405436,49.3173355],[14.1399899,49.3173079]]]]},"properties":{"amenity":"recycling","landuse":"industrial","recycling_type":"centre"}},
{"type":"Feature","geometry":{"type":"MultiPolygon","coordinates":[[[[14.8852815,50.0808437],[14.8853781,50.0807095],[14.8861291,50.0808988],[14.8862122,50.0811174],[14.8852815,50.0808437]]]]},"properties":{"name":"Sběrný dvůr","amenity":"recycling","website":"https://www.tsceskybrod.cz/sberny-dvur","recycling_type":"centre"}},
{"type":"Feature","geometry":{"type":"MultiPolygon","coordinates":[[[[16.5452862,49.1646722],[16.545372,49.1646339],[16.5456793,49.1644966],[16.5457998,49.1644381],[16.5460908,49.1647073],[16.5455879,49.1649529],[16.5452862,49.1646722]]]]},"properties":{"name":"Recyklační centrum, sběrný dvůr odpadů obce Ostopovice","amenity":"recycling","operator":"Obec Ostopovice","recycling_type":"centre"}},
{"type":"Feature","geometry":{"type":"MultiPolygon","coordinates":[[[[16.6219671,49.4658345],[16.6219752,49.4656915],[16.6224137,49.4656959],[16.6223614,49.4658955],[16.6223373,49.4659417],[16.6221307,49.4658685],[16.6219671,49.4658345]]]]},"properties":{"name":"Sběrný dvůr Lhota Rapotina","amenity":"recycling","landuse":"industrial","recycling_type":"centre"}},
{"type":"Feature","geometry":{"type":"MultiPolygon","coordinates":[[[[18.2174255,49.6988229],[18.2177521,49.6984569],[18.2181101,49.6986802],[18.2184649,49.6988789],[18.2183314,49.6989513],[18.2182284,49.698989],[18.2181819,49.699006],[18.2174255,49.6988229]]]]},"properties":{"amenity":"recycling","barrier":"fence","landuse":"industrial","recycling_type":"centre"}},
{"type":"Feature","geometry":{"type":"MultiPolygon","coordinates":[[[[18.228531,49.4308691],[18.2285787,49.4308603],[18.2286079,49.4309271],[18.2285602,49.4309359],[18.228531,49.4308691]]]]},"properties":{"amenity":"recycling","recycling_type":"centre"}},
{"type":"Feature","geometry":{"type":"MultiPolygon","coordinates":[[[[14.4723117,50.2131585],[14.4725257,50.2125108],[14.4729927,50.212574],[14.4727787,50.2132217],[14.4723117,50.2131585]]]]},"properties":{"area":"yes","note":"position approx.","amenity":"recycling","barrier":"wall","highway":"service","operator:cs":"obec Bašt","recycling_type":"centre"}},
{"type":"Feature","geometry":{"type":"MultiPolygon","coordinates":[[[[14.2243294,50.0589087],[14.224444,50.0584415],[14.2246085,50.0581855],[14.2249799,50.0584479],[14.2250471,50.0588863],[14.2243294,50.0589087]]]]},"properties":{"name":"Myslivna","amenity":"recycling","website":"https://www.chyne.cz/obecniurad/odpady/1276-nakladani-s-odpady","opening_hours":"Sa[1] 08:00-11:00","recycling_type":"centre"}},
{"type":"Feature","geometry":{"type":"MultiPolygon","coordinates":[[[[14.4506035,48.9866484],[14.4507708,48.9866213],[14.4508233,48.9866129],[14.4511116,48.9874942],[14.4509827,48.9876102],[14.4509292,48.9876006],[14.4506035,48.9866484]]]]},"properties":{"amenity":"recycling","landuse":"industrial","recycling_type":"centre"}},
{"type":"Feature","geometry":{"type":"MultiPolygon","coordinates":[[[[14.4397983,48.9725482],[14.4399297,48.9723651],[14.4402194,48.9720552],[14.4402335,48.9720579],[14.4404535,48.9721227],[14.4404855,48.972147],[14.44036,48.9723201],[14.4401836,48.9725025],[14.4401724,48.9725312],[14.4401584,48.9725766],[14.4397983,48.9725482]]]]},"properties":{"amenity":"recycling","landuse":"industrial","recycling_type":"centre"}},
{"type":"Feature","geometry":{"type":"MultiPolygon","coordinates":[[[[16.5011894,50.0323914],[16.5019802,50.0324188],[16.5021652,50.0326303],[16.5021611,50.0326917],[16.5013358,50.0326538],[16.5011894,50.0323914]]]]},"properties":{"amenity":"recycling","recycling_type":"centre"}},
{"type":"Feature","geometry":{"type":"MultiPolygon","coordinates":[[[[14.1121209,50.1633727],[14.1122046,50.1632161],[14.1125495,50.1631453],[14.1129079,50.1630123],[14.113082,50.1630187],[14.1130787,50.1632032],[14.1130519,50.1633963],[14.1129012,50.1636302],[14.1127907,50.1637675],[14.1124055,50.1635744],[14.1121209,50.1633727]]]]},"properties":{"amenity":"recycling","recycling_type":"centre"}},
{"type":"Feature","geometry":{"type":"MultiPolygon","coordinates":[[[[14.1125879,50.1619947],[14.1127519,50.1617165],[14.1131468,50.1619565],[14.113165,50.1620045],[14.1132985,50.1620841],[14.1134662,50.1621546],[14.113358,50.1622184],[14.113115,50.1620836],[14.1129722,50.1620964],[14.1125879,50.1619947]]]]},"properties":{"amenity":"recycling","recycling_type":"centre"}},
{"type":"Feature","geometry":{"type":"MultiPolygon","coordinates":[[[[14.8446456,50.2110878],[14.8449996,50.2108166],[14.8453563,50.2108131],[14.8454663,50.210929899999999],[14.8454752,50.2112371],[14.845477,50.2113023],[14.8447904,50.2113126],[14.8447877,50.2112354],[14.8446536,50.211232],[14.8446456,50.2110878]]]]},"properties":{"name":"Sběrný dvůr","amenity":"recycling","operator":"FCC Česká republika s. r. o.","opening_hours":"Mo-Fr 08:00-12:00,13:00-17:00; Sa 08:00-13:00","recycling_type":"centre"}},
{"type":"Feature","geometry":{"type":"MultiPolygon","coordinates":[[[[18.2485619,49.3497825],[18.2498869,49.3496681],[18.2499835,49.3504325],[18.2487255,49.3505042],[18.2485619,49.3497825]]]]},"properties":{"amenity":"recycling","landuse":"industrial","recycling_type":"centre"}},
{"type":"Feature","geometry":{"type":"MultiPolygon","coordinates":[[[[16.4791993,49.7558749],[16.4797154,49.7559186],[16.4797504,49.7558688],[16.4807895,49.7559971],[16.4806961,49.7563138],[16.480166,49.7562505],[16.479854,49.7562],[16.4793698,49.7561373],[16.4792811,49.75616],[16.4791993,49.7558749]]]]},"properties":{"amenity":"recycling","recycling_type":"centre"}},
{"type":"Feature","geometry":{"type":"MultiPolygon","coordinates":[[[[15.9064142,50.1157337],[15.9064592,50.1153111],[15.9066255,50.1153189],[15.9066421,50.1153191],[15.9065971,50.1157417],[15.9064142,50.1157337]]]]},"properties":{"amenity":"recycling","operator":"Obec Býšť","recycling_type":"centre"}},
{"type":"Feature","geometry":{"type":"MultiPolygon","coordinates":[[[[14.245594,50.0395311],[14.2456828,50.0392757],[14.2457543,50.0393021],[14.2461304,50.0394413],[14.2464312,50.0395526],[14.2463952,50.0396113],[14.245594,50.0395311]]]]},"properties":{"amenity":"recycling","recycling_type":"centre"}},
{"type":"Feature","geometry":{"type":"MultiPolygon","coordinates":[[[[14.1406573,49.3180825],[14.140776,49.3177603],[14.1408098,49.317763],[14.1407821,49.3178367],[14.1408829,49.3177976],[14.1412751,49.3178608],[14.1412398,49.3179495],[14.1412428,49.3179671],[14.141249,49.3179756],[14.1412628,49.3179826],[14.1412782,49.3179846],[14.1413259,49.3179821],[14.1414067,49.3179826],[14.1414444,49.3179851],[14.1415121,49.3179937],[14.1414836,49.3180764],[14.1412208,49.3180814],[14.1408586,49.3180888],[14.1406935,49.3180834],[14.1406573,49.3180825]]]]},"properties":{"amenity":"recycling","recycling_type":"centre"}},
{"type":"Feature","geometry":{"type":"MultiPolygon","coordinates":[[[[15.581081,49.8673249],[15.581128,49.8671148],[15.5814237,49.8671672],[15.5814816,49.8671954],[15.5816771,49.8672163],[15.5819429,49.8671558],[15.5820246,49.8672061],[15.5821056,49.8673562],[15.5821413,49.8674707],[15.5813804,49.8673954],[15.5813203,49.8673589],[15.5812619,49.8673589],[15.5811875,49.8673726],[15.5810996,49.8673558],[15.5810823,49.8673435],[15.581081,49.8673249]]]]},"properties":{"amenity":"recycling","recycling_type":"centre"}},
{"type":"Feature","geometry":{"type":"MultiPolygon","coordinates":[[[[14.3323116,48.8104809],[14.3323472,48.8104145],[14.3324268,48.8103459],[14.3325916,48.8102462],[14.332743,48.8101639],[14.3328753,48.8102117],[14.3329667,48.8102138],[14.333024,48.810213],[14.332958,48.8101586],[14.33293,48.8101139],[14.3329323,48.8100816],[14.3329697,48.8100616],[14.3330295,48.8100415],[14.3331757,48.8100289],[14.3332861,48.8100309],[14.3333768,48.810036],[14.3335458,48.810079],[14.333688,48.8101631],[14.3337712,48.8102496],[14.3338511,48.8103356],[14.3338151,48.8104295],[14.3337348,48.8105216],[14.3335751,48.8105951],[14.3333174,48.8106059],[14.3330527,48.8106181],[14.3327674,48.8106218],[14.3325315,48.8106103],[14.3324407,48.8105942],[14.3323359,48.8105349],[14.3323116,48.8104809]]]]},"properties":{"name":"sběrný dvůr","amenity":"recycling","addr:city":"Český Krumlov","addr:street":"Kaplická","addr:postcode":"38101","recycling_type":"centre"}},
{"type":"Feature","geometry":{"type":"MultiPolygon","coordinates":[[[[15.1706017,50.4673816],[15.1711489,50.4672075],[15.1713929,50.4674661],[15.1708813,50.4677043],[15.1707686,50.4675805],[15.1706213,50.4674055],[15.1706017,50.4673816]]]]},"properties":{"name":"Sběrný dvůr","amenity":"recycling","recycling_type":"centre"}},
{"type":"Feature","geometry":{"type":"MultiPolygon","coordinates":[[[[14.2923661,48.7785176],[14.2923964,48.7780918],[14.2923692,48.7780224],[14.2928257,48.7777732],[14.2929538,48.7778278],[14.2932667,48.7779613],[14.293576,48.7781],[14.2935436,48.7781441],[14.2935721,48.7781561],[14.2934397,48.7782812],[14.2933898,48.778303],[14.2930922,48.7783788],[14.2929217,48.7784862],[14.2927657,48.7785691],[14.2923661,48.7785176]]]]},"properties":{"addr:city":"Větřní","addr:street":"Šumavská","amenity":"recycling","description":"Listopad-Březen: v pracovní dny otevřeno do 17:00","name":"Sběrný dvůr Větřní","opening_hours":"Mo 14-19; We 14-19; Fr 11-19; Sa 08-16","operator":"KAPEX s.r.o","operator:type":"public","phone":"+420775563381","recycling_type":"centre"}},
{"type":"Feature","geometry":{"type":"MultiPolygon","coordinates":[[[[16.7080647,48.9587356],[16.7086655,48.9587409],[16.7086561,48.9591363],[16.7085284,48.9591359],[16.7084,48.9591354],[16.7080647,48.9587356]]]]},"properties":{"amenity":"recycling","barrier":"fence","fence_type":"chain_link","recycling_type":"centre"}},
{"type":"Feature","geometry":{"type":"MultiPolygon","coordinates":[[[[15.1288291,50.1453274],[15.1290072,50.1452136],[15.1292653,50.1453821],[15.1293607,50.1453387],[15.1293652,50.1453367],[15.1294685,50.1452482],[15.129495,50.145227],[15.1297606,50.1454039],[15.1298292,50.1454495],[15.1298552,50.1454672],[15.1297314,50.1455475],[15.1294301,50.1457268],[15.1293831,50.1457013],[15.1291511,50.1458789],[15.1290365,50.1457948],[15.12899,50.1457632],[15.1290802,50.1457151],[15.1289997,50.1456543],[15.1290332,50.1456371],[15.1290995,50.1456019],[15.1290286,50.1455483],[15.1290879,50.1455171],[15.1288291,50.1453274]]]]},"properties":{"amenity":"recycling","recycling_type":"centre"}},
{"type":"Feature","geometry":{"type":"MultiPolygon","coordinates":[[[[14.7834603,50.1660143],[14.7836435,50.1660135],[14.7837935,50.1660146],[14.7840294,50.1660002],[14.7842154,50.1659544],[14.7842223,50.1659474],[14.7843986,50.1659789],[14.7845103,50.1662957],[14.7837567,50.1663243],[14.7834603,50.1660143]]]]},"properties":{"name":"Sběrný dvůr","amenity":"recycling","website":"http://ts.celakovice-mesto.cz/sd_provoz.php","operator":"Technické služby Čelákovice příspěvková organizace","opening_hours":"Fr 16:00-17:00; Sa 10:00-11:30","recycling_type":"centre"}},
{"type":"Feature","geometry":{"type":"MultiPolygon","coordinates":[[[[14.4763552,50.0538864],[14.4764825,50.0534016],[14.4768381,50.0534298],[14.4766318,50.0539569],[14.4763552,50.0538864]]]]},"properties":{"amenity":"recycling","name":"Výkupna surovin Záběhlice","recycling_type":"centre","website":"https://kovo-group.cz/#chodovska"}},
{"type":"Feature","geometry":{"type":"MultiPolygon","coordinates":[[[[16.9266256,48.7782478],[16.9276561,48.7772218],[16.9286921,48.7776658],[16.9277693,48.7785836],[16.9266256,48.7782478]]]]},"properties":{"amenity":"recycling","recycling_type":"centre"}},
{"type":"Feature","geometry":{"type":"MultiPolygon","coordinates":[[[[14.4867949,48.744538],[14.486949,48.744428],[14.4870948,48.7444615],[14.48728,48.744504],[14.487261,48.744538],[14.48721,48.744526],[14.487176,48.74458],[14.487341,48.744619],[14.487328,48.744644],[14.487235,48.744618],[14.487221,48.74464],[14.487263,48.744653],[14.487236,48.744691],[14.487416,48.744745],[14.487461,48.74468],[14.4875469,48.7447057],[14.4875699,48.7446747],[14.4876076,48.74463],[14.4876505,48.7446442],[14.4874493,48.7449059],[14.487216,48.7450722],[14.486878,48.7449997],[14.4867949,48.744538]]]]},"properties":{"amenity":"recycling","name":"Kovošrot","recycling_type":"centre"}},
{"type":"Feature","geometry":{"type":"MultiPolygon","coordinates":[[[[14.5705401,49.1009069],[14.5707905,49.1004007],[14.5708335,49.1004133],[14.5709002,49.1004328],[14.5708652,49.1004879],[14.5711283,49.1005525],[14.5712299,49.100575],[14.571491,49.1006468],[14.5714204,49.1007247],[14.5712539,49.1006818],[14.5711086,49.1009451],[14.5709901,49.101],[14.5707462,49.1009345],[14.5705401,49.1009069]]]]},"properties":{"area":"yes","name":"Sběrný dvůr","amenity":"recycling","operator":"Městys Ševětín","opening_hours":"We 15:00-18:00, Su 9:00-12:00","recycling_type":"centre"}},
{"type":"Feature","geometry":{"type":"MultiPolygon","coordinates":[[[[14.4860008,48.74549],[14.4861737,48.74513],[14.48618,48.7451138],[14.4862425,48.7451188],[14.4865128,48.7450976],[14.48678,48.7451289],[14.4866073,48.7452097],[14.4867318,48.745324599999999],[14.4867021,48.7453467],[14.4863883,48.7454767],[14.4860008,48.74549]]]]},"properties":{"amenity":"recycling","name":"Sběrný dvůr","recycling_type":"centre"}},
{"type":"Feature","geometry":{"type":"MultiPolygon","coordinates":[[[[18.0848868,49.9462277],[18.0850819,49.9461616],[18.0851047,49.9460736],[18.085544,49.9461263],[18.0855138,49.9462316],[18.0854928,49.9463033],[18.0854132,49.9465914],[18.0853461,49.9465811],[18.0852516,49.9465526],[18.0851389,49.9465565],[18.0849445,49.9462915],[18.0848868,49.9462277]]]]},"properties":{"name":"Sběrný dvůr","amenity":"recycling","landuse":"industrial","recycling_type":"centre"}},
{"type":"Feature","geometry":{"type":"MultiPolygon","coordinates":[[[[14.3649654,49.9875679],[14.3652257,49.9871087],[14.3660044,49.987703],[14.3659644,49.9877704],[14.3649654,49.9875679]]]]},"properties":{"amenity":"recycling","recycling_type":"centre"}},
{"type":"Feature","geometry":{"type":"MultiPolygon","coordinates":[[[[14.4625282,50.0657031],[14.4626286,50.0656256],[14.4627852,50.0655446],[14.4630656,50.0654142],[14.4632335,50.0653345],[14.463308,50.0652999],[14.46352,50.0654784],[14.4636406,50.0655433],[14.4637437,50.0655708],[14.4637398,50.0655957],[14.4635725,50.0656769],[14.4630552,50.065788],[14.4626157,50.0657954],[14.4625282,50.0657031]]]]},"properties":{"name":"Pražské služby","amenity":"recycling","recycling_type":"centre"}},
{"type":"Feature","geometry":{"type":"MultiPolygon","coordinates":[[[[15.4411004,49.4087952],[15.441193,49.4087673],[15.4414143,49.4086984],[15.4415604,49.4089244],[15.4412574,49.4090195],[15.4411004,49.4087952]]]]},"properties":{"height":"2","amenity":"recycling","barrier":"fence","fence_type":"concrete","recycling_type":"centre"}},
{"type":"Feature","geometry":{"type":"MultiPolygon","coordinates":[[[[14.1560066,50.0908884],[14.1560474,50.0899695],[14.1561285,50.0895291],[14.1564506,50.0895657],[14.156515,50.0931005],[14.1560121,50.0931051],[14.1560068,50.0925306],[14.1560154,50.0921922],[14.1560225,50.0913048],[14.1560079,50.0911655],[14.1560066,50.0908884]]]]},"properties":{"name":"ECOWOOD Unhošť","amenity":"recycling","website":"http://www.ecowood.cz/","opening_hours":"Mo-Fr 08:00-15:00; Sa 09:00-11:30","recycling_type":"centre"}},
{"type":"Feature","geometry":{"type":"MultiPolygon","coordinates":[[[[14.6467473,50.187462],[14.6471739,50.1870394],[14.6472517,50.1870671],[14.6471998,50.1873254],[14.647292,50.1876299],[14.6471652,50.1875838],[14.6471393,50.1876059],[14.6467473,50.187462]]]]},"properties":{"amenity":"recycling","recycling_type":"centre"}},
{"type":"Feature","geometry":{"type":"MultiPolygon","coordinates":[[[[16.7717946,48.9110921],[16.7718008,48.9107964],[16.7721705,48.9108086],[16.7722303,48.9108415],[16.7719807,48.911099],[16.7719385,48.9111426],[16.7717946,48.9110921]]]]},"properties":{"amenity":"recycling","recycling_type":"centre"}},
{"type":"Feature","geometry":{"type":"MultiPolygon","coordinates":[[[[14.1368056,50.4602298],[14.1369719,50.4595494],[14.1376337,50.4596372],[14.1374497,50.4602974],[14.1368056,50.4602298]]]]},"properties":{"amenity":"recycling","recycling_type":"centre"}},
{"type":"Feature","geometry":{"type":"MultiPolygon","coordinates":[[[[15.8035123,50.0873314],[15.8037016,50.0873191],[15.8037115,50.0873816],[15.8035222,50.0873939],[15.8035123,50.0873314]]]]},"properties":{"amenity":"recycling","recycling_type":"centre"}},
{"type":"Feature","geometry":{"type":"MultiPolygon","coordinates":[[[[14.531781,50.0855184],[14.5318192,50.0853963],[14.5318611,50.0852862],[14.5318778,50.0852219],[14.5319267,50.085076],[14.5319515,50.0850055],[14.5321237,50.0844853],[14.532689,50.0846213],[14.5325349,50.0852471],[14.5325537,50.0852494],[14.5324852,50.0855812],[14.5322797,50.0855652],[14.5320247,50.0855442],[14.531781,50.0855184]]]]},"properties":{"addr:city":"Praha","addr:housenumber":"5","addr:postcode":"10800","addr:street":"Teplárenská","amenity":"recycling","name":"Sběrný dvůr hlavního města","recycling_type":"centre"}},
{"type":"Feature","geometry":{"type":"MultiPolygon","coordinates":[[[[14.494181,50.0690633],[14.4941869,50.0690103],[14.4942623,50.0689941],[14.4942567,50.0690704],[14.4941918,50.0690714],[14.494181,50.0690633]]]]},"properties":{"amenity":"recycling","recycling_type":"centre"}},
{"type":"Feature","geometry":{"type":"MultiPolygon","coordinates":[[[[15.5317552,49.8848912],[15.5320755,49.8847908],[15.5323214,49.8847749],[15.5325108,49.8847452],[15.5325674,49.8847509],[15.5326276,49.8847794],[15.5326754,49.8848284],[15.5326559,49.8848718],[15.5322473,49.8850554],[15.531866,49.8852268],[15.5317693,49.8849459],[15.5317552,49.8848912]]]]},"properties":{"amenity":"recycling","recycling_type":"centre"}},
{"type":"Feature","geometry":{"type":"MultiPolygon","coordinates":[[[[14.3721807,50.0467702],[14.3727912,50.0465794],[14.3737813,50.0472279],[14.3730333,50.0473506],[14.3721807,50.0467702]]]]},"properties":{"amenity":"recycling","name":"Kompostárna","recycling_type":"centre"}},
{"type":"Feature","geometry":{"type":"MultiPolygon","coordinates":[[[[17.070824000000003,49.432026],[17.070883,49.431763],[17.0708997,49.4315593],[17.0716099,49.4315904],[17.071633,49.4318739],[17.0712679,49.431914],[17.0712463,49.431911],[17.0712171,49.4320563],[17.0710922,49.4320444],[17.071064,49.432041],[17.070824000000003,49.432026]]]]},"properties":{"amenity":"recycling","name":"sběrný dvůr","recycling_type":"centre"}},
{"type":"Feature","geometry":{"type":"MultiPolygon","coordinates":[[[[17.0458076,49.4728781],[17.0458253,49.4728218],[17.0458514,49.4728127],[17.0459991,49.4728067],[17.0462892,49.4726933],[17.0465007,49.4725428],[17.046527,49.4725322],[17.0466474,49.4726369],[17.046725,49.4726974],[17.046457,49.4728758],[17.0464012,49.4729037],[17.0463418,49.4729334],[17.045961900000003,49.4728617],[17.0459475,49.472896],[17.0459191,49.4728919],[17.0458076,49.4728781]]]]},"properties":{"amenity":"recycling","name":"sběrný dvůr","recycling_type":"centre"}},
{"type":"Feature","geometry":{"type":"MultiPolygon","coordinates":[[[[14.4999502,48.9799832],[14.5001981,48.9796768],[14.5005264,48.9797721],[14.5003678,48.9800843],[14.500052,48.9800078],[14.4999502,48.9799832]]]]},"properties":{"amenity":"recycling","recycling_type":"centre"}},
{"type":"Feature","geometry":{"type":"MultiPolygon","coordinates":[[[[14.5368648,50.6676577],[14.5378545,50.6643205],[14.5378679,50.6642253],[14.5384634,50.6642525],[14.5386618,50.6645228],[14.5386726,50.6648458],[14.5386431,50.6652113],[14.5385116,50.6656823],[14.5382917,50.6656602],[14.5377552,50.6675115],[14.5374468,50.6677223],[14.5368648,50.6676577]]]]},"properties":{"amenity":"recycling","name":"Sběrný dvůr","recycling_type":"centre"}},
{"type":"Feature","geometry":{"type":"MultiPolygon","coordinates":[[[[13.3813584,49.8917398],[13.3815003,49.8917329],[13.3815821,49.8917241],[13.3815933,49.8917725],[13.3817302,49.8917595],[13.3826271,49.8916648],[13.3826403,49.8917087],[13.3826452,49.891725],[13.382626,49.891733],[13.382651,49.891794],[13.3825023,49.8918147],[13.3821019,49.8918479],[13.3820645,49.8918963],[13.3817409,49.8919301],[13.3815249,49.8919026],[13.3813833,49.8919112],[13.3813779,49.8918826],[13.3813584,49.8917398]]]]},"properties":{"amenity":"recycling","recycling_type":"centre"}},
{"type":"Feature","geometry":{"type":"MultiPolygon","coordinates":[[[[13.4036039,49.7554789],[13.40397,49.7554503],[13.4041824,49.7554412],[13.4044478,49.7560082],[13.4040619,49.7560875],[13.4036888,49.7556548],[13.4036641,49.7556136],[13.4036039,49.7554789]]]]},"properties":{"amenity":"recycling","recycling_type":"centre"}},
{"type":"Feature","geometry":{"type":"MultiPolygon","coordinates":[[[[16.7262071,49.1174171],[16.726233,49.1172682],[16.7262149,49.1172599],[16.7262558,49.1172046],[16.7263398,49.1172033],[16.7263513,49.1171348],[16.7268809,49.1171673],[16.7268639,49.1172681],[16.7267136,49.1173852],[16.7266513,49.1174338],[16.7263135,49.1174397],[16.7262071,49.1174171]]]]},"properties":{"amenity":"recycling","recycling_type":"centre"}},
{"type":"Feature","geometry":{"type":"MultiPolygon","coordinates":[[[[14.6628106,50.1303425],[14.6629403,50.1300998],[14.6634571,50.1302164],[14.6632186,50.1304578],[14.6628106,50.1303425]]]]},"properties":{"amenity":"recycling","recycling_type":"centre"}},
{"type":"Feature","geometry":{"type":"MultiPolygon","coordinates":[[[[13.4001755,49.8132173],[13.4002893,49.8129694],[13.40083,49.8130625],[13.4008158,49.8133012],[13.4007609,49.813424500000007],[13.4002385,49.8133458],[13.4002179,49.8133038],[13.4001755,49.8132173]]]]},"properties":{"amenity":"recycling","recycling_type":"centre"}},
{"type":"Feature","geometry":{"type":"MultiPolygon","coordinates":[[[[17.3550234,49.9827757],[17.3552527,49.9827622],[17.3552551,49.9829001],[17.3550308,49.982912],[17.3550234,49.9827757]]]]},"properties":{"amenity":"recycling","recycling_type":"centre"}},
{"type":"Feature","geometry":{"type":"MultiPolygon","coordinates":[[[[14.6582526,50.1789838],[14.65895,50.1788052],[14.6590332,50.1789598],[14.6588927,50.1789877],[14.6583351,50.1791252],[14.6582526,50.1789838]]]]},"properties":{"addr:city":"Brandýs nad Labem-Stará Boleslav","addr:housenumber":"2345","addr:postcode":"25001","addr:street":"Strojírenská","amenity":"recycling","building":"industrial","name":"AVE CZ","operator":"AVE CZ","recycling_type":"centre"}},
{"type":"Feature","geometry":{"type":"MultiPolygon","coordinates":[[[[16.6447921,49.0575056],[16.644912,49.0574499],[16.6453186,49.057436],[16.6455265,49.0575215],[16.6455128,49.0576179],[16.6450424,49.0576448],[16.6448528,49.0575622],[16.6447921,49.0575056]]]]},"properties":{"amenity":"recycling","recycling_type":"centre"}},
{"type":"Feature","geometry":{"type":"MultiPolygon","coordinates":[[[[17.9605639,49.4180448],[17.9605844,49.417917],[17.9605889,49.4178893],[17.9618675,49.41824],[17.9618198,49.418321],[17.9617782,49.4183918],[17.9605639,49.4180448]]]]},"properties":{"amenity":"recycling","recycling_type":"centre"}},
{"type":"Feature","geometry":{"type":"MultiPolygon","coordinates":[[[[15.6608795,49.8467905],[15.6609036,49.8467501],[15.6611426,49.8463558],[15.6614575,49.8464316],[15.6614849,49.846439],[15.6615123,49.8464464],[15.661541,49.8464541],[15.6617438,49.8465088],[15.6616967,49.8465977],[15.6615877,49.846574],[15.6615377,49.8466695],[15.6614982,49.8466609],[15.6614134,49.8468228],[15.661534,49.846849],[15.6615145,49.8468856],[15.661495,49.846922],[15.6612473,49.846869],[15.6612664,49.846832],[15.6612409,49.8468265],[15.6609984,49.8467747],[15.6609794,49.8468115],[15.6608795,49.8467905]]]]},"properties":{"addr:city":"Seč","addr:housenumber":"1","addr:street":"Chrudimská","amenity":"recycling","opening_hours":"Mo-Fr 07:00-11:00, Mo,We 12:00-15:30, Fr 12:00-15:00, Sa,Su off","opening_hours:covid19":"same","operator":"Město Seč","recycling_type":"centre"}},
{"type":"Feature","geometry":{"type":"MultiPolygon","coordinates":[[[[14.5351688,50.0761628],[14.5368639,50.0757738],[14.5369272,50.0767765],[14.5355337,50.07679],[14.5351688,50.0761628]]]]},"properties":{"amenity":"recycling","recycling_type":"centre"}},
{"type":"Feature","geometry":{"type":"MultiPolygon","coordinates":[[[[15.5675273,49.8732949],[15.5679682,49.8731759],[15.5683078,49.8736618],[15.5684903,49.8736089],[15.5685073,49.8736339],[15.5683041,49.873755],[15.5682659,49.8737688],[15.5682247,49.8737836],[15.5681792,49.8737859],[15.5681407,49.8737761],[15.5679218,49.8735962],[15.5675273,49.8732949]]]]},"properties":{"addr:city":"Třemošnice","addr:postcode":"53843","addr:street":"U Vápenky","amenity":"recycling","name":"Recycling - kovové odpady a. s.","recycling_type":"centre"}},
{"type":"Feature","geometry":{"type":"MultiPolygon","coordinates":[[[[17.3588076,49.3673804],[17.3589935,49.3671529],[17.3593516,49.3672726],[17.3596785,49.3673229],[17.3595877,49.3674592],[17.3598286,49.3675341],[17.3597864,49.3677466],[17.3594454,49.367608],[17.3591644,49.367516],[17.3589733,49.3674519],[17.3588076,49.3673804]]]]},"properties":{"amenity":"recycling","recycling_type":"centre"}},
{"type":"Feature","geometry":{"type":"MultiPolygon","coordinates":[[[[13.8147657,50.3473447],[13.8164021,50.3461249],[13.816774,50.3463608],[13.8174699,50.3467672],[13.8169603,50.3472551],[13.8160009,50.3479069],[13.8157112,50.3479069],[13.8154323,50.3479685],[13.8147657,50.3473447]]]]},"properties":{"amenity":"recycling","recycling_type":"centre"}},
{"type":"Feature","geometry":{"type":"MultiPolygon","coordinates":[[[[15.3483739,49.5584576],[15.3486015,49.5577376],[15.3502277,49.5580831],[15.3512522,49.5584338],[15.3509961,49.558811],[15.3507318,49.5587688],[15.3506262,49.5589369],[15.3483739,49.5584576]]]]},"properties":{"amenity":"recycling","recycling_type":"centre"}},
{"type":"Feature","geometry":{"type":"MultiPolygon","coordinates":[[[[12.865158,50.3283868],[12.8652927,50.3283771],[12.8653436,50.3286649],[12.8652089,50.3286746],[12.865158,50.3283868]]]]},"properties":{"amenity":"recycling","opening_hours":"středa, sobota","operator":"OÚ Merklín","operator:type":"government","recycling_type":"centre"}},
{"type":"Feature","geometry":{"type":"MultiPolygon","coordinates":[[[[14.0797405,50.2231931],[14.0801567,50.2227647],[14.0810472,50.2230324],[14.0805237,50.2234965],[14.0797405,50.2231931]]]]},"properties":{"amenity":"recycling","name":"Sběrné suroviny","recycling_type":"centre"}},
{"type":"Feature","geometry":{"type":"MultiPolygon","coordinates":[[[[14.4419556,51.0038693],[14.4425017,51.0037452],[14.4432047,51.0035891],[14.4433747,51.0035682],[14.4434059,51.0037515],[14.4433321,51.003884],[14.4433454,51.0039355],[14.4430746,51.0039654],[14.4430866,51.004015],[14.4431041,51.0041207],[14.44309,51.0041722],[14.4431611,51.0041828],[14.4430203,51.0041916],[14.4427112,51.0041908],[14.442254,51.0043507],[14.4421493,51.0044182],[14.4420923,51.0043722],[14.4420359,51.0042296],[14.4420131,51.0040807],[14.4419557,51.0040959],[14.4419556,51.0038693]]]]},"properties":{"amenity":"recycling","email":"objednavky@ts-sluknov.cz","landuse":"industrial","name":"TS Šluknov","phone":"+420 412 386 202","recycling_type":"centre","website":"https://www.ts-sluknov.cz/"}},
{"type":"Feature","geometry":{"type":"MultiPolygon","coordinates":[[[[18.260068,49.8566808],[18.2602234,49.8565533],[18.2605503,49.8567232],[18.2604581,49.8567905],[18.2603905,49.8568496],[18.260068,49.8566808]]]]},"properties":{"amenity":"recycling","operator":"OZO OSTRAVA s.r.o.","recycling_type":"centre"}}
